{"C8pQz67ragXUlee19tCivA":{"rating":2.5,"num_photos":0,"postal_code":"61801","name":"Starbucks"},"BWo4d7ynOWxhjo2dUvLMJQ":{"rating":5.0,"num_photos":0,"postal_code":"61820","name":"Kimmy's Cat Care"},"r8h3_Chc7davvVelcvV-NQ":{"rating":4.5,"num_photos":0,"postal_code":"61820","name":"Kane & Company"},"Y8C2FuA0Aiy7uMgXXa3HUg":{"rating":4.0,"num_photos":0,"postal_code":"61820","name":"Depot Barber Shop"},"XlA9tqM8xwsoCWYMh-Rr_w":{"rating":3.0,"num_photos":0,"postal_code":"61822","name":"Illini Recycling"},"pFvyOYi1O5umrbzGVYSYKg":{"rating":5.0,"num_photos":0,"postal_code":"61820","name":"Edible Arrangements"},"wDgPYWuBzBTZkeV6FgyEeg":{"rating":5.0,"num_photos":0,"postal_code":"61820","name":"C-U Pet Sitting Service"},"oNRBwIyojAF-3uLIqQLc_w":{"rating":1.0,"num_photos":0,"postal_code":"61820","name":"Campustown Rentals"},"u8C8pRvaHXg3PgDrsUHJHQ":{"rating":3.5,"num_photos":4,"postal_code":"61820","name":"Papa Del's Pizza"},"Q7-hLbFxUNVrCZx07py2ig":{"rating":5.0,"num_photos":0,"postal_code":"61820","name":"Eden's Rain Salon"},"4hWDMVtfnpyY72_5QMbthA":{"rating":5.0,"num_photos":0,"postal_code":"61820","name":"Old Time Meat & Deli Shoppe"},"80zO6vFXIvhp4WDprnzBug":{"rating":4.5,"num_photos":0,"postal_code":"61821","name":"Round Barn True Value Hardware"},"WNaPTdGUMiBZpA5MFMZ4-A":{"rating":3.5,"num_photos":0,"postal_code":"61853","name":"Mahomet Family Restaurant"},"QI5Mwy71How6E-KCtHp5Jg":{"rating":3.5,"num_photos":0,"postal_code":"61821","name":"Queen's Nails"},"33GdLjkOmTTEQceu0YZQ_w":{"rating":2.5,"num_photos":0,"postal_code":"61821","name":"Freedom's Choice"},"AtcNNpbD5MeJj6J4MXpz5w":{"rating":3.5,"num_photos":1,"postal_code":"61856","name":"3 Ravens Food & Spirits"},"DuyBfbcffclckF_0prChpQ":{"rating":5.0,"num_photos":0,"postal_code":"61820","name":"Body Therapy Center"},"XB9NX-_MsNOwyLw5PrMkmg":{"rating":4.0,"num_photos":0,"postal_code":"61802","name":"High Caliber Training Center & Indoor Range"},"Z45CFc9i5vnhNjQhrpdfog":{"rating":4.0,"num_photos":0,"postal_code":"61822","name":"Gailey Eye Clinic"},"1J4xQAz-4MfOmyFoyKIRZA":{"rating":2.0,"num_photos":0,"postal_code":"61822","name":"Microtel Inn & Suites By Wyndham Champaign"},"dmoK17TTpw7rVPqToYcxbw":{"rating":2.5,"num_photos":0,"postal_code":"61822","name":"J.D. Byrider"},"KJlgknxUcW54w9B-XcGSGA":{"rating":5.0,"num_photos":0,"postal_code":"61820","name":"Defy Gravity"},"lWmDrnqgU6w3gFaJyn_1Uw":{"rating":3.5,"num_photos":1,"postal_code":"61820","name":"Radio Maria"},"rwuiLDAkVUNEJex-oQlA7g":{"rating":1.0,"num_photos":0,"postal_code":"61820","name":"Green Street Realty"},"-fiUXzkxRfbHY9TKWwuptw":{"rating":4.0,"num_photos":7,"postal_code":"61820","name":"DESTIHL Restaurant & Brew Works"},"oasj1sB0V02jtJOaXZWm-w":{"rating":2.0,"num_photos":0,"postal_code":"61820","name":"Sears Hometown Store"},"YG3cf30rN3K9H56-JOG6Iw":{"rating":2.5,"num_photos":0,"postal_code":"61820","name":"Starbucks"},"400LXhwJuQwYKLknZ3fgJQ":{"rating":3.5,"num_photos":0,"postal_code":"61820","name":"The Accord"},"fbQjAy7MTR8hdt4Gg2H_dA":{"rating":3.5,"num_photos":0,"postal_code":"61820","name":"Milk Tea House"},"4SGa5HFu7Q4rrsAAWJa-ew":{"rating":3.0,"num_photos":0,"postal_code":"61821","name":"Popeyes Louisiana Kitchen"},"a0EMdy6U8H1gHiMrIR3QcQ":{"rating":3.5,"num_photos":0,"postal_code":"61822","name":"Fred's Plumbing Heating Air Conditioning Electric"},"JXuZErpQIO9JlkzJ13kJHQ":{"rating":4.0,"num_photos":0,"postal_code":"61820","name":"TJ Maxx"},"EsYPn6FsVa7weMdgHwFfEA":{"rating":4.0,"num_photos":0,"postal_code":"61821","name":"Thornton's Oil Company"},"kVLEZfg_jAyIRI2TR08BcQ":{"rating":5.0,"num_photos":0,"postal_code":"61822","name":"Pace Pro Carpet Cleaners and Restoration"},"26zwwlKhzdjjaev4YrNHrg":{"rating":3.0,"num_photos":0,"postal_code":"61820","name":"Yong's Alterations"},"fNfui5uodrkWgUb06M4QTw":{"rating":4.0,"num_photos":0,"postal_code":"61821","name":"Buttitta John the Tailor"},"B2hnhxgCO-a919tfem6yIQ":{"rating":4.5,"num_photos":0,"postal_code":"61801","name":"Illini Union"},"7y15tx9HxN8O2exJfTbGQg":{"rating":5.0,"num_photos":0,"postal_code":"61820","name":"Midwest Barber Co"},"F1qPjasn0R6-j8sa6iYNmA":{"rating":3.0,"num_photos":8,"postal_code":"61820","name":"Guido's Bar & Grill"},"ecOBYL1FoVAt4fGzpxYkdQ":{"rating":4.0,"num_photos":0,"postal_code":"61801","name":"Urbana Champaign Independent Media Center"},"CHP5izepTOaDObwZJJgeBQ":{"rating":3.0,"num_photos":0,"postal_code":"61822","name":"Baytowne Nails"},"Ah4i15g8Ow_zphzcpulTxQ":{"rating":3.5,"num_photos":2,"postal_code":"61801","name":"The Bread Company"},"bDnnRwFY9vCVTvnuI-n3eg":{"rating":3.5,"num_photos":0,"postal_code":"61820","name":"Bob's Pet Grooming"},"oVI5iws1iOZECl8DtaAqsg":{"rating":2.0,"num_photos":0,"postal_code":"61822","name":"Michaels"},"IPpTt6Vzg5SCNVFaKPT0lg":{"rating":4.5,"num_photos":0,"postal_code":"61801","name":"Grainger Engineering Library"},"tx_0mIXEr4TPucSYyfA2eg":{"rating":2.5,"num_photos":0,"postal_code":"61820","name":"Sarku Japan"},"g8Lr8GXREGLKRp_Ckgks_w":{"rating":3.0,"num_photos":0,"postal_code":"61820","name":"Carrie's"},"Cqqd6l6jSx7pOnsgtLp_dQ":{"rating":3.5,"num_photos":0,"postal_code":"61874","name":"Schnucks - Savoy"},"ZQH1s3nTDyclGrQ160NrEQ":{"rating":3.5,"num_photos":0,"postal_code":"61801","name":"Lil Porgy's Bar-B-Que"},"dYG5gBOwq4t8xxPMqFKvJA":{"rating":5.0,"num_photos":0,"postal_code":"61821","name":"Masterspec Home Inspection Service"},"qeJnMI5RmyJ2TZvkqvjn6Q":{"rating":3.5,"num_photos":4,"postal_code":"61820","name":"Biaggi's Ristorante Italiano"},"5lXhJe7gob74m93eyjyp3A":{"rating":3.0,"num_photos":0,"postal_code":"61801","name":"Illini Union Hotel"},"mgOv09H3So_zyy-YJZqVCw":{"rating":2.0,"num_photos":0,"postal_code":"61803","name":"Shaffer's Sanitary"},"AODQ2MAT92hvHeMm3K1G3Q":{"rating":2.0,"num_photos":0,"postal_code":"61821","name":"Just Be Salon"},"sart5pCz8oUZsQ_3XplcMQ":{"rating":3.0,"num_photos":0,"postal_code":"61821","name":"McKinley Event Center"},"CPjWjKn4bj3QQFQ1nUlXUg":{"rating":4.0,"num_photos":3,"postal_code":"61820","name":"8F Ice Cream & Crepe"},"YIh59OhCJl5lA4Arzi-vbw":{"rating":2.0,"num_photos":0,"postal_code":"61820","name":"Number 1 Nails & Alteration Shop"},"wcEPI5M6jGSg6jPM37sR3w":{"rating":3.5,"num_photos":0,"postal_code":"61802","name":"Impressions Auto Detailing"},"9zGkU1ahmYCn3DlnKOXhqA":{"rating":4.5,"num_photos":0,"postal_code":"61820","name":"Arby's"},"X3-dI5LGMdv6EQ8OLoOU9w":{"rating":2.0,"num_photos":0,"postal_code":"61802","name":"Casey's General Store"},"l1Ai_fWWlNGy0anhghiefg":{"rating":4.0,"num_photos":0,"postal_code":"61874","name":"Limited Edition Hair Studio"},"vCopginiBsz1STNhQPb8XA":{"rating":4.5,"num_photos":2,"postal_code":"61801","name":"The Dancing Dog Eatery & Juicery"},"E8b-loa-89wsnJpu9ff_Gg":{"rating":3.0,"num_photos":0,"postal_code":"61821","name":"El Toro Bravo"},"GqEPKuvvflkhWxZu_zYUhw":{"rating":4.0,"num_photos":0,"postal_code":"61803","name":"Campus Recreation Center East"},"D-B5LsTHJgrhsHVex4gyHA":{"rating":3.5,"num_photos":0,"postal_code":"61820","name":"Layalina Mediterranean Grill"},"adoQdp1D6z3DUaM498AJ-Q":{"rating":4.5,"num_photos":0,"postal_code":"61822","name":"Payless Shoesource"},"qog6Xyb97Wy3xIztQbRHBg":{"rating":3.0,"num_photos":0,"postal_code":"61820","name":"The Beach - Sun and Spa"},"znYmzi0LsuWZtg7zBZM_FA":{"rating":5.0,"num_photos":0,"postal_code":"61802","name":"Garage One Enterprises"},"kOyeZ4bBcA0_l1KPmlDDjQ":{"rating":2.0,"num_photos":0,"postal_code":"61820","name":"Family Dental Care of Champaign"},"DY-BoVUovVyz__pV_km5oQ":{"rating":4.5,"num_photos":0,"postal_code":"61820","name":"Regis Salon"},"ettDpuIjPxsUXpQg93JA1w":{"rating":5.0,"num_photos":0,"postal_code":"61874","name":"VCA Heritage Animal Hospital"},"jUddhNjGAE6W7MQKaUEZ4Q":{"rating":2.0,"num_photos":5,"postal_code":"61821","name":"Ryan's"},"ruNKGMxlL2ojNL_83jVeZQ":{"rating":4.5,"num_photos":0,"postal_code":"61802","name":"Angel Nails"},"aFJ8NSdpJi9LcaMm6ICowQ":{"rating":1.5,"num_photos":0,"postal_code":"61822","name":"Burger King"},"iX5397ez5snnQRHLflyctQ":{"rating":3.5,"num_photos":0,"postal_code":"61820","name":"Hair Cuttery"},"iAjiATPkHbgdmYXEdGk7tQ":{"rating":5.0,"num_photos":0,"postal_code":"61859","name":"Champaign-Danville Overhead Doors"},"eWg_XPt--3IWyMCZ_1dFlw":{"rating":4.5,"num_photos":0,"postal_code":"61821","name":"Drury Inn & Suites Champaign"},"ECKXHrl2GqNKRMG9jp4trg":{"rating":3.5,"num_photos":4,"postal_code":"61820","name":"Good Fella Korean Bistro"},"76r8VHva6jgDIAn6rRMuMw":{"rating":4.0,"num_photos":0,"postal_code":"61820","name":"Orange Leaf Frozen Yogurt"},"BoTQepQTjGbTXA4g4Hj-WA":{"rating":4.0,"num_photos":4,"postal_code":"61820","name":"Antonio's Pizza"},"LQRcuOgluaRRMyTH4i3FPw":{"rating":2.5,"num_photos":0,"postal_code":"61802","name":"UPS"},"Q8kTugdx8Iw5AzRzz6qd8w":{"rating":4.5,"num_photos":0,"postal_code":"61820","name":"Chester's BBQ"},"DGVCSBZnRLIJVQOrP-_6Aw":{"rating":4.5,"num_photos":0,"postal_code":"61802","name":"Pacific Tailoring & Alterations"},"rMudAMuRcmg3ZO1QeNoNCA":{"rating":2.5,"num_photos":0,"postal_code":"61802","name":"Carle Medical Supply"},"9_SqmNEvz6nT-CSNTUVOig":{"rating":2.5,"num_photos":0,"postal_code":"61864","name":"Chris's Service"},"p9yfzM_lO-FWKX7Bx1FnEg":{"rating":3.5,"num_photos":0,"postal_code":"61802","name":"New Prairie Construction"},"RWD5fdO8pSoJdqUGmg35Kg":{"rating":2.5,"num_photos":0,"postal_code":"61822","name":"David's Bridal"},"hD4Qnd0_nK21BqUuB2MSfQ":{"rating":4.5,"num_photos":0,"postal_code":"61873","name":"Padanos Pizza"},"WBWCPVFkcpdEqc0elEWzhw":{"rating":3.0,"num_photos":0,"postal_code":"61821","name":"Goldys"},"Ff5Prnw-k2tiDyujiIknsg":{"rating":4.5,"num_photos":0,"postal_code":"61820","name":"Albert Jodi & Associates"},"hYeU_tJcQKw9dCcXvHiEFg":{"rating":4.5,"num_photos":0,"postal_code":"61853","name":"Ace Hardware"},"JCnFvoh7lU8PF_Yhh8bgOw":{"rating":3.0,"num_photos":5,"postal_code":"61822","name":"HuHot Mongolian Grill"},"tCCBl_sHPQsJg37g2fjRpA":{"rating":1.5,"num_photos":0,"postal_code":"61821","name":"McDonald's"},"tEkUEOsxj9h0pzClYrGXMQ":{"rating":4.0,"num_photos":0,"postal_code":"61820","name":"Bar Guiliani"},"mlm2_qc912RAssglxB8h7Q":{"rating":3.0,"num_photos":0,"postal_code":"61820","name":"Bankier Apartments"},"poYE-EQTahUtKed1ElgdjA":{"rating":4.5,"num_photos":9,"postal_code":"61820","name":"Steam Industries Vape Lounge"},"2r2-SUffzmo22lvKSiIKvg":{"rating":4.0,"num_photos":0,"postal_code":"61802","name":"Stone Creek Golf Club"},"Kcn8Deq5_WFJLft584RiIA":{"rating":3.0,"num_photos":0,"postal_code":"61802","name":"Goodwill"},"TLEO3CpoJ0R7UKHvRb8fVg":{"rating":3.0,"num_photos":0,"postal_code":"61856","name":"Monticello Red Wheel Restaurant"},"BsXjDlfP84HTP_PDpLmEiQ":{"rating":3.0,"num_photos":0,"postal_code":"61801","name":"Cardinal Fitness of Urbana"},"bkuNNU8TkCOnDfYpwmpMgg":{"rating":1.5,"num_photos":0,"postal_code":"61821","name":"Americas Best Value Inn"},"tsXCDIijxbgsh980VgRc9g":{"rating":3.0,"num_photos":0,"postal_code":"61820","name":"Federal\/O'Byrne Moving & Storage"},"RTiw2W5hTvzAmI0iaWvb0A":{"rating":3.0,"num_photos":0,"postal_code":"61866","name":"Family Table"},"TMSLVs3BSutzuPZAD6jEUA":{"rating":2.0,"num_photos":0,"postal_code":"61801","name":"Super 8 Urbana"},"cDnto-1dWV7lyTWpED0fjw":{"rating":3.5,"num_photos":0,"postal_code":"61822","name":"MX Electric"},"QTT_kax-2H0Am7_6fSgxwQ":{"rating":1.0,"num_photos":0,"postal_code":"61874","name":"The Village at Colbert Park"},"SiJ8eALRBJvrLnY5PDj9bA":{"rating":3.5,"num_photos":0,"postal_code":"61820","name":"Two Men and a Truck Champaign"},"58UN6IFW7qRzCrDTfeV1yg":{"rating":1.5,"num_photos":0,"postal_code":"61866","name":"County Market"},"qIDNz-IzZCLat0Mwpqch7w":{"rating":5.0,"num_photos":0,"postal_code":"61802","name":"Peter B's Automotive"},"hCWX7t0vVzZzurvQnO69dw":{"rating":3.0,"num_photos":0,"postal_code":"61822","name":"Slumberland Furniture"},"VVkO08qlcTCkCq6t5gLcpw":{"rating":4.0,"num_photos":0,"postal_code":"61820","name":"Hopscotch"},"1laf1xiqfkbN2G2cq0r0EA":{"rating":3.0,"num_photos":0,"postal_code":"61801","name":"Lincoln Square Shopping Center"},"abA0s0uxoeOn7zNm-1dDxw":{"rating":3.5,"num_photos":0,"postal_code":"61820","name":"Mia Za's Cafe"},"4M8RT8AAv-QMEDTq0hWDJw":{"rating":3.0,"num_photos":0,"postal_code":"61820","name":"Cozy Hair"},"x4JAlXEv_pTGW_c24g2YRA":{"rating":3.0,"num_photos":0,"postal_code":"61820","name":"Paul S Sahni, DMD, MSD, PC"},"ryu1GpZY5b6cjkauOYzQNw":{"rating":5.0,"num_photos":0,"postal_code":"61822","name":"Ramjet"},"RPDvyb276n7CWFLBFWPEIg":{"rating":5.0,"num_photos":0,"postal_code":"61801","name":"Neutral Cycle Workshop"},"zQNJwaWR1M1zDjLNVJiNEw":{"rating":3.5,"num_photos":1,"postal_code":"61801","name":"Pizza M"},"etLsW18rOOhxQc0sQ-BGFQ":{"rating":4.5,"num_photos":0,"postal_code":"61820","name":"Hessel Park"},"BUvGTzGMmFKQU_1ncYmLUg":{"rating":1.5,"num_photos":0,"postal_code":"61821","name":"Value Place Champaign"},"tH9fJdyaSM1SE7Fm6X11cg":{"rating":3.5,"num_photos":0,"postal_code":"61801","name":"Starbucks"},"wGjX9bWVOXF543vxkCL0kw":{"rating":3.5,"num_photos":0,"postal_code":"61821","name":"CU Eyecare"},"-05uZNVbb8DhFweTEOoDVg":{"rating":2.0,"num_photos":0,"postal_code":"61866","name":"Subway"},"aokqWHt8vMf5iwj8KZZ5eg":{"rating":4.5,"num_photos":1,"postal_code":"61953","name":"Flesor's Candy Kitchen"},"d8_rOOEQ83U-ennjzo-8ww":{"rating":4.5,"num_photos":0,"postal_code":"61873","name":"Wyldewood Cellars"},"FgckrAuRyoNWZiAuSvajiQ":{"rating":4.0,"num_photos":0,"postal_code":"61820","name":"Jon's Pipe Shop"},"qo5zH2vfCduPSZzmZfJzEg":{"rating":5.0,"num_photos":0,"postal_code":"61874","name":"Savoy Post Office"},"Kws-gPJjF4RxLxJE_2BjKQ":{"rating":4.0,"num_photos":3,"postal_code":"61820","name":"Mr. Kyoto"},"BEeapkA6bw4HMZe7b2z7aA":{"rating":5.0,"num_photos":0,"postal_code":"61820","name":"Ivey Auto Body Specialist"},"9HP13JaP9nmN3qX5v0jamw":{"rating":3.0,"num_photos":4,"postal_code":"61822","name":"Ruby Tuesday"},"4PEx9cBoi3ALOHnrz9liLw":{"rating":4.0,"num_photos":0,"postal_code":"61821","name":"Classic Home Consignment"},"M-RydcJSF1d-fxtmYqCk7g":{"rating":4.5,"num_photos":0,"postal_code":"61822","name":"Regency Beauty Institute Student Salons"},"DjDcRTH09r1Yma6qd0om0Q":{"rating":4.5,"num_photos":0,"postal_code":"61820","name":"Art Mart"},"O4-tpRbaMfrdx_okiVAbaw":{"rating":3.0,"num_photos":0,"postal_code":"61820","name":"Manzella's Italian Patio Restaurant"},"-AYIgCzZPVr7OMcfELjcAg":{"rating":4.5,"num_photos":0,"postal_code":"61801","name":"King's Barber Shop"},"jK8PNNtv4RI6m-xd-tGjPQ":{"rating":3.5,"num_photos":1,"postal_code":"61820","name":"Firehaus"},"YLCYckhafr1SzmDLNoLZvg":{"rating":4.5,"num_photos":0,"postal_code":"61856","name":"Foster Inn"},"HWFKuztbtwoqILVrJfacrg":{"rating":4.0,"num_photos":0,"postal_code":"61802","name":"Michelle's Bridal Shoppe"},"Jp46qQ4SJ1RxMAyJQdITvQ":{"rating":2.5,"num_photos":0,"postal_code":"61820","name":"Orange Express Taxi"},"0niOkgffJjgTA0S9fX_cgg":{"rating":2.5,"num_photos":0,"postal_code":"61822","name":"Champaign Dental Care"},"9SJ5sTileHeLXVMJrQiEDQ":{"rating":5.0,"num_photos":0,"postal_code":"61820","name":"That's Rentertainment"},"EI1JbmO_Le9u3qaYJtlMjA":{"rating":4.5,"num_photos":0,"postal_code":"61801","name":"Black Rock Pizza"},"3pQDedobnxdUH_sLtL9lSw":{"rating":3.5,"num_photos":0,"postal_code":"61853","name":"Community Tire"},"XYhqWJmUdrUVLvWMwUdMHg":{"rating":4.5,"num_photos":0,"postal_code":"61820","name":"Fleurish"},"vVdY2qDO7dkUrU8LXYZ1uA":{"rating":4.0,"num_photos":0,"postal_code":"61821","name":"Green Jade"},"84NW3SwQf3svT6OYY-S6Gg":{"rating":1.5,"num_photos":0,"postal_code":"61821","name":"Sweet Indulgence"},"Tw7yZdXV1ktAUXkNGAtTvA":{"rating":5.0,"num_photos":0,"postal_code":"61822","name":"Windsor West Apartments"},"SvTGVH4ZLuIsQCqoul3utQ":{"rating":1.0,"num_photos":0,"postal_code":"61820","name":"The Tower At Third"},"Z71v81M8PWDsKhi9znwX7A":{"rating":3.5,"num_photos":0,"postal_code":"61853","name":"Project 47"},"oaCXzMF-5an6MhwFzLqSCA":{"rating":3.5,"num_photos":0,"postal_code":"61822","name":"Witte Electric"},"AUoYd7F20On4N7SAWPlJRg":{"rating":1.5,"num_photos":0,"postal_code":"61822","name":"Midwest Cellular"},"9A1C1f0m4nQltQrOOTl-Kw":{"rating":3.0,"num_photos":0,"postal_code":"61820","name":"Orange & Brew"},"R0SY86PqTcp80TFvGrLi9w":{"rating":3.5,"num_photos":0,"postal_code":"61820","name":"Illini Tech Center"},"3VC2agLN6SPo_R43TeM9cA":{"rating":1.5,"num_photos":0,"postal_code":"61820","name":"ATLAS Cab"},"BM1_iNKkC1tbda-29O99JA":{"rating":4.5,"num_photos":0,"postal_code":"61820","name":"Campus Mobile Solutions"},"dxto9kHXtmuYIvm5aUxF9Q":{"rating":2.5,"num_photos":0,"postal_code":"61821","name":"Car-X Tire & Auto"},"6vVkSaymw-4MOTPh68HN3Q":{"rating":3.5,"num_photos":0,"postal_code":"61820","name":"Number One Wok"},"N0sCW5e2VB-HLPkSMGYVfA":{"rating":2.5,"num_photos":0,"postal_code":"61820","name":"FedEx Office Print & Ship Center"},"MHgcgssjaDa8OJQk0i_iHQ":{"rating":2.0,"num_photos":0,"postal_code":"61821","name":"American Freight Furniture and Mattress"},"cjdX2cwSmp47ia47V3YySg":{"rating":4.0,"num_photos":0,"postal_code":"61820","name":"Layalina Mediterranean Grill"},"dF4daEV0EeGmC1iU3EjVcQ":{"rating":1.5,"num_photos":0,"postal_code":"61858","name":"McDonald's"},"rqmCvYLvEfcOJAZ9bNgh6Q":{"rating":5.0,"num_photos":0,"postal_code":"61821","name":"Sparkle PRO Window Cleaning"},"hOMZUELdcxgcm8RqeXoZFA":{"rating":4.0,"num_photos":0,"postal_code":"61820","name":"Bellhops"},"4VYi3I-nVttZeOmrGEXHjQ":{"rating":2.0,"num_photos":0,"postal_code":"61822","name":"Wal-Mart"},"k6m3Msok7bto6biv5guEzg":{"rating":2.5,"num_photos":0,"postal_code":"61820","name":"Pancheros Mexican Grill"},"7hGEamzVvFq2b9eYUZpAxw":{"rating":3.5,"num_photos":1,"postal_code":"61953","name":"McDonald's"},"V8cUCiIsactM-_TdoBDn_w":{"rating":4.0,"num_photos":0,"postal_code":"61820","name":"Salon Xpression"},"B0xqLfgBlE6kmCz3ux7Oaw":{"rating":4.5,"num_photos":0,"postal_code":"61820","name":"Clutch Cuts"},"8BUVhDF9yLzzthhFxeceYA":{"rating":4.5,"num_photos":0,"postal_code":"61820","name":"Murphy's Deli"},"ETxB6iSdRyhX4PTY0AnAIA":{"rating":4.0,"num_photos":1,"postal_code":"61801","name":"Bar M"},"WItyyrbIhqfOGT0URG7tUw":{"rating":1.5,"num_photos":0,"postal_code":"61820","name":"Neves Group Property Management"},"r0LOcoFgCgJwDgpmPZt4wg":{"rating":1.0,"num_photos":0,"postal_code":"61820","name":"Klatt Properties"},"vKYpxfU-51z-pc16wrGVng":{"rating":3.0,"num_photos":0,"postal_code":"61820","name":"Stone Baked Pizzeria"},"kyXEnWKQGWSThY6EcjORuw":{"rating":4.0,"num_photos":2,"postal_code":"61820","name":"Zorba's Restaurant"},"AUVYeEWO064gtDx5mbi_Ng":{"rating":5.0,"num_photos":0,"postal_code":"61874","name":"Babyland"},"J6TGHzwKKq5bqBR4_WsnUA":{"rating":1.5,"num_photos":0,"postal_code":"61820","name":"Yellow Checker Cab"},"WciBcCPIcpI_yph7iteysQ":{"rating":4.0,"num_photos":0,"postal_code":"61821","name":"Supercuts"},"1KGLQ6Sxji5jqsQnsC6fdQ":{"rating":3.0,"num_photos":0,"postal_code":"61822","name":"MezzaLuna"},"usqqunF6NTw_H0yPwaT5fQ":{"rating":2.0,"num_photos":0,"postal_code":"61802","name":"Carter's Furniture"},"Lp-lUqhuXwHuEzeeidYx-A":{"rating":4.5,"num_photos":0,"postal_code":"61866","name":"Bell Sports"},"yJlqyI_w9bQ3I2nCJNYLQQ":{"rating":4.0,"num_photos":0,"postal_code":"61802","name":"Caring Hands Animal Hospital"},"SaPl5jGj3nnh_cf17gkhAg":{"rating":4.5,"num_photos":0,"postal_code":"61820","name":"Clean Boss"},"V37dliVYR6D6InG3-XCODA":{"rating":3.0,"num_photos":0,"postal_code":"61820","name":"Notes N Quotes"},"89-bwvH5mWWOOb00VTUyFQ":{"rating":2.5,"num_photos":1,"postal_code":"61874","name":"Applebee's Neighborhood Grill & Bar"},"8GUMO244E8CxfJcyJIWFOA":{"rating":4.0,"num_photos":0,"postal_code":"61820","name":"El Charro"},"zrP-02glmF1Bqo9IxDhWkQ":{"rating":2.5,"num_photos":0,"postal_code":"61820","name":"Dick Van Dyke Appliance World"},"RSNVVBTTNgJ5XlPMMDhGkw":{"rating":4.5,"num_photos":0,"postal_code":"61821","name":"Refinery"},"tLgKerW16F9V239MjNA2PA":{"rating":3.5,"num_photos":0,"postal_code":"61802","name":"Blain's Farm & Fleet"},"CDm96_A5GagulRKa5zadfQ":{"rating":3.0,"num_photos":8,"postal_code":"61820","name":"Brothers Bar & Grill"},"WIMwOFGAuHugggcHh4wxjQ":{"rating":2.5,"num_photos":0,"postal_code":"61821","name":"The UPS Store"},"9o8Zie2MHPwJFOkOsXbqPw":{"rating":2.0,"num_photos":0,"postal_code":"61820","name":"U-Haul Moving & Storage at University Ave"},"yE4k_CM9L0yPVVozyELfSQ":{"rating":3.0,"num_photos":0,"postal_code":"61820","name":"Noodles & Company"},"PBmfdx-tC2D54FI3HtcKww":{"rating":3.5,"num_photos":1,"postal_code":"61820","name":"The Ribeye"},"eJtmOfqwGj5sYKQrB01oWQ":{"rating":3.0,"num_photos":7,"postal_code":"61820","name":"Slim Chickens"},"Bb_PglJPkHbsaHctNVYubQ":{"rating":2.5,"num_photos":0,"postal_code":"","name":"Let Us Get Dirty For You"},"fT03APABSohzUVURVT05Og":{"rating":2.5,"num_photos":0,"postal_code":"61820","name":"Evergreen Tobacco"},"PzRgohlnHNN0C0Len1At0Q":{"rating":3.5,"num_photos":13,"postal_code":"61801","name":"QDOBA Mexican Eats"},"TqMJF1cNE0H33wC5GRLl2A":{"rating":5.0,"num_photos":0,"postal_code":"61822","name":"Specialized Automotive"},"D5tiB1t8VRQOvvI-zgkq3Q":{"rating":3.0,"num_photos":0,"postal_code":"61802","name":"Kennedy's at Stone Creek"},"SJZFzBeCAZEW4u8wQsGbSw":{"rating":2.0,"num_photos":0,"postal_code":"61801","name":"Ramada Urbana\/Champaign"},"vclVFNXvp4bY9CrYTM6RxQ":{"rating":3.5,"num_photos":0,"postal_code":"61877","name":"Red Barn Veterinary Service"},"b6YyQLxaRAq4OTFwdFMX-g":{"rating":3.5,"num_photos":0,"postal_code":"61820","name":"Casual Male XL"},"C31ExBTn_6UxbTVkWPtNkg":{"rating":3.5,"num_photos":1,"postal_code":"61820","name":"Yellowfin Japanese Restaurant"},"zMcmS7YojvNbmJCa-iTSYw":{"rating":3.0,"num_photos":0,"postal_code":"61822","name":"Istanbul Mediterranean Cuisine"},"FHgnj0vgb-DtCSQmL9OJSA":{"rating":4.0,"num_photos":0,"postal_code":"61802","name":"Urbana True Tires"},"0M64gsVxtXnUcTADQPAvCQ":{"rating":2.5,"num_photos":0,"postal_code":"61822","name":"Champaign Marathon"},"f69saK74879-zdmuQIVegw":{"rating":2.0,"num_photos":0,"postal_code":"61822","name":"Verizon"},"QDA9xZaX4n0H7dbkTRyCYw":{"rating":2.0,"num_photos":0,"postal_code":"61820","name":"Subway"},"tTyFInKm8AY0cY5ujtXZHA":{"rating":4.0,"num_photos":0,"postal_code":"61801","name":"Peoria Charter Coach Company"},"QLgFt4lCcv4G-FOQQcjNnQ":{"rating":3.0,"num_photos":0,"postal_code":"61801","name":"The Weiner Companies"},"SGBiu1PcNlLv25j_tWMOjQ":{"rating":1.0,"num_photos":0,"postal_code":"61820","name":"Finish Line"},"bd_qQhLpRvcd1rL8XR5Sag":{"rating":4.5,"num_photos":0,"postal_code":"61820","name":"Gallo-Miller Paint & Collision Repair"},"AkA481VkTOec7EteMbCFGw":{"rating":3.5,"num_photos":0,"postal_code":"61802","name":"Tatman's Carcare Collision Centers"},"kkSkD925InBRs7ZAOIiIRQ":{"rating":3.5,"num_photos":0,"postal_code":"61821","name":"Vibez Performance Car Audio"},"eezVjNlzIZrXs9GM5O8b2w":{"rating":5.0,"num_photos":0,"postal_code":"61820","name":"Vape Vault"},"KWZqC7vfWpqlxnf0nD7QHQ":{"rating":4.0,"num_photos":0,"postal_code":"61820","name":"Tumble Inn Tavern"},"Oo-ZEfbDJw1eiizih7_qWQ":{"rating":4.5,"num_photos":0,"postal_code":"61820","name":"Taipei Cafe"},"NsHKS_H2EMBYT-7KLWqjxA":{"rating":3.0,"num_photos":0,"postal_code":"61820","name":"Voice KTV"},"FPDweEfY7HAwvosRrlUvSA":{"rating":4.0,"num_photos":0,"postal_code":"61822","name":"Lanz Heating & Cooling"},"IwNXCRp7bp3BlNoUJMV3EQ":{"rating":2.0,"num_photos":0,"postal_code":"61820","name":"Motherhood Maternity"},"bP_HZle1uUaILvSaS_cYbQ":{"rating":3.0,"num_photos":0,"postal_code":"61820","name":"Walgreens"},"EVZumrOiqpMhvrscukkzBQ":{"rating":3.5,"num_photos":0,"postal_code":"61853","name":"Hen House Family Restaurant"},"Ih9my8hp4KqcyBXI9Cyevg":{"rating":3.5,"num_photos":1,"postal_code":"61820","name":"Barrelhouse 34"},"0dRFng9hongv16QE976OTQ":{"rating":2.5,"num_photos":0,"postal_code":"61820","name":"McKinley Apartments"},"ckdGk8ForF9zEczmu4-tTA":{"rating":3.0,"num_photos":0,"postal_code":"61801","name":"Strawberry Fields"},"zWVAg3TITCA6Rnolas_ycw":{"rating":2.5,"num_photos":0,"postal_code":"61820","name":"Super 8 Champaign"},"BFj_meEOFAtJ2w0ksJO8SQ":{"rating":4.0,"num_photos":0,"postal_code":"61820","name":"Simply Amish Champaign"},"U6xqyLII8WqNRbhEx3FXHQ":{"rating":3.0,"num_photos":0,"postal_code":"61802","name":"Attie's Bar & Grill"},"kNtToQSP_Y5U8tznLXuCaw":{"rating":4.0,"num_photos":3,"postal_code":"61820","name":"Farren's Pub & Eatery"},"YklSTCQsb1chav_BqvKfUg":{"rating":4.5,"num_photos":0,"postal_code":"61820","name":"Rueck Insurance"},"OKHHpjAhYyJrxulgCgngFg":{"rating":5.0,"num_photos":0,"postal_code":"61820","name":"The Pop Stop"},"0XXLP24RXJxQ_yemvKcPiA":{"rating":5.0,"num_photos":0,"postal_code":"61822","name":"Harold Huang Photography"},"-V5TWGIPD8KYBr9fhq0h8Q":{"rating":4.5,"num_photos":0,"postal_code":"61820","name":"Krannert Art Museum"},"DaXZ_HiJNjWWZ9hbBy73CA":{"rating":2.5,"num_photos":0,"postal_code":"61822","name":"Legends Golf Course"},"o-VUHxSQHwb5Uo0n4M1rKg":{"rating":2.0,"num_photos":0,"postal_code":"61820","name":"Faught Mark A, DDS"},"Cd_JVOq_cBueqB9q3X0rkQ":{"rating":4.0,"num_photos":0,"postal_code":"61820","name":"Ginza & Co"},"RbKaSbMnvK0tc2p2UnNMwA":{"rating":4.0,"num_photos":0,"postal_code":"61874","name":"Savoy 16"},"iO86eCaZJBHqi1sZ1ELk6A":{"rating":3.0,"num_photos":0,"postal_code":"61820","name":"TGI Fridays"},"96Ie0QByQ6tPJFxSb0GzCQ":{"rating":5.0,"num_photos":1,"postal_code":"61866","name":"Casa Fiesta"},"M8G8S2takaE_NOVutGzEkg":{"rating":4.0,"num_photos":0,"postal_code":"61822","name":"Alto Vineyards"},"mG3SqAh1txeosGJBGfwFTw":{"rating":3.5,"num_photos":0,"postal_code":"61820","name":"Quencher Smoothie's"},"S27XLKsX1B-scfdDQ4rTGQ":{"rating":2.5,"num_photos":1,"postal_code":"61821","name":"Hardee's"},"-tdbaE1aNrhXF7OeMZcFpQ":{"rating":4.5,"num_photos":0,"postal_code":"61821","name":"A&B Scissor Hands"},"8HQ6yrMN1BfmyuhvhDAe2g":{"rating":4.5,"num_photos":0,"postal_code":"61802","name":"Second Hand Rose"},"KedpWqBphmRopwBd7trzFw":{"rating":2.0,"num_photos":0,"postal_code":"61820","name":"Wendy's"},"8TYYgL3bFEZVd1QuJMdl8w":{"rating":5.0,"num_photos":0,"postal_code":"61820","name":"Mark of Cain Tattoo's"},"-cgOvAOO_XcPlRXjNr_Ydg":{"rating":4.5,"num_photos":0,"postal_code":"61874","name":"Luxury Nail& Spa"},"aqTdhZDTSjA42_Uh2E6V7A":{"rating":4.0,"num_photos":0,"postal_code":"61822","name":"Taco Loco"},"WAAYgXdq-1zdo5Je-pq3kg":{"rating":4.5,"num_photos":0,"postal_code":"61820","name":"Columbia Street Roastery By Herriott's"},"OG_kPDu82CDZwLgSXiK5uA":{"rating":5.0,"num_photos":0,"postal_code":"61820","name":"Market U"},"u4OSv_jxRvBj2_WH6CNHbQ":{"rating":5.0,"num_photos":0,"postal_code":"61801","name":"iFixed"},"EOHjpO4XFAhhSgJUECEJ5Q":{"rating":2.0,"num_photos":0,"postal_code":"61802","name":"The Pointe at U of I"},"Qw6MHH-2bTf0_y3eOh92xg":{"rating":2.0,"num_photos":0,"postal_code":"61801","name":"Comcast Service Center"},"MaKJcuAQluPQsyJ7GxmWhQ":{"rating":4.5,"num_photos":0,"postal_code":"61856","name":"Steeple Coffee House"},"u7jiuYiz-zVwsh0TGRHUIg":{"rating":3.5,"num_photos":1,"postal_code":"61820","name":"Burrito King"},"Xg0KdzifsyAtHQVwFRUJ5A":{"rating":4.0,"num_photos":0,"postal_code":"61802","name":"Cookies by Design"},"fl2TPNWrchkCbNEg0utjvw":{"rating":2.0,"num_photos":1,"postal_code":"61802","name":"Steak 'n Shake"},"iKYLzV3gncPbAul4DV-UBQ":{"rating":3.0,"num_photos":0,"postal_code":"61821","name":"Hobby Lobby Creative Center"},"041MeN6rfUxzyE5TXi2Fpg":{"rating":5.0,"num_photos":0,"postal_code":"61820","name":"Neutral Cycle"},"EBai30hil5U6WzOQYwPIXA":{"rating":2.5,"num_photos":0,"postal_code":"61821","name":"Sammie's Pancake House"},"VbBUGAt4eEkIkTRqjCdMTA":{"rating":5.0,"num_photos":0,"postal_code":"61820","name":"Dankle W Casey, DDS"},"UhIn-oyRBnr3BB8gqFtT2w":{"rating":2.5,"num_photos":0,"postal_code":"61801","name":"Classic Events"},"IWFiKOfltNWN2hsKqIZK0w":{"rating":5.0,"num_photos":0,"postal_code":"61821","name":"The Neighbors At The Ice House"},"jZeLcFDCfBhAxjq1Owe65A":{"rating":3.0,"num_photos":0,"postal_code":"61820","name":"Amtrak"},"wLcXsZYT12ovhj0wBe31Ew":{"rating":4.5,"num_photos":0,"postal_code":"61821","name":"Fitness Center"},"wBkfvRbzCADkPaLBTqsEqw":{"rating":4.0,"num_photos":0,"postal_code":"61953","name":"Nike Factory Store"},"wlZ3ybXuoe3io2yuOE00rA":{"rating":1.5,"num_photos":0,"postal_code":"61801","name":"Dunkin' Donuts"},"D2f7q_jP-qDs777xlzfglg":{"rating":3.5,"num_photos":0,"postal_code":"61822","name":"Regal Nails"},"R7X6MGkwU6BfUTzglBiyRQ":{"rating":3.0,"num_photos":0,"postal_code":"61853","name":"Monical's Pizza"},"m8qGdllgcUSqZmcryQWM9A":{"rating":1.5,"num_photos":0,"postal_code":"61822","name":"McDonald's"},"bQ8ndy52Rcdv3uYvoJWQ_w":{"rating":3.5,"num_photos":0,"postal_code":"61820","name":"Seaboat"},"fFfmVZOVHRA_TPXVAUmj9A":{"rating":3.0,"num_photos":0,"postal_code":"61801","name":"Kennedy Wilson Properties"},"CJ0sbMmixbh21d9fUoBEMg":{"rating":3.5,"num_photos":1,"postal_code":"61801","name":"Espresso Royale"},"8pqANktAdy7crnxSLWRaYw":{"rating":4.0,"num_photos":0,"postal_code":"61856","name":"The Main Street Pub of Monticello"},"Inf0o8WPK_u-xd1j6yqVWA":{"rating":4.0,"num_photos":0,"postal_code":"61802","name":"Midwest Automotive & Diesel"},"aLdMqYoHqc77JjOybdPX-A":{"rating":3.5,"num_photos":0,"postal_code":"61853","name":"JT Walker's Restaurant and Brewery"},"phIxx-A5A0YYJbxQU3zpZA":{"rating":1.0,"num_photos":0,"postal_code":"61821","name":"Campus Property Management"},"WFu7vUIuQ3qcHHGZhsZrGg":{"rating":5.0,"num_photos":0,"postal_code":"61820","name":"Re\/Max Realty Associates"},"EmezZdxbvjydG5FkN6Mecw":{"rating":2.0,"num_photos":0,"postal_code":"61820","name":"Fiesta Ranchero"},"rOOsFYRPiTOcOnaiChJklQ":{"rating":5.0,"num_photos":0,"postal_code":"61820","name":"Alexandra's"},"F6ynFLlFtFPkxUYDvvClUQ":{"rating":3.5,"num_photos":0,"postal_code":"61820","name":"Verizon Russell Cellular"},"YJ8Ehqq4Jr2_xmtRe5aXLQ":{"rating":3.5,"num_photos":0,"postal_code":"61820","name":"Mirsung"},"Z5IyqfTukNu5nSEkKMcBGg":{"rating":1.0,"num_photos":0,"postal_code":"61820","name":"Ramshaw Real Estate"},"3C_S1j70o3nYJUTvnVo7dQ":{"rating":3.5,"num_photos":0,"postal_code":"61802","name":"Arby's"},"EehOMgunp1FFWGiD3lxmaw":{"rating":5.0,"num_photos":0,"postal_code":"61801","name":"Bella Vita Massage"},"wpGJqeVwtO_dPEG0HFQ0SA":{"rating":5.0,"num_photos":0,"postal_code":"61801","name":"R & H Cab"},"N9osJe0lQOdnd3xLUkJVMw":{"rating":3.5,"num_photos":0,"postal_code":"61953","name":"Subway"},"ndyX7UHI9XHWmZklg_TCxQ":{"rating":2.0,"num_photos":0,"postal_code":"61822","name":"Pasha Mediterranean Cuisine"},"HRY1KRII0NXbQQumf9vaKg":{"rating":2.0,"num_photos":0,"postal_code":"61820","name":"Christie Clinic on University"},"yC0gu616LmiEUPJEQh2ZkQ":{"rating":3.5,"num_photos":0,"postal_code":"61820","name":"AutoZone"},"rVF2CysgSp8BxdYYF0lEGA":{"rating":3.5,"num_photos":1,"postal_code":"61801","name":"City Girl Yogurt"},"DDm_333l9fHzlv7yfuF5dQ":{"rating":2.0,"num_photos":0,"postal_code":"61820","name":"Arby's"},"tfLpb7o_w9nx7UihyLbq1g":{"rating":3.0,"num_photos":0,"postal_code":"61802","name":"Eastland Suites"},"sKToYrrPP4VWzpIy94pLgg":{"rating":3.5,"num_photos":0,"postal_code":"61853","name":"Charleys Philly Steaks"},"rY0iKC6bzIiTHko_7y0s1A":{"rating":2.5,"num_photos":0,"postal_code":"61802","name":"Carle Clinic"},"Zjv2tMXDaIGd-13tgOoKAA":{"rating":4.5,"num_photos":0,"postal_code":"61821","name":"Hybrid Fit Food"},"FzVANX7N-FQbUZNfKhFJSg":{"rating":4.0,"num_photos":0,"postal_code":"61820","name":"Wingard Salon"},"Y7xSSuq3zizdBh0vq3hNlA":{"rating":3.5,"num_photos":0,"postal_code":"61822","name":"Maid To Perfection"},"DNBKTu7qoN_18JIybyIVPw":{"rating":4.0,"num_photos":0,"postal_code":"61821","name":"William M Staerkel Planetarium"},"nA_S_Rbr-UCbd60anMKYdA":{"rating":4.5,"num_photos":0,"postal_code":"61953","name":"Proud Marys'"},"cCF7dh1RJahOHW7zO7RqNQ":{"rating":3.5,"num_photos":0,"postal_code":"61802","name":"TJ's Laundry & Dry Cleaning"},"0xjqQ2h5SzWe8zsHr6BG5w":{"rating":2.0,"num_photos":0,"postal_code":"61820","name":"Subway"},"xaggKurWQ2eKSCuwnRQtaA":{"rating":3.5,"num_photos":0,"postal_code":"61802","name":"D&S Sewer"},"Y81wukOSmZ6sRS1cn1QhXA":{"rating":4.5,"num_photos":0,"postal_code":"61853","name":"The Wok - Chinese Express"},"afvFrFTwoeGzO3GZfDBHKw":{"rating":4.0,"num_photos":0,"postal_code":"61822","name":"AT&T"},"kisBmZ2c9_t1VxfZrUoPMQ":{"rating":3.0,"num_photos":0,"postal_code":"61822","name":"Leaders For Life Martial Arts"},"jDr5r48ZkLqvTPLzs5rWLw":{"rating":3.5,"num_photos":0,"postal_code":"61820","name":"CityView"},"qBUT5MfuEZ8HHfBLyt60Qw":{"rating":3.5,"num_photos":0,"postal_code":"61801","name":"Ewing-Lovett Transfer"},"7eLUaZwipH_uwfvv-_WafQ":{"rating":3.0,"num_photos":0,"postal_code":"61866","name":"Red Wheel Restaurant"},"TljiUnO5i-9_iH5x-mWZ7A":{"rating":4.5,"num_photos":0,"postal_code":"61877","name":"Sidney Dairy Barn"},"6n4qUcORUSOsuas4uAZLPA":{"rating":4.5,"num_photos":0,"postal_code":"61853","name":"Frazier's Appliance Repair"},"SFh9uHtGR1lVPH2RTS2SWQ":{"rating":3.0,"num_photos":0,"postal_code":"61820","name":"McDonalds"},"msZmbTXbimgPsrcIcl6Mvw":{"rating":4.5,"num_photos":0,"postal_code":"61820","name":"Home2 Suites by Hilton"},"OOXnhsHPutkjsjUKa0nBsg":{"rating":3.0,"num_photos":0,"postal_code":"61820","name":"Wampler Property Management"},"KCDMeqIMVVPcxk1mB8ZA_A":{"rating":1.0,"num_photos":0,"postal_code":"61801","name":"Element on Main"},"e0L_PwSBdmzVkADSBgh4jQ":{"rating":1.5,"num_photos":0,"postal_code":"61801","name":"Econo Lodge Champaign Urbana - University Area"},"VSHONI8c8SLcYPTGQgC9cA":{"rating":3.0,"num_photos":0,"postal_code":"61820","name":"Field & Stream"},"9lnuKe2KsTsg-tb8Kuxyvw":{"rating":1.5,"num_photos":0,"postal_code":"61801","name":"The Lincoln Lodge Urbana"},"7DSIFd_b5UQmEvwrOUxz3A":{"rating":1.5,"num_photos":0,"postal_code":"61801","name":"Health Alliance Medical Plans"},"wSov0LEvpLIzVqBQR8BInw":{"rating":2.5,"num_photos":0,"postal_code":"61820","name":"Verizon Wireless"},"kokytV29X4717mjIC3H7Xg":{"rating":2.5,"num_photos":0,"postal_code":"61821","name":"Papa John's Pizza"},"OayEFsHTrtc_px-W9n3rWg":{"rating":5.0,"num_photos":0,"postal_code":"61801","name":"Gillespie Management"},"nsSfCKW9KDB4COj9bzXApw":{"rating":3.0,"num_photos":0,"postal_code":"61822","name":"Red Lobster"},"U8VXQaeog9wb_Y6hCkfitg":{"rating":3.5,"num_photos":0,"postal_code":"61822","name":"Super Taco"},"tqxS-gA5zhBvdI5lk7kDGg":{"rating":4.0,"num_photos":0,"postal_code":"61820","name":"Maize at the Station"},"fEFQHZXMKQtCVrWB7h2hog":{"rating":4.0,"num_photos":0,"postal_code":"61820","name":"Wireless Mikes, Verizon Authorized Retailer"},"LMF8i38OeeGlcwU-E5TIRw":{"rating":1.5,"num_photos":0,"postal_code":"61801","name":"Urbana Landmark Hotel"},"RKYtD_CytoUvD_xx6UJMEg":{"rating":3.5,"num_photos":0,"postal_code":"61822","name":"Eyemart Express"},"wfO1xdAeJMb_miGDU19W-w":{"rating":3.5,"num_photos":3,"postal_code":"61820","name":"Carmon's Bistro"},"ddFV9sQgvHNnwd9qyn6aoA":{"rating":2.0,"num_photos":0,"postal_code":"61820","name":"Karen Luster Electrolysis"},"2SVYGx6vdUlZdAF3AMroig":{"rating":4.5,"num_photos":0,"postal_code":"61801","name":"Vineyard Church"},"yEe7d09rpD2u3WLNAKcdQw":{"rating":4.0,"num_photos":0,"postal_code":"61821","name":"Kohlmann's Bike Shop"},"gGpKlBPKBdOyAlx6P_M7qA":{"rating":3.5,"num_photos":0,"postal_code":"61820","name":"Urban Outfitters"},"miMx3VNOW8qPJC5wEGaIOw":{"rating":4.0,"num_photos":6,"postal_code":"61802","name":"Xinh Xinh Cafe"},"Q2bnRzJ8AC-3lWyQY8DZqA":{"rating":2.5,"num_photos":0,"postal_code":"61803","name":"Blues"},"yw3dfUD1PO8EdGLHdbGevA":{"rating":2.0,"num_photos":0,"postal_code":"61801","name":"Espresso Royale"},"SoEim3PnWJ-M6eK60Ul5tQ":{"rating":2.5,"num_photos":0,"postal_code":"61822","name":"Mobil Super Pantry"},"d31uae0VHRiaWTD6w2D03w":{"rating":2.0,"num_photos":1,"postal_code":"61953","name":"Denny's"},"Epr8Ft7LwYAzotFwxQX6uw":{"rating":4.0,"num_photos":0,"postal_code":"61820","name":"Latea Bubble Tea Lounge"},"Hsvqv6AQQ13SvO0uGFu1zg":{"rating":2.0,"num_photos":0,"postal_code":"61820","name":"University Group"},"0QgFIP9W0eGZSxCSQRQSCg":{"rating":2.5,"num_photos":0,"postal_code":"61801","name":"Subway"},"V5NR-GHweKDMmXH0NwRKpQ":{"rating":5.0,"num_photos":0,"postal_code":"61874","name":"Loving Paws Pet Clinic"},"GELirHgzCXnpdTjMBxOZaQ":{"rating":5.0,"num_photos":0,"postal_code":"61853","name":"Paint Like Me  Party"},"yDfOSuljYJdX9zftLbTbxw":{"rating":4.0,"num_photos":0,"postal_code":"61820","name":"Andy's Barber Shop"},"n3lJDjUD6xYnboLfWE6B1A":{"rating":1.0,"num_photos":0,"postal_code":"61874","name":"Awesome Machines Sales & Rental"},"D0KX5BQsbaIcWd-TpQ4wLg":{"rating":4.5,"num_photos":0,"postal_code":"61853","name":"Peking House Restaurant"},"0JuoeJqTVTBgsyQ-evN_Pw":{"rating":4.0,"num_photos":0,"postal_code":"61820","name":"Artbox"},"gnGM09Wb9iOIkqqSk522NA":{"rating":2.5,"num_photos":0,"postal_code":"61822","name":"Baymont Inn And Suites Champaign"},"-5dd-RjojGVK9hjAMCXVZw":{"rating":3.0,"num_photos":0,"postal_code":"61802","name":"La Fiesta Mexican Restaurant"},"KfGaDOcxPwvD-nlYtjVIpQ":{"rating":4.5,"num_photos":0,"postal_code":"61802","name":"Kcm Auto Care"},"aODcYfWni7x_XnPL5E-fgg":{"rating":3.5,"num_photos":0,"postal_code":"61801","name":"Hampton Inn Champaign\/Urbana"},"0a9RDYet9uHLzban79z-Vw":{"rating":2.5,"num_photos":0,"postal_code":"61801","name":"Urbana Sweetcorn Festival"},"eJRjKphPYmdttj7LKpCk1Q":{"rating":4.5,"num_photos":0,"postal_code":"61856","name":"Allerton Park & Retreat Center"},"bAFgHFzpG_raPPGZgDCw4g":{"rating":4.5,"num_photos":2,"postal_code":"61801","name":"Hendrick House Food Truck"},"Wdy7J_EOL2lvDKSscdQ4Pw":{"rating":4.0,"num_photos":1,"postal_code":"61801","name":"Black Rock Pizza Co."},"daNKquKlJrBZ8CIG9jxnVA":{"rating":4.0,"num_photos":0,"postal_code":"61853","name":"The Azteca"},"uJbpxC_ufSKr4vSK9owwhg":{"rating":5.0,"num_photos":0,"postal_code":"61820","name":"Jamelynn's Massage Therapy"},"XsL8QBBn4ydWhEVewP_T1w":{"rating":3.0,"num_photos":0,"postal_code":"61821","name":"Bella V Med Spa"},"SCxtzXcvyk1hygdmOZqd1A":{"rating":4.5,"num_photos":4,"postal_code":"61820","name":"Mashawi Grill"},"SYYcmL87IBIdPJ4AbM-6sw":{"rating":4.0,"num_photos":0,"postal_code":"61820","name":"Seno Formal Wear"},"1p6qHrapvuKpbZGLT9qskw":{"rating":4.0,"num_photos":0,"postal_code":"61822","name":"El Patio"},"VjlZNQkHc7BF7F4rVSvR4w":{"rating":4.0,"num_photos":0,"postal_code":"61820","name":"Bowie Chiropractic"},"TUp3wPxtUTEU_yzjA9Vv6Q":{"rating":3.0,"num_photos":0,"postal_code":"61820","name":"Sherman Hall"},"Lou0gX3Q_PAWV6n6vsrt1w":{"rating":5.0,"num_photos":0,"postal_code":"61874","name":"Montessori School of Champaign-Urbana"},"cu0HbA8giZqOj1sw2AxDoQ":{"rating":1.0,"num_photos":0,"postal_code":"61821","name":"Fluid Event Center"},"dVBp-ayxdvwG95BYfqKwDw":{"rating":4.5,"num_photos":0,"postal_code":"61801","name":"Art Mart"},"fNnuBr1pHui1C92eVTzN2A":{"rating":3.5,"num_photos":0,"postal_code":"61821","name":"Advance Muffler Plus"},"Sp32-I-Ej0CBVJvFCghyPw":{"rating":5.0,"num_photos":0,"postal_code":"61820","name":"Fresh International Market"},"w2xwgqHM7dJlHfyu4ouhBg":{"rating":4.5,"num_photos":4,"postal_code":"61820","name":"Azzip Pizza"},"MNo2l4eFOOJqCo8PX0W12A":{"rating":3.0,"num_photos":0,"postal_code":"61856","name":"China Star Restaurant"},"fY0Dpw5a3i1CMjMuT2SaDQ":{"rating":3.5,"num_photos":0,"postal_code":"61820","name":"Holy Land Mediterranean Grill"},"TjKE1Ji-XAdYDlxYMKvZAw":{"rating":4.0,"num_photos":0,"postal_code":"61821","name":"Krispy Krunchy Chicken"},"ymW88-IsrOtTmPmvyJNwOg":{"rating":2.5,"num_photos":0,"postal_code":"61866","name":"A House Of Flowers By Paula"},"_zviKOPGw65MAnNjzFXSug":{"rating":3.0,"num_photos":0,"postal_code":"61821","name":"Lone Star Steakhouse & Saloon"},"hEjYQlKcn-ClE5rbCN6RBQ":{"rating":4.5,"num_photos":0,"postal_code":"61801","name":"United States Post Office"},"ohiLV5jT51FtFFwHQTCcag":{"rating":3.0,"num_photos":0,"postal_code":"61853","name":"Diamond Nails"},"MctS0Hqg4O1cRALdUhUlOg":{"rating":5.0,"num_photos":0,"postal_code":"61820","name":"Champaign True Tires"},"WU7HnTim3UgqdtpKCavtOw":{"rating":4.5,"num_photos":0,"postal_code":"61853","name":"Los Zarapes"},"WyuXAT4QZFqI1eOpwLgtjg":{"rating":2.5,"num_photos":0,"postal_code":"61801","name":"First Mid-Illinois Bank & Trust"},"rRc6aK4n2oSXLQniRCT4uw":{"rating":4.0,"num_photos":0,"postal_code":"61820","name":"Christopher's Fine Jewelry Design"},"ImSA-iQAAV_mHd32y4VIVA":{"rating":4.5,"num_photos":0,"postal_code":"61856","name":"The Brown Bag Deli Restaurant"},"4HiAdEh1v29JD6Nr9FnBKw":{"rating":5.0,"num_photos":0,"postal_code":"61821","name":"Express Plumbing"},"mgepLHs5tGQhxDiF6aYVGQ":{"rating":1.5,"num_photos":0,"postal_code":"61821","name":"Hertz Rent A Car"},"yUB8CDsYMES3cN-xcHXCkQ":{"rating":4.0,"num_photos":0,"postal_code":"61801","name":"Flying Machine Coffee"},"WIr0rCJIeT2dJPWCZ_fffw":{"rating":3.5,"num_photos":0,"postal_code":"61820","name":"Grizzly's Chimney Sweep"},"J5Rqkd6yg9nuKi_KfCSTAA":{"rating":5.0,"num_photos":0,"postal_code":"61801","name":"Datta Taxi & Charter"},"Z7r_FJXEyfyvVsyv2y7gFQ":{"rating":4.0,"num_photos":0,"postal_code":"61820","name":"Cactus Grill"},"antAO0QcETbQZbu0sN2fRQ":{"rating":2.5,"num_photos":0,"postal_code":"61801","name":"Jet Cab"},"tCW6uSKpuWw3rQLg0C9QcA":{"rating":5.0,"num_photos":0,"postal_code":"61820","name":"Pickwick Coffee Roasting"},"sjVVGhnLJrcEq0ErUL168w":{"rating":3.0,"num_photos":0,"postal_code":"61802","name":"Domino's Pizza"},"7xK-wOYRQM6Y2RSGNGrb2g":{"rating":3.0,"num_photos":0,"postal_code":"61820","name":"Rainstorm Car Wash"},"dxVLIF0FXAx53jI2dj7ePw":{"rating":3.5,"num_photos":0,"postal_code":"61821","name":"Myler Automotive Repair"},"XtJj67rKT16a4tQw7bxtyw":{"rating":2.5,"num_photos":0,"postal_code":"61820","name":"Basil Thai Cafe"},"rM1soPduv--f7ILhEdb8GQ":{"rating":2.5,"num_photos":0,"postal_code":"61820","name":"Walgreens"},"Rd5H5-3KbF0IwXSmHzHLdw":{"rating":4.0,"num_photos":0,"postal_code":"61820","name":"Derailed 57 Bar"},"ZyOgY-z9sHdHp8_FDoQAJg":{"rating":3.0,"num_photos":17,"postal_code":"61820","name":"Scotty's Brewhouse"},"xD6Q0UFxO8uE4bdaBDIMlA":{"rating":3.5,"num_photos":3,"postal_code":"61820","name":"Hot Pot Lab"},"6vsjWxIMHs-34L9wuTBJRw":{"rating":3.0,"num_photos":0,"postal_code":"61820","name":"The Home Depot"},"2pD9wZWXDNsZf_MXd8rQtg":{"rating":2.5,"num_photos":0,"postal_code":"61801","name":"Carle Clinic Association"},"fffEiPIzk0YIqElkYo5S2g":{"rating":4.0,"num_photos":0,"postal_code":"61820","name":"May's Alterations"},"b6yQUcrVCDDzSdV4DyCVPg":{"rating":2.5,"num_photos":0,"postal_code":"60007","name":"Howard Johnson Inn and Suites Elk Grove Village O'Hare"},"nplkC6vnh4qT9xH-vhup6w":{"rating":3.0,"num_photos":1,"postal_code":"61821","name":"The New Sweet Indulgence"},"UMMVYvT2uPXHoIPBzvPl1g":{"rating":3.5,"num_photos":0,"postal_code":"61874","name":"Treasures by Tina"},"wgImSrYc5LOcFaMcbOuxkg":{"rating":4.0,"num_photos":0,"postal_code":"61821","name":"Domino's Pizza"},"PD2MAlYYi9HCqPH7IBKwTg":{"rating":4.0,"num_photos":0,"postal_code":"61820","name":"La Bamba"},"6d82R41sVNDVS0I-c1Ghkg":{"rating":3.5,"num_photos":1,"postal_code":"61822","name":"Portillo's"},"dYfB6KjDrtmN9wbtWg5qEQ":{"rating":4.5,"num_photos":0,"postal_code":"61821","name":"Belicious Bakery"},"1hSGeXz8tCMvi7tBkP4CTg":{"rating":2.5,"num_photos":0,"postal_code":"61822","name":"Red Roof Inn Champaign"},"zswdqM8Av3KxVv9o7_6ORA":{"rating":3.5,"num_photos":1,"postal_code":"61820","name":"Rainbow Garden"},"7PH-QDcIpI9-L_LISkLkjg":{"rating":3.0,"num_photos":0,"postal_code":"61822","name":"Art In Motion Dance Studio"},"zOiRz0CrelSvK3i-BkLvfQ":{"rating":3.0,"num_photos":0,"postal_code":"61822","name":"JOANN Fabrics and Crafts"},"TVqeUn37-xg-1IAS4FTuaA":{"rating":3.5,"num_photos":0,"postal_code":"61822","name":"Jeffrey Frerichs, DDS"},"GHvpTdX_w_JCE5lnxhe_YA":{"rating":2.5,"num_photos":0,"postal_code":"61820","name":"Joe Allan Properties"},"doEpdTg3l55-IWemTlG3tg":{"rating":3.0,"num_photos":0,"postal_code":"61821","name":"Jimmy John's"},"8k2l-fbaeQU9lVG4oRgxUw":{"rating":3.0,"num_photos":1,"postal_code":"61821","name":"Prairie Fire Restaurant"},"Xi15Buj936IsyQN8X-9zEw":{"rating":3.5,"num_photos":0,"postal_code":"61820","name":"Furniture Warehouse"},"FUr2uEolARu7rv2TQYKPqg":{"rating":3.0,"num_photos":0,"postal_code":"61821","name":"Za's Italian Cafe"},"6x8cwjrfnE5_AVt7j-mF8w":{"rating":4.5,"num_photos":0,"postal_code":"61874","name":"Curtis Road Animal Hospital"},"ZpPd9a-Tv_NGXh8P1ivjzA":{"rating":2.5,"num_photos":0,"postal_code":"61821","name":"Starr Limousine"},"DysXlYb_WVlksoip8atIvQ":{"rating":1.5,"num_photos":0,"postal_code":"61821","name":"McDonald's"},"5_cn7M-9swHrFbnqZtYGBQ":{"rating":4.0,"num_photos":2,"postal_code":"61820","name":"Bangkok Thai and Pho 911"},"6GJ9K4HadzMBZG4WY_P9bw":{"rating":3.5,"num_photos":1,"postal_code":"61822","name":"Smoke 'Que & Brew"},"fwJyji2z5FNCCC7CaOzVJw":{"rating":2.5,"num_photos":6,"postal_code":"61866","name":"Pizza Hut"},"d7ZAFNiqhZD9yo0lX-AeKw":{"rating":3.5,"num_photos":0,"postal_code":"61821","name":"Triple T Car Wash"},"gZI007iLBe_LZbrHSDxHtg":{"rating":3.5,"num_photos":0,"postal_code":"61801","name":"Art Coop"},"gqNWdGdRpHy1vbrEtQyJEw":{"rating":4.0,"num_photos":0,"postal_code":"61822","name":"Ulta Beauty"},"DFZnNrIZu1_oHv-4aaxJbg":{"rating":4.0,"num_photos":0,"postal_code":"61866","name":"Taste Of Thai"},"7zTivhugiT3IwvusTe2WRw":{"rating":4.0,"num_photos":0,"postal_code":"61801","name":"Yoga Institute of Champaign-Urbana"},"PMxjEKzuoS7iWPBoM5oOrQ":{"rating":3.0,"num_photos":0,"postal_code":"61801","name":"The Magic Needle"},"54fRA8HnuCLlXfTcl2x_RQ":{"rating":4.0,"num_photos":0,"postal_code":"61820","name":"Kohl's"},"g8buMX3iAiUssorC4VM0sw":{"rating":3.5,"num_photos":0,"postal_code":"61820","name":"Top Hair Salon"},"cRZm_9Bh9q5S4XhV1etJng":{"rating":1.5,"num_photos":0,"postal_code":"61874","name":"Walmart Supercenter"},"rOPj68rUjK9tv84ShWaetg":{"rating":2.5,"num_photos":2,"postal_code":"61801","name":"BBQ Premium Chicken"},"cFXbnUGRNYI4gVR2WIBHlQ":{"rating":2.5,"num_photos":0,"postal_code":"61820","name":"Toys R US"},"mTP3pik3aP69F6EoEHme3w":{"rating":3.5,"num_photos":0,"postal_code":"61821","name":"Gramercy Park Apartments"},"AE_q1IxLxwDeU0LdTnXxtg":{"rating":4.5,"num_photos":0,"postal_code":"61821","name":"Norris Tire & Auto Center"},"asCPMMAA1wW3GJvrPA4fTA":{"rating":3.0,"num_photos":0,"postal_code":"61801","name":"Tang Dynasty"},"9pQsVUScSzreqYLU7p5oaQ":{"rating":3.0,"num_photos":0,"postal_code":"61856","name":"Hardee's"},"PpfKNt980UC4KUFxfoxNXw":{"rating":2.0,"num_photos":0,"postal_code":"61820","name":"LensCrafters"},"D6SCh4BwNb52wZIqXdS4JQ":{"rating":4.0,"num_photos":1,"postal_code":"61820","name":"Esquire Lounge"},"VExz8Dl7hVvulketrhL34w":{"rating":3.5,"num_photos":0,"postal_code":"61822","name":"Old Navy"},"V7CbZXLAG_wg-wZfQxCZcA":{"rating":4.0,"num_photos":0,"postal_code":"61820","name":"Assembly Hall"},"DrTZoBYke80zH1herrG0_g":{"rating":5.0,"num_photos":0,"postal_code":"61821","name":"Elite Entertainment"},"cDGaMsCAx8guR1IUrxLxWA":{"rating":4.0,"num_photos":1,"postal_code":"61820","name":"Pho Cafe"},"Fd8ip3t0BN9fTkr5IeLo0A":{"rating":1.5,"num_photos":0,"postal_code":"61801","name":"Great Clips"},"g_oOjzFgqmSEAD4crxBirA":{"rating":2.5,"num_photos":0,"postal_code":"61821","name":"Jimmy John's"},"8vic1pbUTvBMG_fYlvC_SQ":{"rating":5.0,"num_photos":0,"postal_code":"61802","name":"Planet Fitness"},"6ockUmdOBYBApEsUCJkBzA":{"rating":5.0,"num_photos":0,"postal_code":"61802","name":"El Oasis"},"G_ly5CisletsxEoJImPBhw":{"rating":2.0,"num_photos":0,"postal_code":"61801","name":"Historic Lincoln Hotel"},"SrhiDE3sOswF096hB1YeyA":{"rating":4.5,"num_photos":0,"postal_code":"61802","name":"Good Friends Animal Hospital"},"u68_uFbvsqrwZVeHo-a71g":{"rating":2.5,"num_photos":0,"postal_code":"61821","name":"Bacca Cigar"},"xfey6Kewyw_vS6y7mRV_Sg":{"rating":3.5,"num_photos":0,"postal_code":"61820","name":"Helzberg Diamonds"},"zkieW2F82--bbOIRhOCj0g":{"rating":4.0,"num_photos":0,"postal_code":"61801","name":"All Creatures Animal Hospital"},"vxtVFSa9_sFrUA4NYe4EJA":{"rating":4.5,"num_photos":0,"postal_code":"61820","name":"Rick Orr Flowers"},"mZJdFjxvVddqPN5RZdKSHg":{"rating":3.5,"num_photos":1,"postal_code":"61820","name":"Jurassic Grill"},"uvVOuCbo4_5z_J5WJVG4QQ":{"rating":3.0,"num_photos":0,"postal_code":"61820","name":"Joe's Brewery"},"nZdfNy6_HRKu7MYkQP6eyA":{"rating":4.0,"num_photos":0,"postal_code":"61803","name":"Dale Levitt Disposal"},"RGTJA3fCkTp1rSbLAAR8RA":{"rating":5.0,"num_photos":0,"postal_code":"61820","name":"First United Methodist Child Care Center"},"0mhOoKxdWMPg4PvozmSMbg":{"rating":4.0,"num_photos":0,"postal_code":"61820","name":"Piccadilly Beverage Shops"},"YERn2kltXVj9936i6T4Q8w":{"rating":4.0,"num_photos":1,"postal_code":"61820","name":"Big J J Fish & Chicken"},"D3lAX4-ZniCmfJ7xagD7GA":{"rating":1.5,"num_photos":0,"postal_code":"61822","name":"The Auto Mall of Champaign"},"EcgJ_PI0DBPP1UyLCF1zxQ":{"rating":4.5,"num_photos":0,"postal_code":"61820","name":"Dom's Patio Villa"},"flEWXAdRcXAYJYc136N-VA":{"rating":3.5,"num_photos":0,"postal_code":"61820","name":"Day Spa"},"cQlmYFkJt1axuaKE3FiPxQ":{"rating":3.5,"num_photos":1,"postal_code":"61953","name":"Monical's Pizza"},"wYp3Xog0giOX5CFAv1pZtA":{"rating":4.5,"num_photos":0,"postal_code":"61820","name":"Dallas & Co Costumes & Magic"},"9svP2izKnYwql7Wj2ReMdA":{"rating":4.5,"num_photos":0,"postal_code":"61820","name":"BodyWork Associates"},"u_MdwAj7eGenc0YhqQy6nA":{"rating":2.5,"num_photos":4,"postal_code":"61820","name":"Wingstop"},"v_xTE55R62m7riTP7nWgAA":{"rating":1.0,"num_photos":0,"postal_code":"61866","name":"Taco Bell"},"XIMUsIYfcMuY8G8gq10fyw":{"rating":5.0,"num_photos":0,"postal_code":"61820","name":"Melby Chiropractic"},"RbyFycLE-RTwaUT-zcxLZQ":{"rating":5.0,"num_photos":0,"postal_code":"61873","name":"Wicked Rascal Barbershop & Grooming Company"},"N6YTq6jvbbpFNd2-sU0BBA":{"rating":1.0,"num_photos":0,"postal_code":"61820","name":"United Car Center"},"2Qm2Dd6eCCHh1CFy9Ge6hA":{"rating":5.0,"num_photos":0,"postal_code":"61820","name":"Rumours Hat Shoppe"},"1xeyFW6daV8jdt3dM1nhqQ":{"rating":2.5,"num_photos":0,"postal_code":"61822","name":"Subway"},"5bTjUBhGbild5tuzfAmIJg":{"rating":2.0,"num_photos":0,"postal_code":"61822","name":"Denny's"},"2q8aAvcydGLzEeoTEV7JWg":{"rating":3.0,"num_photos":0,"postal_code":"61822","name":"Sullivan-Parkhill Automotive"},"fzeoB94sPrXpjScO9puoiA":{"rating":3.5,"num_photos":0,"postal_code":"61820","name":"N Tailor & Alterations"},"u5uBlSOrfi9SqBYNmlPbEg":{"rating":4.0,"num_photos":0,"postal_code":"61856","name":"Pearls & More"},"Am0SxpDSVCYhliYPNCo20g":{"rating":2.5,"num_photos":0,"postal_code":"61820","name":"United States Post Office"},"a39B-BfbCipNkNH7vwCfug":{"rating":4.0,"num_photos":6,"postal_code":"61820","name":"Mid-Summer Lounge"},"btsnJ7jLVz-lE20YIG2K4Q":{"rating":4.5,"num_photos":0,"postal_code":"61822","name":"Advance Auto Parts"},"x792tXM8gIf6-nU2IiiAEQ":{"rating":3.0,"num_photos":0,"postal_code":"61822","name":"Five Guys Burgers & Fries"},"d51qbs6CitHbFD--G-AEVw":{"rating":3.0,"num_photos":0,"postal_code":"61822","name":"Shanghai 1938"},"UibFRHKuVXlLdr5R-fvF9A":{"rating":5.0,"num_photos":0,"postal_code":"61821","name":"Checkered Moon"},"iBRwl7sirmvg22AYnMPONQ":{"rating":2.5,"num_photos":0,"postal_code":"61801","name":"Miko"},"EoPd4SI9-mnkyb2CJcgkLA":{"rating":3.5,"num_photos":0,"postal_code":"61820","name":"Minneci's Ristorante"},"DS3-yphtWDHAdXLtIoqdAA":{"rating":3.5,"num_photos":0,"postal_code":"61820","name":"The Pita Pit"},"9qnlmW_Az2itTy0fmoE-7Q":{"rating":4.0,"num_photos":0,"postal_code":"61820","name":"Walgreens"},"wCoAzScVWpL9bsDsyf1EIQ":{"rating":2.0,"num_photos":0,"postal_code":"61803","name":"McDonald's"},"obeDcVrK5xACPD5PiGgG_Q":{"rating":4.0,"num_photos":0,"postal_code":"61821","name":"Insty-Prints Business Printing Services"},"OIhwgAsg_JvPSZuST7WP5w":{"rating":4.5,"num_photos":0,"postal_code":"61820","name":"Dave & Harry Locksmiths"},"7AmXzL434IH6V5-Ljk_8Mg":{"rating":3.0,"num_photos":0,"postal_code":"61801","name":"Holiday Inn Express & Suites Urbana-Champaign"},"hBKkJeRmqceqgIWb3Pv1eg":{"rating":3.0,"num_photos":0,"postal_code":"61822","name":"PetSmart"},"Rdz-eq_WcjybqwfZ9Ck_ow":{"rating":4.0,"num_photos":0,"postal_code":"61802","name":"Above & Beyond Detailing"},"RhbvneDMmf7TWJRs_jTaQw":{"rating":2.5,"num_photos":0,"postal_code":"61802","name":"M & M Auto Sales"},"68HNLNwMfXu1NuL_2E4N7A":{"rating":4.0,"num_photos":0,"postal_code":"61820","name":"Doodles"},"fawUfZ9V4P5FJpOPVx6Fwg":{"rating":5.0,"num_photos":0,"postal_code":"61820","name":"Tech Spec Home Inspection Service"},"FOSsY1OO0hTxro91Z0GOHQ":{"rating":4.5,"num_photos":0,"postal_code":"61801","name":"1 Man 2 Hands"},"IFlSq9YWXHZyLnuh0EffKQ":{"rating":4.5,"num_photos":0,"postal_code":"61849","name":"Main Street Belly Deli"},"UFvqa5OIX4Jy6l5okEir8g":{"rating":2.5,"num_photos":0,"postal_code":"61820","name":"Bash Heating & Air Conditoning"},"LkHpM5vP4B1DIbRCuvLNZA":{"rating":5.0,"num_photos":0,"postal_code":"61820","name":"Champaign Jewelers"},"4DJr4RScJlKV2l7AWiQeqQ":{"rating":5.0,"num_photos":0,"postal_code":"61802","name":"Leone Chiropractic Clinic"},"3MhH_4rYYOZCKydIW-WrWg":{"rating":4.5,"num_photos":0,"postal_code":"61866","name":"Burrito King"},"x3Y37yZyn_cC-W5qOnGVWA":{"rating":4.5,"num_photos":0,"postal_code":"61820","name":"All Things Moving"},"Kfxm-fFJ3eY9DoTb6K2jXw":{"rating":4.0,"num_photos":0,"postal_code":"61801","name":"The William R and Clarice V Spurlock Museum"},"Np7CVNMwqQ-4X_OYQJnVEw":{"rating":4.0,"num_photos":0,"postal_code":"61822","name":"Baytowne Apartments"},"b2mVDUqALgBWgL3k7drlNg":{"rating":3.5,"num_photos":0,"postal_code":"61821","name":"Denny's Professional Cleaners & Launderers"},"8ztbiTDIi-2yQLVul58c5w":{"rating":4.0,"num_photos":0,"postal_code":"61822","name":"Doughbelly Subs"},"LLmix3oq4ZQF69TQiqtfUA":{"rating":4.5,"num_photos":0,"postal_code":"61821","name":"Cooperative Healing"},"nruGB6KEc3E3zUiTLtPkbg":{"rating":3.5,"num_photos":0,"postal_code":"61822","name":"Janice Vidovic Realtor - Keller Williams"},"7U7KkQyUIxUCcfCso4HP1g":{"rating":4.5,"num_photos":6,"postal_code":"61953","name":"Pizza Hut"},"ZfQY1dNPN8IYmwEjZuVtVg":{"rating":4.0,"num_photos":0,"postal_code":"61802","name":"Champaign-Urbana Mass Transit District"},"TQg3tu8U3x8OaC2R4KKh7g":{"rating":4.0,"num_photos":1,"postal_code":"61820","name":"Mango Mango Creamery"},"sOPBbhDCi7bJlW7dNBuITg":{"rating":3.5,"num_photos":2,"postal_code":"61801","name":"A Plus VIP Lounge"},"-AaP3LAwMldM3IDYbxoS9g":{"rating":3.5,"num_photos":0,"postal_code":"61820","name":"Dankle Brunson & Lee"},"MQ-xcuUXXBYvrXzy7BmOFw":{"rating":2.5,"num_photos":3,"postal_code":"61820","name":"Hooters"},"pWxCiLYvlUHd9TVJ7n0mEQ":{"rating":4.5,"num_photos":0,"postal_code":"61820","name":"The Estate Sale"},"zK9uMcGxF7AmZ7lPiB0PKQ":{"rating":3.0,"num_photos":0,"postal_code":"61820","name":"The Illini Shop"},"kj44upIDaMIPlYvsuweP4g":{"rating":3.5,"num_photos":0,"postal_code":"61820","name":"Geovanti's"},"myyJxx7nvs-5_T-Uvc-kLw":{"rating":1.0,"num_photos":0,"postal_code":"61801","name":"Wendy's"},"Juh5CRXpMwryKzgvkIvhVg":{"rating":3.5,"num_photos":0,"postal_code":"61820","name":"Campus Ink Printing"},"2qLOnQtWSlTOtkfEFyWScg":{"rating":4.0,"num_photos":0,"postal_code":"61874","name":"University of Illinois Willard Airport"},"-M7gHL2kShmPBqMif9_C9w":{"rating":3.0,"num_photos":0,"postal_code":"61801","name":"McKinley Health Center"},"TenyEe-tWeQBhc_2C5yjRQ":{"rating":4.5,"num_photos":0,"postal_code":"61874","name":"Animal Outfitters"},"CV5yJTj8_IgjxTEq5mqG0w":{"rating":2.0,"num_photos":0,"postal_code":"61821","name":"Country Squire Cleaners"},"8l40j8TuhGCqBRCpM4Vx1A":{"rating":5.0,"num_photos":0,"postal_code":"61801","name":"Millikan Masonry"},"ffacanjbTeV8qP0puOW4xQ":{"rating":4.0,"num_photos":0,"postal_code":"61820","name":"Jiya Beauty Salon"},"fXn1STPwhd8KnVVt_dGPNA":{"rating":5.0,"num_photos":0,"postal_code":"61820","name":"Acupuncture & Chinese Herb Center"},"90-SH6kAdzQfld_ydZljyA":{"rating":3.0,"num_photos":0,"postal_code":"61820","name":"Plato's Closet"},"XdFzgnx_K-5itD5CV9cW8A":{"rating":3.0,"num_photos":0,"postal_code":"61822","name":"Illini Nissan"},"8I2cyF1vbJioj5kxvbW0PQ":{"rating":5.0,"num_photos":0,"postal_code":"61820","name":"P K Jewelry Repair"},"ngDI7XtTpP-E-Ttom3Gq1w":{"rating":3.5,"num_photos":0,"postal_code":"61802","name":"Advance Auto Parts"},"jl-FwOL_IR5wDrUAVvbgag":{"rating":3.0,"num_photos":0,"postal_code":"61820","name":"Mosser's Shoes"},"sfn4UtTZOjGo0hIWBa48uw":{"rating":3.5,"num_photos":0,"postal_code":"61820","name":"The Art Party Studio"},"AVAbiZZSbV8DB61D3AKTUw":{"rating":3.5,"num_photos":0,"postal_code":"61859","name":"Rick's Tractor Services"},"UITomlnpbixMcYNXsVV9Rg":{"rating":3.5,"num_photos":0,"postal_code":"61821","name":"Schnucks Pharmacy - Champaign"},"r8R7dWTZEbJUd6gwrVsUNg":{"rating":4.0,"num_photos":0,"postal_code":"61874","name":"Chittick Family Eye Care"},"SjFAUjXTbLZQKk6bgk36kA":{"rating":5.0,"num_photos":0,"postal_code":"61820","name":"Clean Houses C U"},"FTky74MxFIMvAJepeUUzEQ":{"rating":4.5,"num_photos":0,"postal_code":"61820","name":"The Cookie Jar"},"Pj8n8jDPRdXi7RdOABJkWA":{"rating":4.5,"num_photos":0,"postal_code":"61820","name":"Amano's Pizza"},"5jXwI9WpDxGDmzmkmE0RTg":{"rating":3.0,"num_photos":0,"postal_code":"61822","name":"Oishi"},"GCKwJY2KNoNdGHx9Hzr9Wg":{"rating":4.5,"num_photos":0,"postal_code":"61801","name":"Arrow Taxicab Service"},"J5U-nbhKSnnX7DJGT6QELg":{"rating":3.5,"num_photos":21,"postal_code":"61802","name":"The Apple Dumplin'"},"QCGrf-ym-xnoMPeG399p3Q":{"rating":5.0,"num_photos":0,"postal_code":"61821","name":"Central Illinois Credit Union"},"EybiuKEnH-AHYG34qG8gFw":{"rating":4.0,"num_photos":0,"postal_code":"61802","name":"Corkscrew Wine Emporium"},"_RfD4fF8eSikcwMhPE2hFg":{"rating":3.5,"num_photos":0,"postal_code":"61801","name":"Priceless Books"},"5r-kh_n_ivSmkrfGMtbtog":{"rating":2.0,"num_photos":0,"postal_code":"61820","name":"Baskin Robbins"},"XIFPoEPkvGlTSlm9JRA_Ag":{"rating":2.0,"num_photos":0,"postal_code":"61820","name":"Slice Factory"},"PiD4hteskHnFC4GowN34cw":{"rating":3.0,"num_photos":0,"postal_code":"61821","name":"Espresso Royale"},"ufKI7gCwT62TbjFFExbdiw":{"rating":2.0,"num_photos":0,"postal_code":"61866","name":"Days Inn Rantoul"},"R33FCE16yV_zpMEJ6ZSiPg":{"rating":2.5,"num_photos":0,"postal_code":"61820","name":"Footlocker"},"xp9-HFOcV93zdQxNuH5dUw":{"rating":4.5,"num_photos":0,"postal_code":"61820","name":"Anna's Nail Salon"},"lXH-2--dUls3FSPsnJFbPQ":{"rating":2.5,"num_photos":0,"postal_code":"61822","name":"Best Buy"},"1kFIdGb-ej5hYuvGbd8MUw":{"rating":5.0,"num_photos":0,"postal_code":"61821","name":"Elite Bridal Shop"},"wTBfpTjdWG_zoE62B_bLtA":{"rating":2.5,"num_photos":0,"postal_code":"61880","name":"Monical's Pizza"},"VRKJpWhQeUE_38jnKrgsrA":{"rating":3.0,"num_photos":0,"postal_code":"","name":"ROKs Tacos - Korean BBQ Tacos"},"Cw0JNNdPja9CVyT6ugGMdw":{"rating":4.0,"num_photos":0,"postal_code":"61874","name":"Saigon To Bangkok"},"wlaLghphDVOly6DT9Fulqg":{"rating":3.0,"num_photos":0,"postal_code":"61801","name":"Beads N Botanicals"},"FsnwQwatA43aeGhJlxQ_Kg":{"rating":4.0,"num_photos":6,"postal_code":"61820","name":"Paris Super Crepes"},"zoRCO-nmkMta4OS3gb_prQ":{"rating":3.0,"num_photos":0,"postal_code":"61874","name":"Tailwaggers Pet Chateau"},"vov_aU5cGD-EfUcmjSHmkw":{"rating":3.5,"num_photos":0,"postal_code":"61801","name":"Pretty Nails"},"hbpfOd92FjEMTom-jKSdpg":{"rating":5.0,"num_photos":0,"postal_code":"61822","name":"Interstate All Battery Center"},"sx3tm6DjXNWUSITyKeDHRw":{"rating":1.0,"num_photos":0,"postal_code":"61821","name":"La-Z-Boy Furniture Galleries"},"sreTMVo7iojXztJcf-qGRA":{"rating":2.5,"num_photos":0,"postal_code":"61856","name":"Rick Ridings Ford"},"hH7qhup_bGKr9r27RpHJPw":{"rating":1.5,"num_photos":0,"postal_code":"61953","name":"Taco Bell"},"WTu8B3igPYJlkJ2gHzrBYw":{"rating":4.5,"num_photos":13,"postal_code":"61820","name":"M Sushi & Grill"},"tr_xyTPLCy_iBhg6GFL2Rw":{"rating":4.0,"num_photos":0,"postal_code":"61820","name":"Browne's Fine Jewelry"},"CrIWqmuO2uQWwl3z11K_BA":{"rating":4.0,"num_photos":7,"postal_code":"61820","name":"Pizzeria Antica"},"BaM7YlRv7Mchd3Yb58Tbpw":{"rating":4.5,"num_photos":0,"postal_code":"61874","name":"BodyN'Sole"},"Piw4Xr1wNyL4lgmwLZ2eTg":{"rating":3.5,"num_photos":0,"postal_code":"61821","name":"Jet's Pizza"},"7wVePHnuIUE-Vf9Gke518g":{"rating":2.0,"num_photos":0,"postal_code":"61821","name":"Cardinal Fitness of Champaign"},"aVOxJm-9FAeWcvB2oBxJdQ":{"rating":4.5,"num_photos":0,"postal_code":"61820","name":"Plant Mode"},"Pz2mK5ZkmiWiHZG0OUcKdw":{"rating":4.5,"num_photos":0,"postal_code":"61801","name":"Rick's Bakery Cafe"},"0-WocGTpO3Zm4q1Zzz49Rw":{"rating":3.5,"num_photos":5,"postal_code":"61820","name":"Sushi Kame"},"GkQxwsRXYioD2VtCjNfedw":{"rating":3.5,"num_photos":0,"postal_code":"61820","name":"The Beef Stand"},"0ShwfHpDi1c6qAZc7P2lzg":{"rating":4.0,"num_photos":0,"postal_code":"61820","name":"Royse & Brinkmeyer Apartments"},"gEPH0lm8IJcC8dkkwHJ7fA":{"rating":3.5,"num_photos":0,"postal_code":"61820","name":"Jillian's"},"FM-rxNJP7eSXZGwizEd-Dg":{"rating":3.0,"num_photos":0,"postal_code":"61820","name":"Dunkin' Donuts"},"Tiu3iRXMlzEEI6Epp3I8lg":{"rating":5.0,"num_photos":0,"postal_code":"61820","name":"Cafe Sababa"},"0WOlYhMZFtitsupK3VP_2w":{"rating":2.0,"num_photos":0,"postal_code":"61820","name":"Champaign Dental Group"},"vyCTd76g2aGqWvY1229ofw":{"rating":2.5,"num_photos":0,"postal_code":"61820","name":"CVS"},"Br2WIGAMaB6JnXUeOHSqyA":{"rating":4.5,"num_photos":0,"postal_code":"61801","name":"Midas"},"wmhFEY8IctqfSBO0NDcb1w":{"rating":4.5,"num_photos":0,"postal_code":"61801","name":"Urbana Free Library"},"r9xW1wXycs4MPpqB-Vknzg":{"rating":2.5,"num_photos":0,"postal_code":"61820","name":"Hardee's"},"aGrdbIsBr28EegRnk8fRcw":{"rating":2.5,"num_photos":0,"postal_code":"61866","name":"Walmart Supercenter"},"ZiLOXVloAOtr9_cpQTpr8g":{"rating":4.0,"num_photos":0,"postal_code":"61820","name":"University of Illinois"},"x9J5FL7jY3s58tWRAwa7BQ":{"rating":5.0,"num_photos":0,"postal_code":"61873","name":"St Joseph Animal Hospital"},"7uVAFzODEJ8WHWou_DASpw":{"rating":4.5,"num_photos":0,"postal_code":"61821","name":"Angel Paws Pet Grooming & Pet Sitting"},"xTgrFckpZ4ZzLLWWGWBthg":{"rating":4.5,"num_photos":0,"postal_code":"61822","name":"BodiBronze Sunless Spa"},"OBRf8DQVw61CDrZvwXLGlQ":{"rating":2.5,"num_photos":1,"postal_code":"61801","name":"Holiday Inn Hotel Champaign\/Urbana"},"8JadBN3TgJ0vP7iqhe2iug":{"rating":4.5,"num_photos":0,"postal_code":"61821","name":"Gene's Barber Shop"},"QxbVPV2xndVP-nT1IRKF1w":{"rating":3.5,"num_photos":0,"postal_code":"61821","name":"El Torero"},"qyTrvPGQGgRL-X86Ob0tvA":{"rating":5.0,"num_photos":0,"postal_code":"61820","name":"Rehab Professionals"},"KZ-Bd3XFEaLcbFm5xWfaXQ":{"rating":5.0,"num_photos":0,"postal_code":"61859","name":"J & K Body & Paint"},"Z7lIfcYVn1Ia5exVoSiNIw":{"rating":4.5,"num_photos":0,"postal_code":"61820","name":"No Regrets Tattoos & Body Piercing"},"WO97KVFck0KtbNOOZINj7Q":{"rating":3.0,"num_photos":0,"postal_code":"61821","name":"Master Nails"},"W9DuuL63NQ6gT9vlPoZpBw":{"rating":4.0,"num_photos":0,"postal_code":"61821","name":"Ruth's Salon"},"zk-TCyb42tf6neJk5X1AuQ":{"rating":4.5,"num_photos":0,"postal_code":"61822","name":"Robin's Nest"},"Pi-FF-QhIAceHEiipb2PcQ":{"rating":4.0,"num_photos":0,"postal_code":"61822","name":"Shangri-La Massage"},"Lwb6bG1Qu3BbW7FJj5suLw":{"rating":5.0,"num_photos":0,"postal_code":"61801","name":"Champaign-Urbana Adventures in Time & Space"},"831BmmuoZF8px1KhBmRB9w":{"rating":3.5,"num_photos":0,"postal_code":"61820","name":"Rocks"},"wxxn-2vEWky9ROitqfYFzw":{"rating":2.0,"num_photos":0,"postal_code":"61802","name":"Village Inn Pizza"},"VZtXF2A-MNt5J6d6ih7tkA":{"rating":4.0,"num_photos":0,"postal_code":"61802","name":"Aldi Grocery"},"HgwOtz8ObpFkzfNbtewwWw":{"rating":2.5,"num_photos":0,"postal_code":"61822","name":"Carmike Beverly Cinema 18"},"mGRJtc9CEpj2YfI6AbWE6A":{"rating":3.0,"num_photos":0,"postal_code":"61953","name":"Tuscany Steak & Pasta House"},"nrGop3jH9s3cq-RTiEWOGQ":{"rating":3.5,"num_photos":0,"postal_code":"61866","name":"China Express"},"VSkNNLEGTwVCjXTqQ4rCrg":{"rating":3.0,"num_photos":7,"postal_code":"61822","name":"Freddy's Frozen Custard & Steakburgers"},"w_O-xDRHCRBUIr0ojbN6tw":{"rating":2.0,"num_photos":0,"postal_code":"61801","name":"Parkside Apartments"},"kCuVBEfMDzDM4X840R5J7Q":{"rating":2.5,"num_photos":0,"postal_code":"61822","name":"Staples"},"rBj1vByP-GjXuNUR0Nj0qA":{"rating":4.0,"num_photos":0,"postal_code":"61801","name":"Kirby's Firestone Service Center"},"T3_yNF636kWCgSb54-1h2Q":{"rating":4.5,"num_photos":0,"postal_code":"61849","name":"Salt Fork River Preserve"},"XPgBHiOKETheAfWSrgCudw":{"rating":3.5,"num_photos":0,"postal_code":"61820","name":"Lando Salon"},"quBiDNgMLYoWP6Q2YSgZLg":{"rating":3.0,"num_photos":17,"postal_code":"61801","name":"Don Juan Cocina Mexicana & Cantina"},"CpNMXASiwtJv5eCDf0n63g":{"rating":3.0,"num_photos":0,"postal_code":"61821","name":"Alexander's Steakhouse"},"vVfkmCB3hCRawODf8fAc6g":{"rating":4.5,"num_photos":0,"postal_code":"61822","name":"Men's Wearhouse"},"asAvGPatlH1Oe6xsBN1olw":{"rating":3.5,"num_photos":0,"postal_code":"61820","name":"Apricot Lane"},"I9NGBZl3HP_7rSquAo6snQ":{"rating":3.5,"num_photos":0,"postal_code":"61820","name":"U of I Community Credit Union"},"ewDdEJfnmGue19wrrwJwTw":{"rating":5.0,"num_photos":0,"postal_code":"61820","name":"Underground Printing"},"VWN70F_wFlsLDsOa0fVSoQ":{"rating":1.0,"num_photos":0,"postal_code":"61820","name":"MHM Properties"},"itAarV1gSFcLcwcK4AUryg":{"rating":3.5,"num_photos":0,"postal_code":"61820","name":"ThirdSide"},"e7N4dO5w2Ef5RdSnH_n4Jw":{"rating":3.0,"num_photos":0,"postal_code":"61802","name":"Walgreens"},"Bfh_ON-LQUcJerjcDF5KNA":{"rating":4.0,"num_photos":0,"postal_code":"61822","name":"Best Wok"},"1YqkSk2xorNWPOoieIMApQ":{"rating":4.5,"num_photos":0,"postal_code":"61820","name":"Great Harvest Bread Company-Champaign"},"eNeBda4br3HMg15-_jwokA":{"rating":3.5,"num_photos":0,"postal_code":"61873","name":"El Toro"},"GEpIV65f4afQHlL-yxC3wA":{"rating":4.0,"num_photos":0,"postal_code":"61801","name":"Black Rock Pizza"},"y1ouTVkTZttdEdYcvF_koQ":{"rating":3.5,"num_photos":0,"postal_code":"61801","name":"Sportland Motor Sports"},"N-IwlZQimaUrxYF_jGUCOg":{"rating":4.5,"num_photos":0,"postal_code":"61821","name":"Anderson Dental"},"bqiBdnyfYxTc4r8hY28q1g":{"rating":4.0,"num_photos":0,"postal_code":"61953","name":"Mi Veracruz"},"oPEQSrzt3w-Eb0IMeqF-8w":{"rating":5.0,"num_photos":0,"postal_code":"61822","name":"The Salon House"},"1bgcPZXnzAZvrc6HcBfc7A":{"rating":5.0,"num_photos":0,"postal_code":"61821","name":"Average Joe Auto Repair"},"zTGxLMOd9crAz0XNzqrcrA":{"rating":3.5,"num_photos":1,"postal_code":"61820","name":"Empire Chinese Restaurant"},"7siEeRGqAJ730IkwAtcWAQ":{"rating":3.5,"num_photos":0,"postal_code":"61820","name":"Jerusalem Middle Eastern Cuisine"},"NFUINoS0tUsp3qy7wLIB1A":{"rating":4.0,"num_photos":0,"postal_code":"61820","name":"Dorcas Restaurant"},"aac42j0E_5R8bEro-JNYfA":{"rating":5.0,"num_photos":0,"postal_code":"61821","name":"Breakfast Life and Dinner"},"EKQiKd7EMZjsa4JokFaeAg":{"rating":4.0,"num_photos":0,"postal_code":"61820","name":"China King"},"0V-A3bUWkTmdV51xVh2O9Q":{"rating":5.0,"num_photos":0,"postal_code":"61816","name":"Deni's Door Service"},"40_k0mmGSXesMHpjPFSXaQ":{"rating":1.5,"num_photos":0,"postal_code":"61874","name":"Avis Rent A Car"},"aLeozHo7RPI1jM30UM9iKw":{"rating":2.0,"num_photos":0,"postal_code":"61821","name":"Luther Falls Custom Kitchens"},"7WproNY9yxW6p2R3gn6Euw":{"rating":2.0,"num_photos":0,"postal_code":"61820","name":"C-U Taxi"},"xo_53Ec0MacJEC5ux7dWhQ":{"rating":4.0,"num_photos":0,"postal_code":"61802","name":"Bagelmen's Inc"},"dC2MqO8lALQJUZB-an2G5A":{"rating":2.0,"num_photos":0,"postal_code":"61820","name":"JSM Living"},"FbvSgvPnkKNONXjesuAz4g":{"rating":5.0,"num_photos":0,"postal_code":"61820","name":"The Upper Bout"},"dA9xisX951rOnx8IGLPfjw":{"rating":4.5,"num_photos":0,"postal_code":"61820","name":"Fat City Bar and Grill"},"JEtSnAOhY1jQqj1SmISJhQ":{"rating":4.0,"num_photos":0,"postal_code":"61820","name":"Volo Broadband"},"jDlvFXuxis4rC2NcWQbqig":{"rating":5.0,"num_photos":0,"postal_code":"61801","name":"Thomas M. Siebel Center for Computer Science"},"x4eptNxzj43ihrk0nZB_OA":{"rating":3.0,"num_photos":0,"postal_code":"61802","name":"Montana Mike's"},"KCQNEIvtU48Mh07uS-_Gvw":{"rating":2.5,"num_photos":0,"postal_code":"61801","name":"Taco Bell"},"RfQViSM_mibezqmyA-iMnA":{"rating":2.0,"num_photos":0,"postal_code":"61802","name":"Town & Country Apartments"},"TyfAhoggE2Z4S-_YgRx1pg":{"rating":5.0,"num_photos":0,"postal_code":"61821","name":"Bensky Family Acupuncture"},"MeifqPs6WGgVeTNP-g8gfQ":{"rating":2.5,"num_photos":0,"postal_code":"61820","name":"Charlotte Russe"},"RDHH5aVSsblGfOf17P2Tjg":{"rating":4.0,"num_photos":0,"postal_code":"61821","name":"Tuesday Morning"},"Xoahafjr-Hz9zLrodYvDBA":{"rating":1.5,"num_photos":0,"postal_code":"61866","name":"Burger King"},"SnL1Fou0_JMlhULRky32Og":{"rating":4.0,"num_photos":0,"postal_code":"61820","name":"Hair Benders"},"EYmj4QlhqgrsMXnLeGLu3Q":{"rating":3.5,"num_photos":6,"postal_code":"61822","name":"Curtis Orchard & Pumpkin Patch"},"39Sa6I5Bf6hN1KstkpNHbg":{"rating":4.5,"num_photos":0,"postal_code":"61820","name":"B. Lime, A Green Store"},"NwuFi_xrzWzfT7CEXfse7Q":{"rating":2.0,"num_photos":0,"postal_code":"61822","name":"Extended Stay America - Champaign - Urbana"},"RYClIlSwSPpaptR8tOF0AQ":{"rating":3.0,"num_photos":0,"postal_code":"61801","name":"Lacy's"},"SmBS4-Jzzw9GGl_U4PVprg":{"rating":3.0,"num_photos":0,"postal_code":"61802","name":"Dyno-Tune"},"5uvf3QpmrdU2aiqmF4278A":{"rating":3.0,"num_photos":7,"postal_code":"61820","name":"Bob Evans"},"B9W60PTxn7XOZfk4BiTvyw":{"rating":4.5,"num_photos":7,"postal_code":"61820","name":"BrewLab Coffee"},"rrijo70DD_kPHMfEyOVskg":{"rating":5.0,"num_photos":0,"postal_code":"61820","name":"Safelite AutoGlass"},"reIuSgn4LJv-9YF1hxx_TA":{"rating":2.5,"num_photos":0,"postal_code":"61822","name":"Forget Me Not Florals"},"LPlK8Pv8tLjRCRBSoQLYDg":{"rating":4.5,"num_photos":0,"postal_code":"61874","name":"Mary Kay's Holistic Beauty"},"8S6emcqsBEZsQH--j30NEg":{"rating":5.0,"num_photos":0,"postal_code":"61822","name":"Waldhoff Gard & Associates - Keller Williams Realty"},"ZLofIeFAe21ViQUNORvCsQ":{"rating":4.0,"num_photos":0,"postal_code":"61822","name":"Residence Inn by Marriott Champaign"},"c2dMnAVfGLm7TYkHYvcqNg":{"rating":3.0,"num_photos":0,"postal_code":"61820","name":"Campus Florist"},"5TQ_BePxXGNOlgAZN6wDSA":{"rating":4.5,"num_photos":0,"postal_code":"61820","name":"The Dragons Table"},"P5xmAll95cWKs0EzwYdEYA":{"rating":5.0,"num_photos":0,"postal_code":"61820","name":"Dixon Graphics"},"6Ujvqa50oe8fgT5iDEx42Q":{"rating":3.5,"num_photos":0,"postal_code":"61822","name":"Menards"},"BvARTl3t-aztQ9HPKc9xGQ":{"rating":2.0,"num_photos":0,"postal_code":"61820","name":"Domino's Pizza"},"UPCTlq-r-yZcWFFH2qOlWg":{"rating":4.0,"num_photos":0,"postal_code":"61820","name":"Ginger Asian Bistro"},"OB9fA3C-7ppMH5mZFw71AQ":{"rating":4.0,"num_photos":0,"postal_code":"61820","name":"Champaign Surplus"},"KpVNHvN_3mVM4ubilE1_1Q":{"rating":4.5,"num_photos":2,"postal_code":"61853","name":"Kaffee Mahomet"},"66MQdj26Vg6Gnc6KWSmhpA":{"rating":3.5,"num_photos":0,"postal_code":"61826","name":"Savvy Expressions Wedding & Event Coordination"},"n5BamLQ8MgLL2gdcPt3SXA":{"rating":5.0,"num_photos":0,"postal_code":"61822","name":"Pear Tree Estate"},"-A4suUjxa7gNaiUMDjO42g":{"rating":3.5,"num_photos":1,"postal_code":"61820","name":"Farmhouse Restaurant At Harvest Market"},"nJktGdlCdrH66UtlADlWJg":{"rating":4.0,"num_photos":2,"postal_code":"61802","name":"Amano's Pizza"},"VU5Xd5RzFvSMKFkiwIgPUw":{"rating":4.0,"num_photos":0,"postal_code":"61821","name":"Good Servants Home Cleaning"},"CNXUru6x_qrG8R-IeOuwgQ":{"rating":2.0,"num_photos":0,"postal_code":"61802","name":"McDonald's"},"6ebjmhhmRTQTGkBjKa4blw":{"rating":3.5,"num_photos":0,"postal_code":"61821","name":"The Pet Pro"},"hvPPw19VdGRsOEkxgyD7tg":{"rating":4.0,"num_photos":3,"postal_code":"61821","name":"Thara Thai"},"x0PF0MvzyRrKbF00xqlIMw":{"rating":3.5,"num_photos":0,"postal_code":"61802","name":"Ray's Heating & Cooling"},"AhnSHqEUXAUkVb2JeDvb7g":{"rating":5.0,"num_photos":0,"postal_code":"61820","name":"Bugbee's DJ Plus"},"ZbACn40wKyLPqGYepwcPVQ":{"rating":2.5,"num_photos":0,"postal_code":"61820","name":"PNC Bank"},"AZw_8ngMd8vnAbzKX7zPlw":{"rating":3.0,"num_photos":6,"postal_code":"61874","name":"Pizza Hut"},"yRKrMWQxQaMeR18s5ajcYw":{"rating":2.5,"num_photos":0,"postal_code":"61821","name":"Arby's"},"hP2DOm7E2H4P7MOS7XN_SQ":{"rating":3.0,"num_photos":23,"postal_code":"61820","name":"Hamilton Walker's"},"IUYpB051tcxMwZzcmZsnkQ":{"rating":1.0,"num_photos":0,"postal_code":"61801","name":"Pavlov Media"},"wFjRC-t_uXjXb4V156n40w":{"rating":5.0,"num_photos":0,"postal_code":"61822","name":"Pride Lawn Care & Outdoor Services"},"vourq2EyEz5ZxxKhdJgLCQ":{"rating":5.0,"num_photos":0,"postal_code":"61820","name":"Roger's Barber Shop"},"ePjwt-5ot1BG-KozlXAt5w":{"rating":1.0,"num_photos":0,"postal_code":"61820","name":"Lucky Puppy"},"exx_UjNFHW2uPI1ZT7JFNA":{"rating":3.0,"num_photos":1,"postal_code":"61822","name":"AnSun"},"o-xFcSeSycAfqplklC222Q":{"rating":3.5,"num_photos":0,"postal_code":"61820","name":"One World Pizza"},"OKr-300J8R-htRPS0adPDw":{"rating":3.0,"num_photos":0,"postal_code":"61820","name":"Salvation Army"},"r0LC6H87QKBj2TZgyeFrkw":{"rating":4.0,"num_photos":0,"postal_code":"61820","name":"Car-X Tire & Auto"},"2_70xR8dAmNKj9zP1cAhWQ":{"rating":4.0,"num_photos":0,"postal_code":"61802","name":"Boomerang's Bar & Grill"},"J7vl6cA5uF0PkqS2ejDTkQ":{"rating":3.0,"num_photos":0,"postal_code":"61801","name":"Dunkin Donuts  Baskin Robbins"},"ngtE0_BO24L_AKDxDIvDYg":{"rating":2.5,"num_photos":0,"postal_code":"61821","name":"Gerber Collision & Glass"},"LyGab6ITDEMDI5E0YcC0Ng":{"rating":4.5,"num_photos":2,"postal_code":"61820","name":"The Himalayan Chimney"},"Pgbnj8TaADhaatrRTE0IVQ":{"rating":2.0,"num_photos":0,"postal_code":"61802","name":"County Market Discount Foods"},"B2N_XO6fX0ILL9c50QuzHg":{"rating":3.0,"num_photos":0,"postal_code":"61822","name":"Taco John's"},"3B74iILT_W1ptfQeW7pIYQ":{"rating":2.5,"num_photos":10,"postal_code":"61822","name":"Buffalo Wild Wings"},"LDhN6xxOvvC0aQEo6jyO3g":{"rating":4.5,"num_photos":0,"postal_code":"61856","name":"Filippo's Pizza & Italian Food"},"-ViwF2TdQ7B2N8jy_ykC5Q":{"rating":3.5,"num_photos":0,"postal_code":"61802","name":"Silver Bullet Bar"},"K0XC6XMa7wKqQ2dzwkeQZw":{"rating":4.0,"num_photos":0,"postal_code":"61820","name":"Virginia Theatre"},"trQP7DtlSRp6uwXuwLzbqw":{"rating":3.0,"num_photos":0,"postal_code":"61953","name":"Under Armour"},"C0QcNkV_svV2aUH-fI2MLw":{"rating":3.5,"num_photos":0,"postal_code":"61820","name":"Keri Powell Therapy"},"fx5RY3DmDcRHw1aFWKs4Dw":{"rating":4.5,"num_photos":0,"postal_code":"61821","name":"Bridal & Formal Wear Alterations by Azar"},"5bBzfDFZ2gU3tqS0oC-2kg":{"rating":3.5,"num_photos":0,"postal_code":"61822","name":"Flooring Surfaces"},"GSe0S6LTB01O5z-6V6T87g":{"rating":4.0,"num_photos":0,"postal_code":"61801","name":"H2O Salon"},"1aAcAVEYFJZO5cr2PbDB9w":{"rating":5.0,"num_photos":0,"postal_code":"61821","name":"Illini Mattress Company"},"cP8ErpZfRzdVR5Fvks-pnQ":{"rating":4.5,"num_photos":0,"postal_code":"61821","name":"The Pottery Place"},"m3qsb7Xf9Pivg9GAvx-gog":{"rating":3.0,"num_photos":1,"postal_code":"61820","name":"Kamakura Japanese Restaurant"},"svrBwmUp6w-mbWPKeiXX0A":{"rating":1.5,"num_photos":0,"postal_code":"61822","name":"Lex-Lincolnland Express"},"RhktUZzsRLDdf17gY9W1Cg":{"rating":3.5,"num_photos":0,"postal_code":"61821","name":"World Nail Spa"},"3dzPclva9uHp-22TbheqlA":{"rating":4.5,"num_photos":0,"postal_code":"61820","name":"Dulak Pilates Center"},"ZIfL-jyfc2y-puyq3Rrndg":{"rating":1.0,"num_photos":0,"postal_code":"61820","name":"309 Green"},"3P1dBNauEwkToURbq_I0Dw":{"rating":3.5,"num_photos":2,"postal_code":"61874","name":"Old Orchard Lanes & Links"},"7ATGF_w2-cmacDY0NC8vKw":{"rating":3.5,"num_photos":0,"postal_code":"61822","name":"Jordan Christopher, DDS MSD, PC"},"f7weeBcs4D93MwBZJ2RhXA":{"rating":4.0,"num_photos":0,"postal_code":"61820","name":"Wild Side Smoke Shop"},"ie3nXtDTyHhJchMuYh_WXQ":{"rating":2.5,"num_photos":0,"postal_code":"61820","name":"Other Realm"},"gnqHyA6gY2-m9S-FKt6Xqw":{"rating":4.0,"num_photos":9,"postal_code":"61820","name":"Cravings"},"vt2NMSbKpVN0r0HI6Az4bw":{"rating":4.5,"num_photos":2,"postal_code":"61801","name":"Bevier Cafe"},"XwhDBNra9t3lgk1JdYlUOQ":{"rating":3.5,"num_photos":0,"postal_code":"61866","name":"Hardy's Reindeer Ranch"},"IGb6MjNdPRsNVNEplGG3RA":{"rating":4.5,"num_photos":0,"postal_code":"61820","name":"The Blind Pig Brewery"},"EVkytEhlC1nswqmgrHdviw":{"rating":2.5,"num_photos":2,"postal_code":"61820","name":"Bo Bo China"},"MA5R-mV6ljRM1MK6Mdiv5g":{"rating":3.5,"num_photos":4,"postal_code":"61820","name":"Panda Express"},"gOMc2QcDaMIOkIVTShqoYA":{"rating":3.5,"num_photos":0,"postal_code":"61822","name":"Firehouse Subs"},"38AI6oP2ObTmtiUuoN0Uvw":{"rating":3.0,"num_photos":0,"postal_code":"61822","name":"Road Ranger"},"W62GDd3OCQKXoifPHjaTag":{"rating":5.0,"num_photos":0,"postal_code":"61874","name":"Essential Healing Therapeutic Massage & Bodywork"},"BiBAQWfc67AFrXC92SrifA":{"rating":3.0,"num_photos":0,"postal_code":"61801","name":"Illini Union Ballroom Dining"},"bVOjqBBkzVdCaNNug56U8w":{"rating":5.0,"num_photos":0,"postal_code":"61820","name":"Computer Deli"},"CmCqXvO1weWgwaZMjMa55w":{"rating":4.0,"num_photos":0,"postal_code":"61821","name":"Pandamonium Doughnuts Food Truck"},"op4wtRppSH70haNwlTIfhg":{"rating":4.0,"num_photos":0,"postal_code":"61874","name":"Skateland"},"YVXI1IDeu3QQK5qI3Zaw-Q":{"rating":4.5,"num_photos":0,"postal_code":"61820","name":"Byers Vacuum Cleaner Sales & Service"},"X_oVdjabSjFpANpEPf7yLg":{"rating":5.0,"num_photos":0,"postal_code":"61874","name":"Briella's Boutique"},"2yK6dW1qOXCoGoKAUPfWeA":{"rating":5.0,"num_photos":0,"postal_code":"61801","name":"Flats Fixed"},"bYscwOmCux0HRXF9nJ4qBQ":{"rating":4.5,"num_photos":5,"postal_code":"61873","name":"The Wheelhouse"},"OW_PProvzKUwQBBODXNUMw":{"rating":2.0,"num_photos":0,"postal_code":"61821","name":"Sweet Dreams Mattress"},"S3tKO3X1LP8vjuHSSR5KEg":{"rating":3.5,"num_photos":0,"postal_code":"61822","name":"Fairfield Inn & Suites by Marriott Champaign"},"mvhokWwVKgfE-koLlc4VEw":{"rating":2.5,"num_photos":0,"postal_code":"61820","name":"Auntie Lee's Chinese Kitchen"},"z-kUTHzcJSRiTvhtCT4NIA":{"rating":3.0,"num_photos":0,"postal_code":"61820","name":"Market Place Shopping Center"},"t_yiQnxUDdPPCN2z4QyezA":{"rating":4.5,"num_photos":10,"postal_code":"61820","name":"Golden Harbor Authentic Chinese Cuisine"},"1CNMlCeP1qJORebc9HRFiA":{"rating":4.5,"num_photos":0,"postal_code":"61821","name":"Martin One Source"},"psKzY0OqiA3l3xvMyl4OQA":{"rating":4.5,"num_photos":0,"postal_code":"61873","name":"Mercantile Antiques"},"ngqQHvtrT8QxGF3e6yrmeg":{"rating":3.5,"num_photos":1,"postal_code":"61866","name":"Stagecoach At Gordyville"},"x-SnoqTmBip_tRgw4EvCAg":{"rating":4.0,"num_photos":0,"postal_code":"61866","name":"Sammers Grill & Bar"},"fd3FpAydIPAwh70r9Jyxlg":{"rating":3.0,"num_photos":0,"postal_code":"61874","name":"Regal Nails"},"1DedueD53YsKcpqMWPIe9w":{"rating":3.5,"num_photos":0,"postal_code":"61822","name":"Cabo's Cantina and Grill"},"xQuz-tpHwPMa-fxoqj-TuQ":{"rating":2.5,"num_photos":0,"postal_code":"61820","name":"Pitaya"},"RT7C2OY2W675e6qUUrBdsA":{"rating":2.5,"num_photos":0,"postal_code":"61801","name":"Louie's Dixie Kitchen"},"5dCJy5oH6ZHqB_7cx76DhA":{"rating":1.5,"num_photos":6,"postal_code":"61821","name":"Pizza Hut"},"wgBO_XpaLJ_MapolWUH9hQ":{"rating":5.0,"num_photos":0,"postal_code":"61820","name":"Jaivika Salon"},"u02xse4VO7lkyF4r7ARNdw":{"rating":1.5,"num_photos":0,"postal_code":"61820","name":"Suburban Express"},"fQg2n9yAt43dQjyOioOwDQ":{"rating":3.5,"num_photos":0,"postal_code":"61822","name":"Country Fair"},"B51Syvxp0Jlm2RBY4vwocA":{"rating":3.0,"num_photos":0,"postal_code":"61822","name":"Moore Trees"},"jeTfL2kCyBtmFGSrSQHqVw":{"rating":4.0,"num_photos":8,"postal_code":"61820","name":"Bacaro"},"KP24NhR-xnPbA6sEfQudLg":{"rating":4.5,"num_photos":0,"postal_code":"61853","name":"Mahomet Animal Hospital"},"8ziRUCsWuXA6iyGXWqTG7g":{"rating":5.0,"num_photos":0,"postal_code":"61821","name":"CU Woodshop Supply"},"12hFjTa7HibN2UDDkxBnRA":{"rating":2.0,"num_photos":0,"postal_code":"61953","name":"Burger King"},"91I2MBcqTAH_qUtqjfH2QQ":{"rating":3.5,"num_photos":0,"postal_code":"61820","name":"The Civilized Gypsy's Tattoo Parlor"},"TqDhk2CKEKU7r-dD2gp_eA":{"rating":2.0,"num_photos":0,"postal_code":"61820","name":"Next Chapter Properties"},"PUe3Oz-VAPMXbu_zQ51dYQ":{"rating":3.5,"num_photos":0,"postal_code":"61821","name":"Guadalajara Bar & Grill"},"xHjcLBgB3i9u_dHQZ8rirg":{"rating":3.0,"num_photos":0,"postal_code":"61822","name":"Wedge Tequila Bar & Grill"},"eeZmALTX-rhRw_8CEgAm0A":{"rating":4.0,"num_photos":0,"postal_code":"61820","name":"Elegant Nails Lounge"},"7uOcFRxeodF1YA-Er9zW5A":{"rating":4.0,"num_photos":0,"postal_code":"61820","name":"Les Cheveux Gallery"},"xistlMeIIjG21z2SaWvfVQ":{"rating":3.5,"num_photos":4,"postal_code":"61820","name":"Kung Fu BBQ"},"fsklFcY47qJIr0mjgobuUg":{"rating":2.5,"num_photos":0,"postal_code":"61820","name":"Ford City"},"fY-EIvJnYEBVRSpFj4Y5TQ":{"rating":2.5,"num_photos":0,"postal_code":"61866","name":"Rantoul Express Lube"},"ARNkbDHSUUCXh_sOeoJe1Q":{"rating":5.0,"num_photos":0,"postal_code":"61874","name":"A to Z Painting"},"rX4xlaO_hhYz3grEj0aUlQ":{"rating":5.0,"num_photos":0,"postal_code":"61820","name":"Alexander Chiropractic"},"hjo4IYguwprIJ16A8lV75A":{"rating":4.0,"num_photos":0,"postal_code":"61853","name":"Domino's Pizza"},"zaoGcD35rSuuAwc7DLiSMw":{"rating":3.0,"num_photos":0,"postal_code":"61873","name":"Subway"},"LwFlN4-f4cPHx6-gk8HlUw":{"rating":3.5,"num_photos":0,"postal_code":"61821","name":"Domino's Pizza"},"e0tj2Jip560QbC8N9pF6xw":{"rating":4.5,"num_photos":0,"postal_code":"61820","name":"FYXIT"},"wpDJUu8Ty_eyQJENUy7fIw":{"rating":3.5,"num_photos":0,"postal_code":"61874","name":"Smoky's House BBQ"},"aELkI0mfF1EbQo_m44vEKg":{"rating":3.0,"num_photos":9,"postal_code":"61822","name":"O'Charley's Restaurant & Bar"},"Y1FmaM4sR6mII_06op7jnw":{"rating":2.5,"num_photos":0,"postal_code":"61801","name":"Sleep Inn Champaign Urbana - University Area"},"azp7DHDIBynX2Zk-1rIujw":{"rating":1.5,"num_photos":0,"postal_code":"61801","name":"Wyndham Garden Urbana Champaign"},"AzZtRUAo43Ow9ITDfPEShg":{"rating":3.5,"num_photos":0,"postal_code":"61820","name":"La Quinta Inn Champaign"},"uUXQxz_JTsl1z9Vr3Ot_Lw":{"rating":4.5,"num_photos":0,"postal_code":"61820","name":"Drummond Carpet & Upholstery Care"},"cMa7IWJmLpLaadC12EUq6A":{"rating":5.0,"num_photos":0,"postal_code":"61820","name":"Skins & Tins Drum Shop"},"-865Ps6xb3h1LP67JcQ3mA":{"rating":3.0,"num_photos":2,"postal_code":"61801","name":"Rainbow Garden"},"SVXpyYPAuvJVKcfZ0nMKyg":{"rating":3.5,"num_photos":0,"postal_code":"61801","name":"The Canopy Club"},"QayRAyqw0tvQR27rqLxPFQ":{"rating":5.0,"num_photos":1,"postal_code":"61821","name":"Leadbelly's"},"kkcHH4eIP0yhvHeb6M5i1A":{"rating":3.0,"num_photos":0,"postal_code":"61874","name":"Star Nails"},"poDxgsg-i02WzqBujqEm-A":{"rating":5.0,"num_photos":0,"postal_code":"61822","name":"Mettler Therapy"},"5qg-Is7JRYtTF8X1AF90hw":{"rating":5.0,"num_photos":0,"postal_code":"61820","name":"Central Illinois Autobody Inc"},"uPknXsvEOcrN5xk5fsVLPQ":{"rating":4.0,"num_photos":0,"postal_code":"61801","name":"Promenade Gift Shop At Krannert Center"},"nh1-ax9wPNCqskcJYIWogg":{"rating":3.0,"num_photos":0,"postal_code":"61820","name":"Buttitta's"},"1oAfS5mNrgwzfeYSN9wiJw":{"rating":4.5,"num_photos":0,"postal_code":"61820","name":"Needleworks"},"uMHk2kudlAN94fFVNdYhxw":{"rating":2.5,"num_photos":0,"postal_code":"61820","name":"Long John Silver's"},"8d30a9Af9XJ8c8TafRDcfA":{"rating":4.0,"num_photos":0,"postal_code":"61820","name":"Circles Boutique"},"AW_d5hMf7sI6yHrz4Ujv8w":{"rating":4.0,"num_photos":0,"postal_code":"61856","name":"Casa Real"},"ibNJlVohvO-wquv50Umf3w":{"rating":4.5,"num_photos":0,"postal_code":"61802","name":"A & E Animal Hospital"},"0LCgN42C9H6iqClFevdiBA":{"rating":3.5,"num_photos":0,"postal_code":"61820","name":"Papa George"},"rl39sZ-Jx7QAG-FHsdAD5g":{"rating":4.5,"num_photos":0,"postal_code":"61854","name":"Mansfield General Store"},"6UiBaTM6_ENF_L53C0CHTw":{"rating":4.0,"num_photos":0,"postal_code":"61820","name":"Brass Rail"},"zkyv7PMMqFN_B7-Zp1l1aA":{"rating":5.0,"num_photos":0,"postal_code":"61802","name":"Breathe In Spa"},"mqW1uq15v8iABsh9BzDZjA":{"rating":5.0,"num_photos":0,"postal_code":"61801","name":"Baker's Bikes"},"ALUCsSzpxI48xgQ-f1pJeQ":{"rating":4.0,"num_photos":0,"postal_code":"61821","name":"Tacos Locos Food Truck"},"08xwfgONKGqke1wwuby3wg":{"rating":4.0,"num_photos":0,"postal_code":"61822","name":"Ruler Foods"},"ViJjcvNH_Up1mXZ5NieApg":{"rating":3.5,"num_photos":0,"postal_code":"61820","name":"County Market"},"AESi_BEyDfCzqoNhZe2Zsw":{"rating":5.0,"num_photos":0,"postal_code":"61849","name":"Homer Soda Company"},"Y0_KRVDTasHCTh_P-WRSqg":{"rating":2.5,"num_photos":0,"postal_code":"61821","name":"Burger King"},"6WMSw48PHoHboOG33R8OJw":{"rating":1.5,"num_photos":0,"postal_code":"61820","name":"Professional Property Management"},"aaJ-RaUdHyB4R3U4qNbRBA":{"rating":4.5,"num_photos":0,"postal_code":"61820","name":"Lovely Nails"},"xeN57OX3lJfY96nfEx63fg":{"rating":3.0,"num_photos":1,"postal_code":"61821","name":"Garcia's Pizza In A Pan"},"5JBFKm50_7d5BNlsjBmdMA":{"rating":3.0,"num_photos":0,"postal_code":"61820","name":"Enterprise Rent-A-Car"},"IJ_1Hcuh89ETzDFK6pXOpg":{"rating":2.5,"num_photos":0,"postal_code":"61821","name":"Starcrest Cleaners"},"xuBaqHxquWr-I_2drJXH5A":{"rating":2.5,"num_photos":0,"postal_code":"61821","name":"United States Government"},"eCmLyXPKBxK7p_MKmBwT9Q":{"rating":1.5,"num_photos":0,"postal_code":"61866","name":"McDonald's"},"npeqDhA_o-dvwoWE7pF5Xg":{"rating":4.0,"num_photos":0,"postal_code":"61802","name":"Pro Nails"},"ENAEFivSyxH-Vo22pwLdxw":{"rating":3.5,"num_photos":0,"postal_code":"61874","name":"Subaru of Champaign County"},"-XH3-e3jDVdjHJq7GfNY7w":{"rating":3.5,"num_photos":5,"postal_code":"61820","name":"Asian Taste Restaurant"},"b-FBGE42RQQ56Wr2_O9Y5w":{"rating":5.0,"num_photos":0,"postal_code":"61802","name":"Millbern Automotive"},"xJ8UiVH7yDXpCkxNyVw7EA":{"rating":3.0,"num_photos":0,"postal_code":"61801","name":"Mas Amigos"},"smEBGmtg-U8Rxa2P2jKClQ":{"rating":4.0,"num_photos":0,"postal_code":"61820","name":"Barnes & Noble Booksellers"},"bp0QU1Z0NXhBzuOhjBt--w":{"rating":5.0,"num_photos":0,"postal_code":"61820","name":"First Column Student Living"},"LW21U6m6axC2lCLYc0fFSA":{"rating":3.5,"num_photos":0,"postal_code":"61820","name":"Cream & Flutter"},"vPXSAmIIE8D15v-qkHGyaA":{"rating":3.5,"num_photos":0,"postal_code":"61873","name":"Winter Wheat Antiques"},"uJIIgBmcIn-Ye-anrqK0DQ":{"rating":2.5,"num_photos":0,"postal_code":"61820","name":"Dunkin' Donuts"},"wr9kqfMT8BN_s8Rg-iZ_Ag":{"rating":5.0,"num_photos":0,"postal_code":"61825","name":"The Electrum Group"},"fB_6MXGWPrhAOuozcDoPtg":{"rating":5.0,"num_photos":0,"postal_code":"61821","name":"Cloud 9 Auto Detail"},"asOJ0MeixiGgeK1Nv1RaiA":{"rating":3.5,"num_photos":0,"postal_code":"61820","name":"Worden-Martin Buick GMC"},"OYpRlyukZZh9zH2mxxv4rg":{"rating":3.5,"num_photos":0,"postal_code":"61821","name":"Big Lots - Champaign"},"jWwJF9iEs6evF2lhlih16w":{"rating":4.5,"num_photos":0,"postal_code":"61866","name":"BackBeats"},"ioQVijK0sYCVQHGDdfOZ5A":{"rating":3.0,"num_photos":0,"postal_code":"61820","name":"Illini Pest Control"},"LElQBiDw8HyU_LrbjP8C1A":{"rating":4.5,"num_photos":0,"postal_code":"61801","name":"World Harvest Foods"},"xwdvkz6Mlu_KlXzBEblsew":{"rating":4.0,"num_photos":0,"postal_code":"61820","name":"Illini Eye Care"},"5JWbhXdLq-p3ml8Yf2dSlA":{"rating":3.0,"num_photos":0,"postal_code":"61822","name":"Ramsay M Dean, DDS"},"MPAPVFk66pplvv7rkcVfiQ":{"rating":3.0,"num_photos":1,"postal_code":"61820","name":"Sushi Avenue"},"cDpUshHyJHDEc19TSTulJw":{"rating":5.0,"num_photos":0,"postal_code":"61801","name":"Urbana Acupuncture"},"zCkOZDrNiMxriGc_Xuc6Dw":{"rating":1.0,"num_photos":0,"postal_code":"61801","name":"Calico Jewelry"},"SgG5E7PUrCIsEMP0BVSlTg":{"rating":4.0,"num_photos":1,"postal_code":"61821","name":"Cheese and Crackers"},"9V4AGrJphOIw2RC1UoPPRw":{"rating":5.0,"num_photos":8,"postal_code":"61820","name":"Caribbean Grill Restaurant"},"6h4QQxgZ84PBN3nIea-DLA":{"rating":4.0,"num_photos":0,"postal_code":"61820","name":"Don's 24 Hour Towing"},"D1NESoG1U9hVG52h7JDu0A":{"rating":4.0,"num_photos":0,"postal_code":"61820","name":"Gameday Spirit"},"2wNI-81CncuC21xr92anTA":{"rating":3.5,"num_photos":0,"postal_code":"61801","name":"Urbana Garden Family Restaurant"},"tfmTXVlF1JUJ-AauRwBiKw":{"rating":2.5,"num_photos":0,"postal_code":"61820","name":"Teavana Tea Store"},"vsoEZauF4lrADIqCYXySFQ":{"rating":3.0,"num_photos":0,"postal_code":"61820","name":"Chopstix"},"9nD3Z5NgCa1EBUH4hJ0KaA":{"rating":2.5,"num_photos":0,"postal_code":"61853","name":"Creature Comforts Animal Hospital"},"JnmhL6CbZIWv73LJmNRpMw":{"rating":3.5,"num_photos":0,"postal_code":"61820","name":"Paper Destiny"},"E9HN0nA8eRsIBZYkL0H3xA":{"rating":3.0,"num_photos":0,"postal_code":"61822","name":"Courtyard Champaign"},"5TPyzmhr3TKyWkPfzm01wA":{"rating":3.0,"num_photos":1,"postal_code":"61821","name":"Fazoli's"},"SqxYhx0znOqCfaVIc7c-FA":{"rating":3.0,"num_photos":0,"postal_code":"61856","name":"Carmona's Cafe"},"0FrYsoVHheQGoXEQsH2d2Q":{"rating":4.0,"num_photos":5,"postal_code":"61820","name":"Aroma Cafe"},"Juvp9Dkg4k4hpxUsSd1sUA":{"rating":3.5,"num_photos":0,"postal_code":"61820","name":"Illini Union Bookstore"},"qWFucAXUHEZc7RzcLtcnag":{"rating":2.0,"num_photos":0,"postal_code":"61821","name":"Familia Dental"},"V-_Kh0RtKcKdQ0ON4eVQ-Q":{"rating":3.5,"num_photos":13,"postal_code":"61820","name":"Buca di Beppo Italian Restaurant"},"c_pScQ7eKYTesWkcqDMn-g":{"rating":2.5,"num_photos":0,"postal_code":"61820","name":"Women's Health Practice"},"XbfksGFlx2-i5zkl9jDi5A":{"rating":3.5,"num_photos":0,"postal_code":"61820","name":"Perfectionist Cleaning Services"},"e0prCZXtHGQIKeQ_wTW3uw":{"rating":4.0,"num_photos":0,"postal_code":"61820","name":"Cafe Kopi"},"THC1S01liu8wIeg2ienLiw":{"rating":3.0,"num_photos":0,"postal_code":"61820","name":"Howbowda Bagel"},"J03fJlz-pi9x2oqxZ4vRng":{"rating":3.0,"num_photos":0,"postal_code":"61820","name":"Chevys Fresh Mex"},"CcDdWX48wSLD5L9hGi7A8g":{"rating":4.0,"num_photos":0,"postal_code":"61820","name":"Hyatt Place Champaign\/Urbana"},"izd105KSPs3n5ijj1cICEQ":{"rating":1.5,"num_photos":0,"postal_code":"61822","name":"Gander Mountain - Champaign"},"QHbrfA9nSNLFcevsfQk6dQ":{"rating":3.0,"num_photos":0,"postal_code":"61821","name":"Wienerschnitzel"},"KKOmfySnxK96EtlgOU9Hjg":{"rating":2.5,"num_photos":0,"postal_code":"61802","name":"Wendy's"},"t6ufZ29wxZ9_zYO5DRPgwA":{"rating":3.0,"num_photos":0,"postal_code":"61820","name":"Smoothie King"},"ATEOnDYQCYSwCCH6hxenlQ":{"rating":4.0,"num_photos":0,"postal_code":"61821","name":"County Market"},"XX9QrUpkwJasYIsYJTPfwQ":{"rating":1.5,"num_photos":0,"postal_code":"61820","name":"F E Moran Security Solutions"},"6o6XxnI8RWhnAVSdxqCJWQ":{"rating":3.5,"num_photos":1,"postal_code":"61820","name":"Jet's Pizza"},"UF4ArQrlcpV-y0519g6UNA":{"rating":1.0,"num_photos":0,"postal_code":"61821","name":"Halfar Plumbing"},"a1sp-PiwbAthYG1JR8NfLg":{"rating":3.5,"num_photos":0,"postal_code":"61820","name":"Silver Mine Subs"},"UvnrAb2q9YDlFwTbqvzk5w":{"rating":3.0,"num_photos":0,"postal_code":"61820","name":"Enterprise Rent-A-Car"},"JRVfV2ETohgAWKdSMr19MA":{"rating":5.0,"num_photos":0,"postal_code":"61802","name":"The Little Gym"},"rQX6RVr6E4Zg9hx8GBFGHQ":{"rating":3.0,"num_photos":0,"postal_code":"61820","name":"TGI Friday's"},"tDTUSKxPUUkpFaxBZZl4Cw":{"rating":5.0,"num_photos":0,"postal_code":"61821","name":"Aldi"},"MRE5_phUbPZFcNOsBjIUyQ":{"rating":4.0,"num_photos":0,"postal_code":"61822","name":"HoneyBaked Ham & Cafe"},"exB3ClkOkURgNJPazPtEHw":{"rating":4.5,"num_photos":0,"postal_code":"61802","name":"Riggs Beer Company"},"QOg8cBYeaublNpmPWV-k_w":{"rating":3.5,"num_photos":0,"postal_code":"61820","name":"Record Swap"},"HAgPykErkXpPJlwOHbY01Q":{"rating":4.0,"num_photos":2,"postal_code":"61801","name":"J Gumbo's"},"03vc5gCw-u2V2BrYb3r8kw":{"rating":5.0,"num_photos":0,"postal_code":"61822","name":"Angel Nails"},"SVi1WkSOGcu9Yn79APVjSw":{"rating":5.0,"num_photos":0,"postal_code":"61820","name":"Hada Cosmetic Medicine"},"kJS54KSS6jvBk68lTmz9Dg":{"rating":4.5,"num_photos":0,"postal_code":"61801","name":"Truly Fit"},"PjHeR-IVF5v8QLiD876Wjw":{"rating":5.0,"num_photos":0,"postal_code":"61803","name":"Three King Heating and Air"},"_zCwyuW5XrRKw8oK8EM49A":{"rating":3.5,"num_photos":0,"postal_code":"61820","name":"Burrito King"},"dE_5fWVjBA0W4H7q2iwijQ":{"rating":3.5,"num_photos":1,"postal_code":"61874","name":"Star Karaoke"},"3iewRRYvMWqXEmpQLDmJBg":{"rating":5.0,"num_photos":0,"postal_code":"61822","name":"T L Jones Salon"},"xLeOANU-lqtDOIV6Owm3EQ":{"rating":3.5,"num_photos":0,"postal_code":"61820","name":"Mas Amigos Truck"},"2t8Z3VwvV6YpW2gnP-VHig":{"rating":4.5,"num_photos":0,"postal_code":"61820","name":"Bella Mia Boutique"},"UTrqsP-oQrwoIOmBv_Jtzg":{"rating":3.5,"num_photos":1,"postal_code":"61801","name":"Merry Ann's Diner"},"cn999G2xZNMj8ZYDot0C8w":{"rating":4.5,"num_photos":0,"postal_code":"61801","name":"Armored Gopher Games"},"bYCYezhqkhMOTjXHEzDZAw":{"rating":4.5,"num_photos":0,"postal_code":"61802","name":"Cafe Zojo"},"YBNS9AHuSSMSVPGlsgvqbA":{"rating":4.5,"num_photos":0,"postal_code":"61801","name":"Will Am-Fm Radio"},"-B1en4UZJzJEBiFjp1OJSQ":{"rating":5.0,"num_photos":0,"postal_code":"61822","name":"Wedding Cakes by Rosie"},"mN-TD6HoQMqT1PhXkBLj1g":{"rating":3.5,"num_photos":0,"postal_code":"61853","name":"Lake Of The Woods Golf Course"},"9oyiJJ1OVp-4ylgz7Zq0ZQ":{"rating":2.0,"num_photos":0,"postal_code":"61801","name":"Concord Custom Cleaners"},"nSANvWMsrquhaxOnOwThSg":{"rating":5.0,"num_photos":0,"postal_code":"61822","name":"Kouski Landscaping Co."},"42sGOp3T7mR8joyzLt4g2A":{"rating":3.5,"num_photos":0,"postal_code":"61874","name":"The Senators Inn & Pub"},"W9Gt3UGP4p1iERzohANcJw":{"rating":4.0,"num_photos":0,"postal_code":"61874","name":"CVS Pharmacy"},"DarFGECwWTwQoProBTUuxw":{"rating":5.0,"num_photos":0,"postal_code":"61822","name":"Gire Roofing"},"BU44MZzM82yPiBhMyj9r7w":{"rating":2.5,"num_photos":0,"postal_code":"61820","name":"Sarku Japan"},"rlb0nl3JvGmi7XnSKyVHlQ":{"rating":2.5,"num_photos":0,"postal_code":"61802","name":"Dillman Brothers"},"uMuTnzVi9DzDXfG7gVDU3A":{"rating":4.0,"num_photos":0,"postal_code":"61801","name":"Cocina Real Mexican Restaurant"},"begeeyGxPg1Jv8vooAWVTA":{"rating":2.5,"num_photos":0,"postal_code":"61801","name":"Piato Catering"},"o5Mofj5KJkYAMs_fhxftpg":{"rating":3.5,"num_photos":0,"postal_code":"61820","name":"Seoul Taco"},"Gn68S8dMawWtjaiNNAHQbQ":{"rating":2.5,"num_photos":0,"postal_code":"61874","name":"Spaghetti Shop"},"nj7In2EbDVhCb5C0NPNkuQ":{"rating":5.0,"num_photos":0,"postal_code":"61822","name":"UI Auto Club Car"},"xE4WM5ZvtBkFnojFUTQfqg":{"rating":3.5,"num_photos":7,"postal_code":"61821","name":"Wienerschnitzel"},"NSzhahVpI_B32snhJHM0HA":{"rating":3.5,"num_photos":5,"postal_code":"61821","name":"Texas Roadhouse"},"I2EHSRP50SXxvfoWc8MIWw":{"rating":3.0,"num_photos":0,"postal_code":"61821","name":"Little Caesar's Pizza"},"m8lSbR6oLh5zw_IepTLhKg":{"rating":2.5,"num_photos":0,"postal_code":"61822","name":"Cost Cutters"},"b731rZn5w-LxgkT1PeuNYg":{"rating":2.0,"num_photos":0,"postal_code":"61822","name":"Walmart"},"NEVA0IYbawceL6kz5v5DAw":{"rating":3.5,"num_photos":10,"postal_code":"61820","name":"Kofusion"},"U7T6ioQJ17YPh_LG6xDTWA":{"rating":3.5,"num_photos":1,"postal_code":"61820","name":"Which Wich"},"fMDXumNXjNkZSHNvShh-ew":{"rating":4.0,"num_photos":0,"postal_code":"60007","name":"Baymont Inn and Suites Elk Grove Village"},"brIWUjIWqi9DaJYkf2Fg3w":{"rating":2.0,"num_photos":0,"postal_code":"61801","name":"901 Western"},"fUmYKh3nIuCywJrxvWGSxQ":{"rating":5.0,"num_photos":0,"postal_code":"61822","name":"Klismith Tree Service"},"SJU__uFMeCmpVQuec3k8xw":{"rating":4.0,"num_photos":0,"postal_code":"61822","name":"AMC Champaign 13"},"CHd3f2PONQqKhLcVw2hQTg":{"rating":3.0,"num_photos":0,"postal_code":"61820","name":"JCPenney"},"PfuI6ZxYHnSiWc4TwJpqyA":{"rating":4.5,"num_photos":0,"postal_code":"61820","name":"Mr Auto Body Inc"},"-7PuYohz9dR80iGfVR_kLA":{"rating":4.0,"num_photos":0,"postal_code":"61821","name":"Biggby Coffee"},"RWXu8u_jFR43hiLpXeQh1A":{"rating":4.0,"num_photos":0,"postal_code":"61856","name":"County Market"},"yC-i4cPTsb9zI-BKaDXnWg":{"rating":2.5,"num_photos":0,"postal_code":"61820","name":"Spritz Jewelry"},"qaS11gk1kIlrzCX1LYiZsw":{"rating":3.5,"num_photos":0,"postal_code":"61822","name":"Super Niro Gyro"},"u0w-M0AH1nA5hzCwBmyqgQ":{"rating":2.5,"num_photos":0,"postal_code":"61802","name":"Great Value Storage"},"ZWzCPXj-xi7Z4Lnq2s7Pow":{"rating":4.0,"num_photos":0,"postal_code":"61822","name":"Fifth Dimension Collision Repair"},"_9lnbDRvashBE9ey5gAJfg":{"rating":2.5,"num_photos":0,"postal_code":"61822","name":"Aspen Dental"},"xFXMYwm_60C4UisipsGpTg":{"rating":3.5,"num_photos":0,"postal_code":"61866","name":"Butcher Boy Burgers"},"MpAhuv_BBhYHDElgx1pD4g":{"rating":2.0,"num_photos":0,"postal_code":"61820","name":"Qdoba Mexican Grill"},"n-7XCcAAXQkSZnq-ch0Hlg":{"rating":2.5,"num_photos":0,"postal_code":"61820","name":"Kevin Glancy, OD"},"i6HkbGtxKPyREtrrcqU4QA":{"rating":4.5,"num_photos":0,"postal_code":"61820","name":"LookAfter Hair Company"},"I0-x7-ewHt-DpASCKn6LJA":{"rating":2.5,"num_photos":0,"postal_code":"61820","name":"Storage Squad-University of Illinois"},"KGpsB2dsdkxl8SGVUlJbZw":{"rating":3.0,"num_photos":5,"postal_code":"61822","name":"Outback Steakhouse"},"JQiUQiojYfRlEPT1JzfnwQ":{"rating":2.0,"num_photos":0,"postal_code":"61802","name":"RentChampaign"},"OYDJfxJHHKAWPlqAg4IuNw":{"rating":3.0,"num_photos":0,"postal_code":"61821","name":"Helmuth Garage Door"},"TOd2b75ZS2Czf9ywzHr_iQ":{"rating":3.0,"num_photos":0,"postal_code":"61821","name":"Allure Salon"},"uGxZdLLgMQDvFSqiXyCg_w":{"rating":3.5,"num_photos":0,"postal_code":"61820","name":"Ambar India"},"kBgpdaS9joBXioj89zo1QA":{"rating":3.5,"num_photos":0,"postal_code":"61802","name":"El Toro"},"rVu3i1E4ekttmE1tzN-1tg":{"rating":1.0,"num_photos":0,"postal_code":"61821","name":"Walgreens"},"EZOoB2D8uQHV_gJoGCMTxQ":{"rating":3.0,"num_photos":0,"postal_code":"61820","name":"Jimmy John's"},"9_rqpGe9y3vaJMCwjPre8Q":{"rating":3.5,"num_photos":0,"postal_code":"61801","name":"Jamba Juice"},"vRAM7lfJDY6pLZlxd4ge1Q":{"rating":2.0,"num_photos":0,"postal_code":"61822","name":"Walmart Supercenter"},"PksBnyW1jxt3ve5Hn9_sAw":{"rating":4.0,"num_photos":0,"postal_code":"61820","name":"Bash Pepper Roofing Company"},"x6wgf9qmusAcd7npyTgDWw":{"rating":3.5,"num_photos":0,"postal_code":"61822","name":"Furniture Row"},"w9h-pTp1K6JMos-xzl3Wyw":{"rating":3.0,"num_photos":0,"postal_code":"61801","name":"Hot Wok Express"},"ky0cUgRt1Bye3cxgxXpgYA":{"rating":2.0,"num_photos":0,"postal_code":"61820","name":"Fire Station Pizza and Pub"},"aANR9KZfeCMVF6kMls58Sw":{"rating":4.0,"num_photos":0,"postal_code":"61820","name":"Champaign Public Library"},"tjflM9icU-y6xqNntOXtOQ":{"rating":3.5,"num_photos":0,"postal_code":"61820","name":"Far East"},"hBiy4-3VVGsdAageUvE-JA":{"rating":4.5,"num_photos":0,"postal_code":"61820","name":"Hobby Lobby"},"tcddX9ioSXHuAGkMzXpqeQ":{"rating":5.0,"num_photos":0,"postal_code":"61853","name":"Lake of the Woods Forest Preserve, Buffalo Trace Prairie"},"9mdaHGTxQkvIuSYAE1PtdQ":{"rating":5.0,"num_photos":0,"postal_code":"61801","name":"Precision Painting"},"aCvSQs0wAIwYzdy21-De3w":{"rating":5.0,"num_photos":0,"postal_code":"61874","name":"BreezzWay"},"POuzQLJuPWx0i-dUNdRsWQ":{"rating":4.5,"num_photos":0,"postal_code":"61801","name":"International Galleries"},"pSNoCTOMGkB6SLb-A77yYQ":{"rating":3.0,"num_photos":0,"postal_code":"61821","name":"Karen's Kloset"},"tQaIWc9qeiB1IU163LKlAw":{"rating":3.0,"num_photos":5,"postal_code":"61820","name":"Panda Express"},"o2zAHduE6ubeqR7kaHzSvQ":{"rating":3.5,"num_photos":0,"postal_code":"61802","name":"Bangkok Thai & PHO 911"},"gGqI0E65Pt6PE3moPlN4Yw":{"rating":4.5,"num_photos":0,"postal_code":"61822","name":"Crave Truck"},"jbtZQE67OXoRAs8RXUYRCQ":{"rating":3.5,"num_photos":0,"postal_code":"61953","name":"Outlets at Tuscola"},"iDDW5kjoLVN9rqrGM0cwjg":{"rating":1.5,"num_photos":0,"postal_code":"61821","name":"Rice Garden"},"OkD42cWX6WjgDeLFdWSgXA":{"rating":4.0,"num_photos":0,"postal_code":"61820","name":"Mike N Molly's"},"2eqoYgA2FK11oavsryNSBA":{"rating":5.0,"num_photos":0,"postal_code":"61874","name":"Executive Taxi"},"rOoX7_slKOOUzrJVjMIvCA":{"rating":1.0,"num_photos":0,"postal_code":"61874","name":"Budget Car & Truck Rental"},"c6kbzifoqwLhQxLZ_dleow":{"rating":4.0,"num_photos":0,"postal_code":"61801","name":"Carle Hospital"},"wk6E7So8iKp6WW-IQuRwAA":{"rating":4.0,"num_photos":0,"postal_code":"61801","name":"No. 7 Salon & Spa"},"uKdn-wNKssUwdz9qlGiwDA":{"rating":4.0,"num_photos":0,"postal_code":"61801","name":"Meineke Car Care Center"},"DGc8FRUQTyeASkbwQkGVjw":{"rating":2.0,"num_photos":0,"postal_code":"61822","name":"Prairieview Landscaping Company"},"VsLcYJHIat78FUyP08GusA":{"rating":1.5,"num_photos":0,"postal_code":"61821","name":"Boston Pizza"},"vqEtZ7CtNB9G8WMzjwJA2g":{"rating":3.5,"num_photos":14,"postal_code":"61820","name":"Wedge Tequila Bar & Grill"},"z1oAb6PNln0MN2FjOykPmg":{"rating":3.0,"num_photos":0,"postal_code":"61822","name":"All Things Kids"},"ezFZVzNCtPdFATNGzCumjw":{"rating":3.0,"num_photos":0,"postal_code":"61821","name":"Super Wok"},"LGQ0Pggxk-dQNAqVA39v8g":{"rating":5.0,"num_photos":0,"postal_code":"61821","name":"Glenn Poor's Audio-Video"},"z50FVnW-Lcevj8z2KZQ_gw":{"rating":4.0,"num_photos":0,"postal_code":"61820","name":"Beri Frozen Yogurt"},"XYXgAYal0NGDNAxrJSgGzg":{"rating":5.0,"num_photos":0,"postal_code":"61856","name":"WackyNackies Gifts & Cafe"},"dNch89PUCbxvhieKmWi8LQ":{"rating":4.0,"num_photos":0,"postal_code":"61820","name":"Cocomero"},"DWcNLMwnhZlbP-I7YsBT8g":{"rating":3.0,"num_photos":0,"postal_code":"61820","name":"TownPlace Suites"},"rfoAlKhD8GW36mhuE5-68w":{"rating":4.0,"num_photos":0,"postal_code":"61820","name":"Angel Hair & Nail"},"Gvox18F9QxsSS9qG2O8E-A":{"rating":4.0,"num_photos":2,"postal_code":"61820","name":"Sam's Cafe"},"nyI3q0CseFbPbTobHuzgkw":{"rating":3.0,"num_photos":0,"postal_code":"61821","name":"Pia's Sports Bar & Grill"},"JZXLgxJLKd9T-R6hrJhRZg":{"rating":4.5,"num_photos":0,"postal_code":"61801","name":"Red Star Liquors"},"O1Sp0pDa8wmMfOC-FUGZFQ":{"rating":2.0,"num_photos":0,"postal_code":"61822","name":"Dairy Queen"},"DUQxjfbYLtg5lhAJ1K94Hw":{"rating":4.5,"num_photos":1,"postal_code":"61801","name":"Flyght Bar and Lounge"},"NR8k-wkG1rObtnPIJTKMvw":{"rating":3.0,"num_photos":0,"postal_code":"61821","name":"Espresso Royale"},"zeKmH-EPyxEugnuJsjpYlg":{"rating":5.0,"num_photos":0,"postal_code":"61820","name":"Lenscrafters"},"SrRTfAQpXkVasDUuw9t0NA":{"rating":3.5,"num_photos":0,"postal_code":"61874","name":"John George Salon"},"bXHbLuxyBZemyB0j7GJbTA":{"rating":4.0,"num_photos":0,"postal_code":"61820","name":"Boneyard Bar & Bbq"},"9kng6u-2Err_0mkhea5T3g":{"rating":4.0,"num_photos":0,"postal_code":"61801","name":"Sandella's Flatbread Cafe"},"2KyPvxkqIdJsLUjAsZBBhw":{"rating":4.5,"num_photos":0,"postal_code":"61820","name":"Homewood Suites By Hilton Champaign-Urbana"},"Wga_5jtmbLSvexXlqQ_QJg":{"rating":3.5,"num_photos":0,"postal_code":"61822","name":"Jesse Heating & Air Conditioning"},"i6vAwmiqC99sZLACLLArIQ":{"rating":5.0,"num_photos":0,"postal_code":"61853","name":"Bankco Door"},"RO8_riptsSLrFRNs08vObA":{"rating":2.5,"num_photos":0,"postal_code":"61859","name":"Rich's Family Restaurant"},"vdBpx5l5djH7yJ0SpOy27w":{"rating":3.0,"num_photos":0,"postal_code":"61822","name":"Champaign Ford City"},"D88CTD2UrsSTsrDDuL04_A":{"rating":4.0,"num_photos":0,"postal_code":"61821","name":"Jerry's Iga"},"T58EFOGQQiIDueXROPf0qg":{"rating":3.0,"num_photos":0,"postal_code":"61802","name":"Illini Oil Change"},"KOxhHh3O16r7LYRIB3BbtQ":{"rating":4.5,"num_photos":0,"postal_code":"61953","name":"Harry and David"},"iK3wcWkyJf7nKc3uiyYEBw":{"rating":5.0,"num_photos":0,"postal_code":"61853","name":"Oak Street Salon"},"HioICjb21MQDLLmMENZRdA":{"rating":1.5,"num_photos":0,"postal_code":"61874","name":"Reliable Mechanical"},"bkh5o6bCzDCovSkRYBsU1w":{"rating":3.0,"num_photos":0,"postal_code":"61822","name":"LongHorn Steakhouse"},"k5ufD47Z0t3rkyIYpXoT5Q":{"rating":1.0,"num_photos":0,"postal_code":"61820","name":"Sprint Store"},"aZgYm1nikqb57eA5UkJ0Yw":{"rating":3.5,"num_photos":0,"postal_code":"61801","name":"A & R Mechanical Contractors Inc"},"pQeaRpvuhoEqudo3uymHIQ":{"rating":4.0,"num_photos":0,"postal_code":"61801","name":"The Empanadas House"},"ZDqtSoXP-s7iOY-FChp68A":{"rating":4.0,"num_photos":0,"postal_code":"61821","name":"The Champaign Fitness Center"},"xYdrEmKo7eiEMyv1Bjm6fg":{"rating":4.0,"num_photos":0,"postal_code":"61874","name":"Michael R Ruffatto, DMD"},"o13eH93qmWVNFZogkjhd9w":{"rating":4.0,"num_photos":4,"postal_code":"61801","name":"Courier Cafe"},"8dm_0dGmLK0sv9AdBASXbA":{"rating":5.0,"num_photos":0,"postal_code":"61822","name":"Lisa's Custom Sound Shop"},"SuQpsHxcxCAB8kxPEIXiBg":{"rating":4.0,"num_photos":0,"postal_code":"61820","name":"Wonderdogs"},"Lm-3-VnMbCYjB8d1hRIM8w":{"rating":2.0,"num_photos":0,"postal_code":"61822","name":"Advantage Hobby"},"dIZcPB3CtNjMn4O_p8QFxw":{"rating":4.0,"num_photos":8,"postal_code":"61821","name":"Original Pancake House"},"-zEpEmDfFQL-ph0N3BDlXA":{"rating":4.5,"num_photos":25,"postal_code":"61820","name":"Sakanaya Restaurant"},"5MIlBlL7mOaNY-bULd9Faw":{"rating":5.0,"num_photos":0,"postal_code":"61820","name":"Larry Kanfer Photography Gallery"},"Qm-aVVqYbI44KYCTcw5Lew":{"rating":4.5,"num_photos":0,"postal_code":"61820","name":"Speed Lube 10 Minute Oil Change Shops"},"zV_aclADLjx2KOql9F_FTw":{"rating":3.0,"num_photos":0,"postal_code":"61820","name":"Crepe Cafe"},"A0HKRA8CzF7r66JCFpCoFw":{"rating":2.5,"num_photos":0,"postal_code":"61820","name":"Jiffy Lube"},"BRcuGsWmju1KAC9zz7nicA":{"rating":1.5,"num_photos":0,"postal_code":"61820","name":"Illini Shuttle"},"8LRa8aPe1xfHNEPUxGXagw":{"rating":4.5,"num_photos":0,"postal_code":"61801","name":"Crystal Lake Park"},"xeG0v0TeunN5m13AeOJDhA":{"rating":2.5,"num_photos":2,"postal_code":"60686","name":"Prairie Tap"},"mXjdBZNTF9pj-A9SKVihEw":{"rating":3.0,"num_photos":0,"postal_code":"61953","name":"Chinatown Chinese Restaurant"},"oD1PPb-TfMIkkg77u1zCAw":{"rating":5.0,"num_photos":1,"postal_code":"61820","name":"Salad Meister"},"FIGep204vEO6Ay7hRVsY_g":{"rating":4.5,"num_photos":0,"postal_code":"61856","name":"Diva Nails"},"GqlpfkQtSuIwzgQEvrkIkA":{"rating":5.0,"num_photos":0,"postal_code":"61820","name":"Kung Fu Tea"},"1jt4SuIHAtXD9aPnPqZ3BQ":{"rating":5.0,"num_photos":0,"postal_code":"61820","name":"The Art Theater"},"QUKYGGowrarEwYdBYMxnxQ":{"rating":5.0,"num_photos":0,"postal_code":"61874","name":"Savoy Super Wash"},"TEXUVhF-G_v2Sxwqti8HQA":{"rating":3.0,"num_photos":7,"postal_code":"61820","name":"Old Chicago"},"g47OIJSJQI2pf_FBdV-uQg":{"rating":5.0,"num_photos":0,"postal_code":"61820","name":"Andy's Enterprise & Auto Beauty"},"WRmwjgUodnD6BIwxDtk3aQ":{"rating":4.0,"num_photos":0,"postal_code":"61821","name":"Tatman's Collision Repair"},"1ANFRM2vbofw6DDRebJMWg":{"rating":4.5,"num_photos":0,"postal_code":"61801","name":"Health In Harmony Wellness Center"},"7Evyj13cv-DqCtpjDTNw7Q":{"rating":2.5,"num_photos":0,"postal_code":"61820","name":"Athletico Physical Therapy"},"4Vig7oCo9P-j2OnPUfaXCA":{"rating":2.0,"num_photos":0,"postal_code":"61801","name":"Papa John's Pizza"},"RQCwzqEgjzApDf9RY8z6hA":{"rating":5.0,"num_photos":0,"postal_code":"61802","name":"A To Z Appliance Repair"},"BhfQ8Rh4L-ca_so-3QjWoA":{"rating":3.0,"num_photos":0,"postal_code":"61820","name":"Animal Emergency Clinic of Champaign County"},"ldKrUirpZZ6JDnNwOwLpvw":{"rating":3.0,"num_photos":4,"postal_code":"61821","name":"Ichiban Buffet"},"haDgDTREZ_mVBAmhRYqxSA":{"rating":3.0,"num_photos":1,"postal_code":"61859","name":"Billy Bob's"},"En2YnhIO-dw8yJE7bJULyg":{"rating":3.0,"num_photos":0,"postal_code":"61822","name":"TLC Pest Control"},"JzK0IfNXvYScqvv09Y95yA":{"rating":5.0,"num_photos":0,"postal_code":"61820","name":"The Brake Shop"},"_ZRBWnsYHLBqs10N2i9Fnw":{"rating":4.0,"num_photos":0,"postal_code":"61821","name":"Sport Clips Haircuts of Champaign - Old Farm Shops"},"8GShNsQcrXm3lRuO5m3yNw":{"rating":2.0,"num_photos":0,"postal_code":"61820","name":"Burnham 310"},"PrERKjuxhiYVJGR6lfWKYg":{"rating":3.5,"num_photos":0,"postal_code":"61874","name":"AT&T"},"-jGoRjpTw3N9IAUhD8k5Tg":{"rating":5.0,"num_photos":0,"postal_code":"61801","name":"Meadowbrook Park"},"CfrSI9vNEXdoCOW2ghZqEA":{"rating":3.5,"num_photos":0,"postal_code":"61820","name":"Illinois Terminal"},"n8SUVgkC_hOaZ7FiJd7sHw":{"rating":4.5,"num_photos":0,"postal_code":"61820","name":"April's Florist"},"QtZry_s3LGRhxpIpqezf0w":{"rating":4.5,"num_photos":0,"postal_code":"61820","name":"Thomas E Standley, DMD"},"WuYh4S2Pjuk37o_ih5Qhhw":{"rating":5.0,"num_photos":0,"postal_code":"61822","name":"Greg's Truck & Auto Repair"},"ladygnq1uvjC60Wuw3ocWQ":{"rating":1.5,"num_photos":0,"postal_code":"61802","name":"Walmart"},"XOAk4yIrqsvzIm-i6t73ng":{"rating":5.0,"num_photos":0,"postal_code":"61822","name":"Mariya Vandivort & The AroundCU - Keller Williams"},"Gr3iQWZcBGg8pjf3xwreew":{"rating":2.5,"num_photos":0,"postal_code":"61822","name":"Wingate By Wyndham Champaign"},"21UO0mP1EgEDZyFUFFI9Mg":{"rating":4.0,"num_photos":0,"postal_code":"61843","name":"The Wild Hare"},"Ck52f0L860GKPcMXkKAtuw":{"rating":4.0,"num_photos":0,"postal_code":"61822","name":"Top Nails"},"p0LusgO7QmgxJF0XenzJfA":{"rating":2.5,"num_photos":0,"postal_code":"61874","name":"Dairy Queen"},"kZB-BzSGXns0yrQt_QkzYA":{"rating":5.0,"num_photos":0,"postal_code":"61821","name":"McVicker Martial Arts"},"inwHlUdUyuDrxCk1qdfyMg":{"rating":2.0,"num_photos":0,"postal_code":"61820","name":"The Tan Company"},"ncu6t4kzEs4qWCafcQzFJw":{"rating":3.5,"num_photos":0,"postal_code":"61801","name":"Rose Bowl Tavern"},"oL2nxXWLzZl4Ou9RXo_cwg":{"rating":4.5,"num_photos":1,"postal_code":"61866","name":"Agave"},"hD2MtmnZ20q_PCpEMcwghA":{"rating":3.5,"num_photos":0,"postal_code":"61821","name":"Kathy Eaton, DDS"},"gw26vlrE_vd15ji8mih3bw":{"rating":4.5,"num_photos":0,"postal_code":"61820","name":"Jane Addams Book Shop"},"e88VWa9xdHmSFdMZne9eLQ":{"rating":3.5,"num_photos":1,"postal_code":"61820","name":"Mandarin Wok"},"wxNa7hyCwzoGis0kqvKTkA":{"rating":1.0,"num_photos":0,"postal_code":"61820","name":"Surburban Express"},"02Gb4GR2Aa9o14pUtr7zdw":{"rating":4.5,"num_photos":0,"postal_code":"61953","name":"Baymont Inn And Suites Tuscola"},"ZePevVVz912OfLNUeB8SGQ":{"rating":3.5,"num_photos":0,"postal_code":"61820","name":"Red Hair"},"-hliqBp7tq7Z5XLaTLAXAg":{"rating":2.5,"num_photos":0,"postal_code":"61821","name":"Taffies Restaurant"},"zPPw_vUatLmvnRpW1OoX6w":{"rating":4.0,"num_photos":0,"postal_code":"61820","name":"Am-Ko Oriental Foods & Gifts"},"eSwFcgCF_ENjqSq7NZGx2w":{"rating":4.0,"num_photos":0,"postal_code":"61820","name":"Cassel Home Comfort Heating & Cooling"},"pooZTAru3lMkCGQLBzNu3w":{"rating":1.5,"num_photos":0,"postal_code":"61801","name":"Charter Fitness"},"lEfDbMH4ON41L2ByGALx9g":{"rating":3.0,"num_photos":0,"postal_code":"61820","name":"The Music Shoppe"},"w5Y_FiGPSlPemJVxAZZToQ":{"rating":3.0,"num_photos":3,"postal_code":"61803","name":"Basil Thai Urbana"},"mPcUIU2stkc8zgCS1tk-Pw":{"rating":3.5,"num_photos":0,"postal_code":"61821","name":"N Tailoring & Alteration"},"7U7uLS9YjjhBM1SoyNH30w":{"rating":2.5,"num_photos":0,"postal_code":"61820","name":"Basmati Indian Cuisine"},"s1Xweo1ouikP7EkuEv8sOw":{"rating":3.0,"num_photos":0,"postal_code":"61802","name":"Merry Maids"},"5lw5rrhFMz-liykUn8dGSw":{"rating":5.0,"num_photos":0,"postal_code":"61820","name":"Fernando's Food"},"jCj7AQpzIE1XCIzk1Fwjnw":{"rating":3.5,"num_photos":0,"postal_code":"61820","name":"G.A.S Barbershop & Hair Salon"},"nFGgnBrQuIDPBI3DsHHHOg":{"rating":5.0,"num_photos":0,"postal_code":"61820","name":"Bacheller David DMD"},"T8aBZQSMspreqNZoV8cCgw":{"rating":2.5,"num_photos":0,"postal_code":"61822","name":"SK Exteriors"},"9MnbQg7kfb_WgxoV0hXKSQ":{"rating":4.5,"num_photos":14,"postal_code":"61801","name":"Black Dog Smoke & Ale House"},"_vSbvu90XV31R2T48WOCRw":{"rating":2.5,"num_photos":0,"postal_code":"61874","name":"Worden-Martin Buick GMC"},"aR0kTa6WEFROLY5dJ4cmrg":{"rating":3.5,"num_photos":0,"postal_code":"61820","name":"Green Onion"},"JmYYGu_FIdYVvNXRsucAvQ":{"rating":3.5,"num_photos":0,"postal_code":"61821","name":"Modern Nails Salon"},"SmHuGnqBCjGg5e8QAkBTtA":{"rating":3.0,"num_photos":0,"postal_code":"61801","name":"V. Picasso"},"R32Yh0XxxanldkIp11fuRg":{"rating":3.0,"num_photos":2,"postal_code":"61820","name":"BoBo's BBQ"},"wRJQdkMCbvIj269WjXtuyQ":{"rating":3.0,"num_photos":0,"postal_code":"61820","name":"White Horse Inn"},"UG5nMw3CdLHn-seNUP-cVg":{"rating":5.0,"num_photos":0,"postal_code":"61821","name":"Mr Fix It Auto Clinics"},"i1YpfdZTpLj8TrKm9HlCig":{"rating":4.0,"num_photos":0,"postal_code":"61821","name":"Carmella's Creme"},"s173l3ubdDLHeFIBO3ydrw":{"rating":3.0,"num_photos":1,"postal_code":"61821","name":"La Bamba"},"7nZ88t3E3hSgYoAvD1Hakw":{"rating":5.0,"num_photos":0,"postal_code":"61853","name":"Cakes By Lori"},"tNot7SJRwpWNGCUaixcBaw":{"rating":4.0,"num_photos":0,"postal_code":"61820","name":"Dandelion Vintage & Used Clothing"},"hIan5bc87kCldqESoXZlkQ":{"rating":4.0,"num_photos":0,"postal_code":"61866","name":"Shields Auto Center"},"0r9T36NuaruZrCQt5gQ70A":{"rating":3.5,"num_photos":0,"postal_code":"61822","name":"Supercuts"},"MTkjFOGtIX_dsGkTUsEjBQ":{"rating":4.0,"num_photos":0,"postal_code":"61820","name":"Memorial Stadium"},"D5AKoOMZh19ugKa3lrIgJA":{"rating":1.0,"num_photos":0,"postal_code":"61801","name":"Illini Union Tech Zone"},"0aA5l11oXes0aS6mkN5lMQ":{"rating":3.0,"num_photos":0,"postal_code":"61820","name":"Szechuan China"},"2BEJCBkNzOBXaydBJf5k0A":{"rating":3.0,"num_photos":1,"postal_code":"61821","name":"Sonic"},"4LZPqYJWbfwscbl6uJntDA":{"rating":4.0,"num_photos":0,"postal_code":"61820","name":"Annapurna Stores"},"kLojwXxsSWHtL_AxeBie1A":{"rating":3.5,"num_photos":0,"postal_code":"61820","name":"Starbucks"},"y2V42mxWvVoH4NvUT_n8eg":{"rating":2.5,"num_photos":15,"postal_code":"61820","name":"Red Robin Gourmet Burgers"},"w5YH9J_ReVTKXobqs7yYZg":{"rating":1.5,"num_photos":0,"postal_code":"61874","name":"Subway"},"ZjJzuxjpOTAPWTFbaX06ew":{"rating":2.0,"num_photos":0,"postal_code":"61853","name":"Subway"},"XvCaVBLDqiEj8YsjpPUu8w":{"rating":3.5,"num_photos":0,"postal_code":"61801","name":"Carle Foundation Hospital Level 1 Trauma Center"},"Fm8NjfeWu8sxdvziDDRBtA":{"rating":4.0,"num_photos":0,"postal_code":"61820","name":"Devonshire KinderCare"},"k441Clzdv9Ia4QZanEne3g":{"rating":4.5,"num_photos":3,"postal_code":"61820","name":"Wood N' Hog Barbecue"},"fufaCgozp5qERDwRSZArLA":{"rating":3.5,"num_photos":0,"postal_code":"61874","name":"Old Orchard Links"},"CKqHfvcqx73-Uz0xGMHL6Q":{"rating":3.0,"num_photos":1,"postal_code":"61820","name":"Wingin Out"},"NpNSOfnPxJKa8_qh83NArw":{"rating":1.5,"num_photos":0,"postal_code":"61820","name":"Subway"},"YRaz-XCqW0gxrvvu8h87bw":{"rating":4.0,"num_photos":0,"postal_code":"61821","name":"Rural King"},"DIfAmB-j9r4F-jB6xNrWAg":{"rating":4.5,"num_photos":0,"postal_code":"61822","name":"Schoonover Sewer Service"},"7B-suS0RHxqxZBBfVfiPLA":{"rating":3.0,"num_photos":1,"postal_code":"61820","name":"Olive Garden Italian Restaurant"},"W6jzoeuL1BVNHHAJ7Z1z3Q":{"rating":3.0,"num_photos":0,"postal_code":"61820","name":"Evolve Fitness Club"},"beBdNA6cEuDLvrhTi_EjKQ":{"rating":1.5,"num_photos":0,"postal_code":"61821","name":"McDonald's"},"C1uqM8hRdRW0GImkDHNqsg":{"rating":4.5,"num_photos":0,"postal_code":"61802","name":"Blossom Basket Florist"},"yL0PKzDCONu3jHpJG4tQSQ":{"rating":4.0,"num_photos":0,"postal_code":"61820","name":"Ward & Associates Realtors"},"7Vaj54SeGM3RupuvNlccOw":{"rating":3.5,"num_photos":0,"postal_code":"61801","name":"Heel To Toe"},"Z-vKQy-mwqrpvPrsEYgJsg":{"rating":4.5,"num_photos":0,"postal_code":"61953","name":"The Vault Art Gallery"},"wPczEVoBQtfaBe9ARjgsvg":{"rating":4.5,"num_photos":0,"postal_code":"61801","name":"The Bike Project of Urbana-Champaign"},"RTmIbq33chUSa-etGiF8Lg":{"rating":3.5,"num_photos":0,"postal_code":"61820","name":"Bombay Indian Grill"},"QD61fmXTp476qfS0dpt2Lw":{"rating":3.0,"num_photos":0,"postal_code":"61801","name":"Strawberry Fields"},"VHsNB3pdGVcRgs6C3jt6Zg":{"rating":3.5,"num_photos":1,"postal_code":"61820","name":"Dublin O'Neil's"},"SUktrYdNQD8k2vvkM4OpfA":{"rating":4.0,"num_photos":0,"postal_code":"61820","name":"Peking Garden Restaurant"},"AZuF4x7_CPZndrMcUQW7mg":{"rating":4.0,"num_photos":5,"postal_code":"61866","name":"Ott's Drive In"},"CfGeAkLKLoKvzSZJxoaicQ":{"rating":3.5,"num_photos":0,"postal_code":"61801","name":"Tri-Color Locksmiths"},"fqr3dm6pSQ2P9EaO2Zb9Iw":{"rating":4.0,"num_photos":0,"postal_code":"61820","name":"Mitchem Dental"},"G5rcpDkrSSP253UeV2ESWA":{"rating":2.5,"num_photos":0,"postal_code":"61820","name":"Sears Auto Center"},"RePugRsryh7skCUdEAeDfQ":{"rating":5.0,"num_photos":0,"postal_code":"61853","name":"Breaking Taco"},"Fo1VZNRK9Prl8oBlpSYXkA":{"rating":2.5,"num_photos":0,"postal_code":"61802","name":"Harbor Freight Tools"},"xhYpFLDglFANaGKGgRb_gQ":{"rating":4.5,"num_photos":0,"postal_code":"61874","name":"Honda Of Champaign"},"_p-d4eRivLbNV0zuVAnlSQ":{"rating":4.5,"num_photos":0,"postal_code":"61801","name":"West Main Dental"},"E1R-eyNDimJzdtajqh9KsQ":{"rating":4.0,"num_photos":0,"postal_code":"61820","name":"Jack's Grill & Mediterranean Cuisine"},"jn1OYfeYHjX2xjMReD7XXQ":{"rating":2.5,"num_photos":0,"postal_code":"61821","name":"Rainstorm Car Wash"},"O7mJ04jvwofUzMtKW1-R9w":{"rating":2.5,"num_photos":0,"postal_code":"61866","name":"Action Rents"},"RyukxHwGYLzoFC49vFiO6w":{"rating":4.5,"num_photos":0,"postal_code":"61874","name":"National Car Rental"},"dn0ZzSIqGMMHJqUX2By7Zw":{"rating":4.5,"num_photos":0,"postal_code":"61821","name":"Smoothie King"},"8S2u4I68ePdkuyoqPRJX0g":{"rating":4.5,"num_photos":0,"postal_code":"61822","name":"I-Power School of Gymnastics"},"Dkhg2ClBOP0efXaoL8yNNg":{"rating":5.0,"num_photos":0,"postal_code":"61820","name":"Robert's"},"AtLv64FV-Pw6JuT3XUKU1g":{"rating":3.5,"num_photos":0,"postal_code":"61820","name":"Gumby's Pizza"},"3G_bblT7MQIlXx8BBorILQ":{"rating":4.0,"num_photos":0,"postal_code":"61820","name":"Hammerhead Coffee"},"uGwwPkw2AEvKkVHiSufhzQ":{"rating":3.5,"num_photos":1,"postal_code":"61820","name":"Jim Gould"},"Y27oy6OqXA5M6E0N8MaeLw":{"rating":2.5,"num_photos":0,"postal_code":"61820","name":"Bed Bath & Beyond"},"Wn8QXr2VdAR9J4JPsrlfgg":{"rating":3.0,"num_photos":0,"postal_code":"61847","name":"Bibbs"},"FZ6nk9Fg27KMgt7oiB0DGA":{"rating":5.0,"num_photos":0,"postal_code":"61856","name":"Pies by Inge"},"eN5gcA6Iyzji-CmySyWf2w":{"rating":4.5,"num_photos":0,"postal_code":"61802","name":"Mr. Rooter Plumbing of Champaign"},"xrtyYnxgx7bTM3AEiwjWiA":{"rating":4.5,"num_photos":0,"postal_code":"61953","name":"The Pantry"},"6nMYROXu0VX4Ytpdsfi3XA":{"rating":4.5,"num_photos":2,"postal_code":"61822","name":"Pie's the Limit"},"LH1ymLkoGVOzpBSrKQcUJg":{"rating":2.5,"num_photos":0,"postal_code":"61822","name":"Nantucket Cove Apartments"},"tZT_0yAeFxuihVnGXoCbWQ":{"rating":4.0,"num_photos":0,"postal_code":"61820","name":"The Blind Pig Company"},"Ez1U0wMD7Wws2BPAYfW3yQ":{"rating":3.5,"num_photos":0,"postal_code":"61820","name":"Luna"},"-Jhlh8Scjy669NdtCfKSSg":{"rating":4.0,"num_photos":6,"postal_code":"61820","name":"V Picasso"},"0eTpZzdjkPdz8HBxlljdGw":{"rating":3.5,"num_photos":0,"postal_code":"61853","name":"Filippo's Pizza and Italian Food of Mahomet"},"squM96Zm0Ae6K3wvaHLuBw":{"rating":4.5,"num_photos":0,"postal_code":"61802","name":"Attention to Detail"},"1E57waB10Z6usQicefQ59g":{"rating":4.5,"num_photos":0,"postal_code":"61820","name":"Sport Clips Haircuts of Champaign - Neil Plaza"},"BkqM_Ou82P3gn_PTxEN3pw":{"rating":3.0,"num_photos":3,"postal_code":"61820","name":"Ozu Ramen"},"OrX0D6xwxmymxfzWRatT7Q":{"rating":3.5,"num_photos":1,"postal_code":"61822","name":"Culver's"},"LiQkLzRdJit4RkoNWA4HzQ":{"rating":3.5,"num_photos":0,"postal_code":"61953","name":"Jimmy John's"},"bmvbGmK2qzYnJwKkte9FVg":{"rating":2.0,"num_photos":0,"postal_code":"61820","name":"ABC Sanitary"},"yiWYJnHngOJWuP_CFP6Itw":{"rating":4.0,"num_photos":0,"postal_code":"61821","name":"Jimmy John's"},"L2c-qKZWumCmOCR-dqBLrg":{"rating":4.0,"num_photos":6,"postal_code":"61820","name":"Seven Saints"},"pAR9IJFWTxKES1j-jPmghQ":{"rating":4.5,"num_photos":0,"postal_code":"61802","name":"Beaumont Animal Clinic"},"-S1BkxguVmi2G_O6Bcoabg":{"rating":2.5,"num_photos":1,"postal_code":"61820","name":"Steak 'n Shake"},"zPo1VeP0VzXPujJYUU_oFQ":{"rating":4.0,"num_photos":1,"postal_code":"61856","name":"Monarch Brewing"},"mofOjB6flg-eAWOFbOkHfQ":{"rating":2.5,"num_photos":3,"postal_code":"61822","name":"ChinaTown Buffet"},"dvMHcBgCdy72ikzEPTr7ag":{"rating":4.5,"num_photos":0,"postal_code":"61801","name":"Market at the Square"},"4LXNVWV_Yp8HbkikmRQ2gg":{"rating":4.0,"num_photos":0,"postal_code":"61821","name":"Yuko Hair Salon"},"cMKaFzoWF4CI0KFAs3cI7w":{"rating":3.0,"num_photos":0,"postal_code":"61821","name":"Twin City Movers"},"XQ7F-cP4UtbnZOw8a3f6IA":{"rating":4.5,"num_photos":0,"postal_code":"61822","name":"Pristine Inspections & Testing"},"8iC2IL7PoLT3VQqNIpIyLA":{"rating":3.5,"num_photos":0,"postal_code":"61802","name":"Bender's Mattress Factory & Sleep Shoppe"},"PGUuVJEzM0H-ZMB6m1D6Ig":{"rating":4.0,"num_photos":1,"postal_code":"61820","name":"Boltini Lounge"},"348w-oczUpMY3LN2J6vW5A":{"rating":2.5,"num_photos":0,"postal_code":"61820","name":"Vapors"},"u4D2VypIx3nMsRRbOwx-sA":{"rating":4.0,"num_photos":1,"postal_code":"61820","name":"Bentley's Pub"},"erc6gt6BdeylBn-BUPXJCg":{"rating":1.5,"num_photos":0,"postal_code":"61822","name":"Ashley HomeStore"},"cF0WRk04GfH3iwvwQeXSdA":{"rating":4.5,"num_photos":0,"postal_code":"61874","name":"SportsVet Animal Medical Center"},"HjCdJCPnxNtVY6wKbaB0PA":{"rating":4.0,"num_photos":0,"postal_code":"61802","name":"Champaign County Clerk"},"JENZ-Yjl6D5ZPqV5fPSO3g":{"rating":4.5,"num_photos":0,"postal_code":"61821","name":"Caribbean Grill Food Truck"},"-i3dOjumvOw-52aGXU1xDg":{"rating":3.5,"num_photos":0,"postal_code":"61822","name":"Starbucks"},"qrKfX7QAOJpSmy0w1eaSrA":{"rating":5.0,"num_photos":0,"postal_code":"61853","name":"Downing Christmas Tree Farm"},"4i1AM_8rL1M2nd9xTpE1kg":{"rating":4.0,"num_photos":0,"postal_code":"61801","name":"The Morning Cup & More"},"a92JNh69GKZod2RAadWpvw":{"rating":2.5,"num_photos":0,"postal_code":"61820","name":"Kato's Cajun"},"_TWp4gqGF7tQUGloTClcNg":{"rating":3.5,"num_photos":1,"postal_code":"61820","name":"Brixx Wood Fired Pizza"},"FUTAQs8NEgpiQUXISaXfLg":{"rating":2.5,"num_photos":0,"postal_code":"61874","name":"Burger King"},"JKoMhoA9h2xqFEu9K7IbgA":{"rating":1.0,"num_photos":0,"postal_code":"61802","name":"Hanford Inn and Suites"},"WO2nNar_wIQ3fIAfF3MM1Q":{"rating":4.0,"num_photos":0,"postal_code":"61820","name":"Exile on Main Street"},"zLTacjiwYO-_ivAWkpjcIQ":{"rating":5.0,"num_photos":0,"postal_code":"61801","name":"J.Y. Chang's"},"xR7pkPPXOnvQ437BbxXdGw":{"rating":1.5,"num_photos":0,"postal_code":"60007","name":"Ramada - Elk Grove Village Il"},"9BxyFs3bVmpH63JMs8P_HQ":{"rating":4.0,"num_photos":0,"postal_code":"61802","name":"Toro Loco"},"VCEIHJ_z4cyKiDHMxnxd9w":{"rating":4.5,"num_photos":0,"postal_code":"61802","name":"Long's Garage Complete Auto Service"},"EDxTsYajwYI2gsL_lT6-6A":{"rating":5.0,"num_photos":0,"postal_code":"61801","name":"Roof Doctors"},"VIJ2KiDKhUVhhpNylEIfog":{"rating":4.5,"num_photos":3,"postal_code":"61820","name":"Maize Mexican Grill"},"RLKjtWefVl3I5E-7EgHkJA":{"rating":2.0,"num_photos":0,"postal_code":"61820","name":"Green Street Realty"},"9aPDGnQ7HbB-icImzHjGlQ":{"rating":4.0,"num_photos":0,"postal_code":"61802","name":"Express Car Care"},"9THHuQ9L9HwBvgs_51futQ":{"rating":3.0,"num_photos":0,"postal_code":"61820","name":"Classic Tan"},"Oe0hWqy0oYQQm5ND6pObGw":{"rating":4.0,"num_photos":0,"postal_code":"61820","name":"Ye Olde Donut Shoppe"},"zrtRx2bm55zVeYIpzLLm3w":{"rating":3.5,"num_photos":0,"postal_code":"61821","name":"Niro's Gyros"},"ODIfyx5okLpREh511Qqd4g":{"rating":5.0,"num_photos":0,"postal_code":"61802","name":"Wines At the Pines"},"jQVj8EjfWGUjKVoXQRXqkw":{"rating":5.0,"num_photos":0,"postal_code":"61953","name":"Lambos BP"},"nG59soBP2SaQ25rf2n-0bA":{"rating":3.0,"num_photos":0,"postal_code":"61820","name":"Atlanta Bread"},"KYXFuPcmVk5M0wzdBvhe7Q":{"rating":5.0,"num_photos":0,"postal_code":"61820","name":"Dream State Massage Therapy"},"O3zVw-VAcJi8ta4B6v5iAA":{"rating":4.0,"num_photos":2,"postal_code":"61821","name":"Sun Singer Wine and Spirits"},"BLtzUCwmGOSVgPJ78N3ORA":{"rating":3.0,"num_photos":1,"postal_code":"61801","name":"Tang Dynasty"},"0grgvnq4GgoY-estWytUhg":{"rating":3.5,"num_photos":2,"postal_code":"61801","name":"Timpone's"},"BINukdw_2Wqg8lpa4aQavQ":{"rating":3.0,"num_photos":0,"postal_code":"61821","name":"Speed Lube Oil Change Shop"},"UPqjs8ksW3e3wF-U5SoA6A":{"rating":4.5,"num_photos":0,"postal_code":"61864","name":"Daly's Sports Bar"},"WJZQgKGXbJWmDQb1Q0oqmw":{"rating":3.5,"num_photos":0,"postal_code":"61820","name":"RePhoned"},"vAUDxhbsWZKI8NJlsYwCMA":{"rating":3.0,"num_photos":6,"postal_code":"61820","name":"Flat Top Grill"},"aEk76knbZRbpyC9LvBToFg":{"rating":3.0,"num_photos":0,"postal_code":"61822","name":"Green Mobile"},"AqzK7Dr-9zMoxBpsZNlkoA":{"rating":4.5,"num_photos":0,"postal_code":"61801","name":"University High School"},"FpxFNBdL9V8Y7xN6fFW7kA":{"rating":4.0,"num_photos":0,"postal_code":"61801","name":"Dear 72"},"jKxES7iLV63H_PfyGVGIDw":{"rating":4.0,"num_photos":1,"postal_code":"61820","name":"Lai Lai Wok"},"zs4G7HIQvUVaZoWqwpVeEw":{"rating":4.5,"num_photos":0,"postal_code":"61820","name":"Chase Bank"},"k7orQ2Bi5eAVxbjzUon3hA":{"rating":1.0,"num_photos":0,"postal_code":"61866","name":"Hap-E-Dog Bath Haus"},"kntCn2UTklRO9EvexJ4QAw":{"rating":3.0,"num_photos":0,"postal_code":"61821","name":"LaVida Massage of Champaign"},"6v27Fok1kKSZmp1Mjz8V3w":{"rating":4.5,"num_photos":0,"postal_code":"61821","name":"O'reilly Auto Parts"},"7m8MoWuudrxU98fEw7iBIw":{"rating":4.0,"num_photos":0,"postal_code":"61822","name":"Sairam Om"},"3TBouLwX21Ic5cJNlAl7Eg":{"rating":3.0,"num_photos":0,"postal_code":"61820","name":"Drew's Pizza"},"FsRYheupb38V0_JRD-u2Bg":{"rating":4.5,"num_photos":0,"postal_code":"61820","name":"Roland Realty"},"c9PkUjunOI49r9oO4ZJcmQ":{"rating":2.5,"num_photos":0,"postal_code":"61820","name":"Taco Bell"},"wvSGMSvw1b9B02kLQdaw8Q":{"rating":2.5,"num_photos":0,"postal_code":"61821","name":"Starcrest Cleaners"},"t8WAeWkpMgb_hDuFs5wVyA":{"rating":3.5,"num_photos":0,"postal_code":"61822","name":"Red Wing Shoe Store"},"Hbr3byTorUS-k948IWpYKg":{"rating":5.0,"num_photos":0,"postal_code":"61820","name":"Blink Mobile"},"mjRn4HZ_du3FErN2expHiw":{"rating":2.0,"num_photos":0,"postal_code":"61953","name":"Super 8 Tuscola"},"ucBvAmB-4ZrXZctmFDyjIg":{"rating":4.5,"num_photos":0,"postal_code":"61866","name":"Baldwin Asylum Haunted House"},"pJlHbIoePemy_wQVpWTR2g":{"rating":2.5,"num_photos":0,"postal_code":"61801","name":"Burrito King"},"DHeGX-Aeewe0WZ5D2KgOfA":{"rating":2.5,"num_photos":0,"postal_code":"61802","name":"Block Electric"},"p1aZIYK6YRG2hFYLxxLtdQ":{"rating":4.5,"num_photos":0,"postal_code":"61802","name":"Urban Beauty & Fashion"},"ka_oewRLyrXeX3NXakQwvA":{"rating":2.0,"num_photos":0,"postal_code":"61874","name":"Walmart"},"TJo2BNnHBUcGKenVSmiXmg":{"rating":3.5,"num_photos":0,"postal_code":"61801","name":"Noy Tailoring and Alterations"},"B_dwXxYZvEL032j9kUHz9w":{"rating":1.0,"num_photos":0,"postal_code":"61820","name":"Dentistry by Design"},"1uq24KQXqJPz3xlVJJqXLA":{"rating":4.0,"num_photos":0,"postal_code":"61820","name":"Steve Tarrant - State Farm Insurance Agent"},"i9EHm7n2pvKoliAMmCth0w":{"rating":5.0,"num_photos":0,"postal_code":"61820","name":"Hansen & Co Barber Shop"},"EsDG5Yit6y5OvK4ocBfmyw":{"rating":4.0,"num_photos":0,"postal_code":"61802","name":"El Progreso"},"JoHDOuZ1BnFi63PgC_zYeQ":{"rating":3.5,"num_photos":1,"postal_code":"61822","name":"Amaravati  Indian Royal Cuisine"},"ediINKecrx7xDpD_rh0LmQ":{"rating":5.0,"num_photos":0,"postal_code":"61822","name":"KleenRite"},"edT-m7jYpYxnJWmCzlt1sg":{"rating":5.0,"num_photos":0,"postal_code":"61854","name":"JP Cool's Bar & Grill"},"E6QAh8UPRo6Tlg6hkcWCHw":{"rating":3.5,"num_photos":1,"postal_code":"61820","name":"Bombay Indian Grill"},"DZXd-fJ4GP9LbMwIonb6tQ":{"rating":3.5,"num_photos":0,"postal_code":"61822","name":"Rod Sickler Salon & Spa"},"uf8WNaHKKssMUbQVg8nJ7g":{"rating":2.5,"num_photos":0,"postal_code":"61801","name":"Jimmy John's"},"h2vFVV5pJjn8arA7GR6mQg":{"rating":3.0,"num_photos":0,"postal_code":"61822","name":"Zelma's"},"ROqguJiDvDB6rsFCyk2MCw":{"rating":2.5,"num_photos":0,"postal_code":"61822","name":"Hhgregg"},"CxBPeMdK7oFcDdoennTe8A":{"rating":3.5,"num_photos":0,"postal_code":"61801","name":"Bikeworks"},"HvRWUE3yP3mY4mZiG6UtJg":{"rating":4.0,"num_photos":5,"postal_code":"61822","name":"Einstein Bros Bagels"},"X00bLb5dQcuaBvX9uMt08g":{"rating":5.0,"num_photos":0,"postal_code":"61820","name":"Beattie Ellen M"},"TPGX7BhNG2CX3DV54Pt34g":{"rating":3.0,"num_photos":0,"postal_code":"61801","name":"Beckman Cafe"},"87DcNyamdiBOyZLgOkvoVw":{"rating":1.0,"num_photos":0,"postal_code":"61802","name":"U-Haul Neighborhood Dealer"},"h_C_FsUnjIf80vs2FJyuEg":{"rating":4.5,"num_photos":0,"postal_code":"61822","name":"Photography by Kallol"},"4ZAy5ZCTWbduzzhtR0egHQ":{"rating":4.5,"num_photos":0,"postal_code":"61802","name":"Wingstop"},"Z7jJ0ycV8LgXZ3HEcIhR0A":{"rating":4.5,"num_photos":0,"postal_code":"61856","name":"Monticello True Value Hardware"},"7nwdI1IGQicFAkYljdfjjg":{"rating":5.0,"num_photos":0,"postal_code":"61820","name":"Tradehome Shoes"},"8DXMeoz5BRqDMx9Dp3Qy1A":{"rating":2.5,"num_photos":0,"postal_code":"61820","name":"K-On Karaoke"},"wBQRhH9fEqME-sPU5sUlaw":{"rating":4.0,"num_photos":0,"postal_code":"61820","name":"Harold's Chicken Shack"},"MAKV_ZbhTcVA-IcdjKYhRQ":{"rating":3.0,"num_photos":0,"postal_code":"61801","name":"Hutchcraft Van Service"},"6mYtRm6smtgt29hLxt1vDA":{"rating":5.0,"num_photos":0,"postal_code":"61820","name":"Haymakers"},"Fp3rVpHewjl8zjMwHIQwag":{"rating":5.0,"num_photos":0,"postal_code":"61953","name":"Vintage Karma"},"5yopWhOUCevREvf9TDzL7Q":{"rating":5.0,"num_photos":0,"postal_code":"61802","name":"Pro-Tech Motors"},"8EHmpRUtlotNacxB83A-EQ":{"rating":5.0,"num_photos":0,"postal_code":"61953","name":"A Bloom Above And Beyond"},"_e1CTeyc8yctVwJm6Xj4Fg":{"rating":2.5,"num_photos":0,"postal_code":"61803","name":"Spring-Green Lawn Care"},"1qQ5VkxiBUjbGGdpBN-PUQ":{"rating":2.5,"num_photos":7,"postal_code":"61820","name":"Spicy Tang"},"pyWDYqN7_jDtySNDZlaahg":{"rating":2.0,"num_photos":0,"postal_code":"61821","name":"Reed M J Jewelers"},"WNP3nHRboeu6DEnMcnDkRg":{"rating":4.0,"num_photos":0,"postal_code":"61822","name":"Shaw's Premier Painting"},"3Sstn_TJAopMb6StUy09ow":{"rating":4.0,"num_photos":0,"postal_code":"61801","name":"Faith Church of Urbana"},"UiyjUa8CQmygujhe-ZYlsw":{"rating":3.5,"num_photos":0,"postal_code":"61822","name":"Movers 4 Less Inc"},"Z2W3K8x9cRGXvlGWerZH-w":{"rating":3.0,"num_photos":0,"postal_code":"61820","name":"Big Mouth's"},"HbK6IfznbVToEaKVC0WcSg":{"rating":4.0,"num_photos":0,"postal_code":"61820","name":"The Clark Bar"},"44pzzXXYBtbC0QxHFosagw":{"rating":4.5,"num_photos":0,"postal_code":"61820","name":"Perfect Arch Salon"},"-1TUzO4XCmOeqi9eAGeDWA":{"rating":4.5,"num_photos":0,"postal_code":"61821","name":"Beaumont Tire & Auto Repair"},"Hw0hdZnM7z5uBTwbW8jHMA":{"rating":3.5,"num_photos":0,"postal_code":"61822","name":"Penn Station"},"PWs6xJQJPHxknd3FcdKn9Q":{"rating":2.0,"num_photos":0,"postal_code":"61820","name":"The Fubar Lounge"},"RQxLNvAra_MUUPHdhukilA":{"rating":3.0,"num_photos":7,"postal_code":"61820","name":"Houlihan's"},"gFZrma9SheSYg5MKCYvGIg":{"rating":5.0,"num_photos":0,"postal_code":"61853","name":"Holly Birch Photography"},"VuMgSpUJ9ONgSkddjM4JqQ":{"rating":4.0,"num_photos":12,"postal_code":"61820","name":"Yori Q Korean Grill & Bar"},"SPlSJX-dGs2srKNriu1mEg":{"rating":5.0,"num_photos":0,"postal_code":"61820","name":"Something You Salon & Spa"},"mOrmBDnz-dOa8An65yUYHA":{"rating":2.5,"num_photos":0,"postal_code":"61822","name":"Champaign County YMCA"},"ovApUucCKSb9k0lTP2JieQ":{"rating":4.5,"num_photos":2,"postal_code":"61801","name":"Huaraches Moroleon"},"z3hD4GX5gSJtuqNhN-o2cg":{"rating":4.0,"num_photos":0,"postal_code":"61874","name":"I Wok"},"RWd83o4drIOE60W1meaESA":{"rating":4.0,"num_photos":1,"postal_code":"61801","name":"Mirabelle Fine Pastries"},"RnGG5bAz4nTPo_Ui99Kzbg":{"rating":3.5,"num_photos":1,"postal_code":"61820","name":"Le Peep Restaurant"},"v-ZlnT-EQC2MJ3VgBUPMsA":{"rating":2.5,"num_photos":0,"postal_code":"61820","name":"Busey"},"i79atl7G7XpdfAX3ys1DMA":{"rating":1.0,"num_photos":0,"postal_code":"61801","name":"Klatt Properties"},"XbHxWOciYlBhJOjKRQbo9g":{"rating":3.5,"num_photos":0,"postal_code":"61822","name":"Meijer"},"P4HqDYI1icascvcwca7iLg":{"rating":2.5,"num_photos":0,"postal_code":"61820","name":"Macy's"},"K2lscpx0S9wpqNz0s9AIwQ":{"rating":3.0,"num_photos":10,"postal_code":"61820","name":"Giordano's - Champaign"},"ks6JgGsz7phkGEVh9hoHkg":{"rating":2.0,"num_photos":0,"postal_code":"61820","name":"Little Caesars Pizza"},"kUICYu0N_TbtCz0Z8ynPFw":{"rating":3.0,"num_photos":8,"postal_code":"61820","name":"Chipotle Mexican Grill"},"2YnUIGGmhoJX4Cd61nQLkg":{"rating":3.0,"num_photos":1,"postal_code":"61820","name":"Za's Italian Cafe"},"whaFdQjOYoc5pyOG5o7HUg":{"rating":3.0,"num_photos":0,"postal_code":"61820","name":"Beck's License & Title Service"},"gZtJyb2oEpwo1rnovDVPfA":{"rating":3.5,"num_photos":0,"postal_code":"61801","name":"Intermezzo Caf\u00e9"},"M7cRkTVjtwV4bBSF1x6USg":{"rating":2.5,"num_photos":0,"postal_code":"61822","name":"Sally Beauty Supply"},"6OpLHgun6qHmrX1JmHL4zQ":{"rating":3.0,"num_photos":1,"postal_code":"61866","name":"Monical's Pizza"},"daegPERDjD2YcyDBHa9ZZQ":{"rating":2.5,"num_photos":0,"postal_code":"61801","name":"Ohana Pools & Spas"},"x-LVdWsyVbScjRffvUKBtw":{"rating":3.0,"num_photos":0,"postal_code":"61802","name":"National Mini Warehouses"},"Mc9sMBVNi53lqxHLCiLWiA":{"rating":2.5,"num_photos":0,"postal_code":"61820","name":"Taco Bell"},"Gxf0MzHfznm3vmF2E764xg":{"rating":4.5,"num_photos":0,"postal_code":"61820","name":"The Dog Den"},"ly0oNXKOoSZyr0mzOsVJhg":{"rating":3.0,"num_photos":1,"postal_code":"61821","name":"Monical's Pizza"},"dtKy808TwAgtOcwSCbXFJw":{"rating":4.0,"num_photos":3,"postal_code":"61820","name":"Jipbap Taste of Korea"},"pUfscUsFdOJI_TxVFU_VLw":{"rating":1.0,"num_photos":0,"postal_code":"61820","name":"Garber's Cleaners"},"Y8CW9v9iMzWbt1VA1EypHA":{"rating":3.5,"num_photos":0,"postal_code":"61820","name":"Spa Envy and Salon"},"KNwea7nNzFbWBInIqtjevg":{"rating":4.5,"num_photos":0,"postal_code":"61801","name":"Living Yoga Center"},"C_Zj7H7bUJ5kGCwFmEwW6w":{"rating":3.5,"num_photos":0,"postal_code":"61820","name":"B Won"},"8sCEkyczBsOEqizt3mfXyg":{"rating":3.0,"num_photos":0,"postal_code":"61820","name":"Clybourne"},"k1cD9hgD5E-_GF_RR6-J7A":{"rating":3.5,"num_photos":0,"postal_code":"61820","name":"Office Depot"},"tKcagQ6JNkMtayvBVHwY9w":{"rating":4.5,"num_photos":0,"postal_code":"61801","name":"Japan House"},"6gAAEQxKNlmpuLz0ZmKx5Q":{"rating":2.0,"num_photos":0,"postal_code":"61802","name":"US Post Office"},"-dV63OdNI9wE87aDDUre2A":{"rating":3.5,"num_photos":0,"postal_code":"61822","name":"Salvation Army Thrift Store"},"TD1GRFBmBmxHws0JKeY97A":{"rating":3.0,"num_photos":0,"postal_code":"61853","name":"The Main Street Wingery"},"S-mHBuKQSR0WVJnQcSYiaQ":{"rating":3.0,"num_photos":0,"postal_code":"61801","name":"Champaign Cycle"},"Yizfq10Z5TeMxoWsbEH4uA":{"rating":5.0,"num_photos":0,"postal_code":"61822","name":"Bark Avenue Canine Coiffures"},"MyG0gjudtRO8o5DAKAaECg":{"rating":2.5,"num_photos":0,"postal_code":"61856","name":"Seven Petals Dog Rescue"},"lrrUyxzlvqp-niBEj6_6dg":{"rating":3.5,"num_photos":0,"postal_code":"61801","name":"Niro's Gyros"},"7C1g2lil87sbKI3TDCMzxA":{"rating":4.0,"num_photos":0,"postal_code":"61821","name":"The Blind Man"},"iLPBZ_ic0LyiviqfXbkjwg":{"rating":4.0,"num_photos":2,"postal_code":"61821","name":"Hubers"},"xX2uM2EIeR03KrGBCrOrcA":{"rating":4.0,"num_photos":0,"postal_code":"61820","name":"Los Amigos"},"N9bjF5E2ms6fSWEMmvt39w":{"rating":2.0,"num_photos":0,"postal_code":"61820","name":"Pickles"},"iFWc6PuTA_mKr9liDeIQqw":{"rating":3.5,"num_photos":0,"postal_code":"61822","name":"GFS"},"ZiJVt1CsKoXyqSOZW8V4-A":{"rating":4.5,"num_photos":0,"postal_code":"61801","name":"Comfort Suites Urbana Champaign, University Area"},"c2uAqJ2REpLMCZO2jxdi9w":{"rating":3.0,"num_photos":1,"postal_code":"61821","name":"Five Guys"},"-PBIdZVMvKaOs6Kbn1kFkQ":{"rating":2.0,"num_photos":0,"postal_code":"61802","name":"Walmart Supercenter"},"FDRGek5feZIxKFQx7XL_Og":{"rating":3.5,"num_photos":0,"postal_code":"61822","name":"Stanley Steemer"},"3sSn6wGpFRs7YTB2GRnETw":{"rating":1.5,"num_photos":0,"postal_code":"61822","name":"T Mobile Baytowne Shopps"},"-2q4dnUw0gGJniGW2aPamQ":{"rating":2.0,"num_photos":0,"postal_code":"61820","name":"Fiesta Ranchera"},"XBWvV9bjcnADK_rhDoDR0w":{"rating":5.0,"num_photos":0,"postal_code":"61801","name":"LabEscape"},"WNn8UfSVYrfksEJSjTciZw":{"rating":3.0,"num_photos":0,"postal_code":"61802","name":"BoRics Hair Care"},"J3EckozG83hEvm267MOeHQ":{"rating":3.5,"num_photos":0,"postal_code":"61820","name":"YMCA"},"VHskIuH12SlaguUA83XmYA":{"rating":2.0,"num_photos":0,"postal_code":"61802","name":"Burger King"},"RdwJXTQo3Ez9DAbGpybl_w":{"rating":1.0,"num_photos":0,"postal_code":"61820","name":"Six Minute Chinese"},"swdilw4Vbk-196sTVdMo-A":{"rating":3.0,"num_photos":0,"postal_code":"61822","name":"Walgreens"},"qFwc6pD29qnTgd9tZDRYig":{"rating":2.5,"num_photos":0,"postal_code":"61820","name":"Panera Bread"},"Co2_TbXcGU41x0bh47ddwg":{"rating":2.5,"num_photos":0,"postal_code":"61874","name":"Christine Rich Studio"},"ZYjxr9aBdbUuZ0xjpMmUpQ":{"rating":4.5,"num_photos":0,"postal_code":"61820","name":"Cost Cutters"},"DSiLqPi_2AoY6UsZRKez0g":{"rating":3.5,"num_photos":0,"postal_code":"61821","name":"Junior's Burger & Custard"},"QMr__UBSxcpssmqWmfbZDQ":{"rating":4.5,"num_photos":0,"postal_code":"61821","name":"Rush Tan"},"SViPlfsmwqvWNxZuVOgOMQ":{"rating":2.5,"num_photos":1,"postal_code":"61820","name":"Subway"},"ePPpo0BL1J_59RQHI3HRVw":{"rating":3.0,"num_photos":0,"postal_code":"61820","name":"Hawthorn Suites By Wyndham Champaign"},"A4AvcazbJywctQtVMhdlNw":{"rating":5.0,"num_photos":0,"postal_code":"61866","name":"Wetzel Roger T DDS"},"sMI-u3Ss9zxY7NyOsXYTdQ":{"rating":5.0,"num_photos":0,"postal_code":"61821","name":"Haussermann Alan W DDS"},"cLrsYJSVjDQbaVikQSpnbQ":{"rating":3.5,"num_photos":0,"postal_code":"61820","name":"Green Street Cafe"},"8vtBOezjz9czHfDCzHm1_A":{"rating":3.0,"num_photos":0,"postal_code":"61822","name":"Candlewood Suites Champaign-Urbana Univ Area"},"ytlwXI6zAB1pboZgwT6aPQ":{"rating":2.5,"num_photos":0,"postal_code":"61873","name":"Connie's Pet Grooming"},"y-xy2Bp2k7CoIYUKFjKUFg":{"rating":4.0,"num_photos":0,"postal_code":"61820","name":"Sugar By Sarah"},"Igr5Id1TWyM3JLsY_td9_w":{"rating":4.0,"num_photos":0,"postal_code":"61801","name":"Jimmy John's"},"5gndAzF9MGyff9Ye73jGkg":{"rating":3.0,"num_photos":0,"postal_code":"61864","name":"Philo Tavern"},"kKCwp86xU9XKRnAALQDhrw":{"rating":4.5,"num_photos":2,"postal_code":"61801","name":"The Red Herring Vegetarian Restaurant"},"JbWQtVLQDEOBlvbVWk2OFg":{"rating":3.0,"num_photos":8,"postal_code":"61820","name":"Chipotle Mexican Grill"},"OC5BqhpPhnJJr7IXLsXIbg":{"rating":3.0,"num_photos":0,"postal_code":"61820","name":"Papa D's Bar & Grill"},"nRNnF9ESOgDn4JW0fVeKzw":{"rating":5.0,"num_photos":0,"postal_code":"61822","name":"Kurt Lenschow - State Farm Insurance Agent"},"iphTkIeUPw3XL9FjSBN-JA":{"rating":2.5,"num_photos":0,"postal_code":"61840","name":"Staske Photography"},"WpUIXWf8QYYeTVSisApdSg":{"rating":4.5,"num_photos":0,"postal_code":"61820","name":"Rick's Automotive Service"},"uqBjt4GwuUi4voeBSDleRQ":{"rating":5.0,"num_photos":0,"postal_code":"61821","name":"T & G Maintenance & Construction"},"oga-FLR4aSHlWRoQmnIc0w":{"rating":4.0,"num_photos":0,"postal_code":"61821","name":"Starcrest Cleaners"},"mtQegvq9xW-qw-3EOswZMg":{"rating":3.5,"num_photos":0,"postal_code":"61820","name":"Good Vibes"},"ufcf9VJn55RLDYGWsYDxgg":{"rating":3.0,"num_photos":0,"postal_code":"61820","name":"Scrubs Plus"},"hJ88unGZxRYN85XQ0qAS4g":{"rating":4.5,"num_photos":0,"postal_code":"61822","name":"Binny's Beverage Depot"},"t952QLgrh-5l1woJ4IFgUA":{"rating":3.5,"num_photos":0,"postal_code":"61820","name":"Vinny's East Coast Pizzeria"},"RwHE2Rt-DHlwWuxFLjPbgA":{"rating":3.5,"num_photos":0,"postal_code":"61801","name":"Dos Reales"},"rnvIi14t9yWuFNwZ7ruVbQ":{"rating":2.5,"num_photos":0,"postal_code":"61820","name":"217"},"qQwJ97VEyuMyPgDWF_Speg":{"rating":2.5,"num_photos":0,"postal_code":"61820","name":"West Quad"},"nD4cF5IH8RE7LFGdR2FMUA":{"rating":3.5,"num_photos":0,"postal_code":"61801","name":"Windy City Express"},"Q0w784rNuI595iPSuFvFXQ":{"rating":2.0,"num_photos":0,"postal_code":"61820","name":"Greyhound Bus Lines"},"dIUHCuiAlzkxfgCEOtky8w":{"rating":4.5,"num_photos":0,"postal_code":"61874","name":"Triptych Brewing"},"6FbN5wBF3BbBfv3OJQ-fDw":{"rating":3.0,"num_photos":0,"postal_code":"61822","name":"Country Inn & Suites"},"YXwYUDFAQD1sNm2c_5rT7g":{"rating":4.5,"num_photos":0,"postal_code":"61820","name":"I Hotel and Conference Center"},"rrUWiTpF2wwBSQoTCMoexg":{"rating":4.0,"num_photos":0,"postal_code":"61801","name":"The Studio"},"leoEzfEj27czYZEgBJdK5w":{"rating":5.0,"num_photos":0,"postal_code":"61822","name":"Prairie Fruits Farm & Creamery"},"yBG4G37tWUbBEIdQOqkMzA":{"rating":5.0,"num_photos":0,"postal_code":"61802","name":"Fairfield Automotive"},"wsuzuLD3KV7L8oMinLCI0A":{"rating":3.0,"num_photos":2,"postal_code":"61820","name":"Merry Ann's Diner"},"Ob9CnMkp-uLj5BEXdJGpWw":{"rating":5.0,"num_photos":0,"postal_code":"61802","name":"Urbana Plumbing & Heating"},"3o8lABHRO9ipnIUW4mUGqw":{"rating":3.5,"num_photos":0,"postal_code":"61821","name":"4U Nails & Spa"},"f_CDR6H4QL1K3SeaBe7r3g":{"rating":3.5,"num_photos":0,"postal_code":"61821","name":"Sammy's Pancake House"},"i9M6oO2LMUrrEytHnHjyLA":{"rating":3.5,"num_photos":0,"postal_code":"61822","name":"Kaiyo Japaneese Restaurant"},"oJJz8E82bvu202ZfrhKg7A":{"rating":4.5,"num_photos":2,"postal_code":"61801","name":"Sipyard"},"QdganL5AW9E_fNoRVroLig":{"rating":4.0,"num_photos":2,"postal_code":"61820","name":"Golden Wok"},"yFftpvJrkz4E38wUtps7Yw":{"rating":3.0,"num_photos":0,"postal_code":"61821","name":"Confidentially Yours"},"3AgIRb50RRbwvI54tAhlEA":{"rating":5.0,"num_photos":0,"postal_code":"61820","name":"Restoring Balance"},"x3xDzNJljA4WHtp0Pwk6tg":{"rating":2.0,"num_photos":0,"postal_code":"61853","name":"Mahomet Landscapes"},"HGO_cdDG5iGgkxKsKd_Vcw":{"rating":1.0,"num_photos":0,"postal_code":"61874","name":"Hertz Rent A Car"},"FeXsYKhyJ7F8t0-kn5JldQ":{"rating":3.5,"num_photos":0,"postal_code":"61802","name":"Schnucks Urbana"},"ARj6DzbLlRkHt3kQeTuuVA":{"rating":3.0,"num_photos":0,"postal_code":"61801","name":"Magic Nails"},"jUXfOQWlh4zUJz3qcelqIQ":{"rating":2.5,"num_photos":0,"postal_code":"61820","name":"Ron's Campus Locksmith Shop"},"hH4W8Iz5oktRi8dpqzKbZg":{"rating":3.5,"num_photos":0,"postal_code":"61820","name":"City of Champaign"},"S7TY9oCMqK-TffWrygetcw":{"rating":2.5,"num_photos":0,"postal_code":"61821","name":"Panera Bread"},"XrFF2f26Lc9uNu0gVc7PvQ":{"rating":4.0,"num_photos":0,"postal_code":"61820","name":"Te Shurt"},"D542kcQQ8T_Js9kqHjasiQ":{"rating":2.5,"num_photos":0,"postal_code":"61953","name":"Coach Factory Store"},"sjpsGKPABZDnABCv3wYtUQ":{"rating":3.0,"num_photos":0,"postal_code":"61801","name":"Rosati's Pizza"},"hMgIF04rrJ7oB1lGIpFt5w":{"rating":3.5,"num_photos":7,"postal_code":"61820","name":"South China Restaurant"},"UUsS7SrTQQ2AvvpslfrvFA":{"rating":3.5,"num_photos":0,"postal_code":"61820","name":"Legends"},"ZO_BLTRN9hsxjO5LsNnp0Q":{"rating":3.0,"num_photos":0,"postal_code":"61822","name":"Aldi"},"dKeGw0LMgaSFIPZBV-yDOQ":{"rating":4.5,"num_photos":0,"postal_code":"61822","name":"Mattress Firm Champaign"},"kCIvm-8hNfD-qrCxiWLsSQ":{"rating":2.0,"num_photos":0,"postal_code":"61820","name":"The Smoke Shack"},"1c4IxxSQxuh2mHVm6o2b9g":{"rating":4.0,"num_photos":0,"postal_code":"61866","name":"Tks Cheesesteak"},"KuJEyXesWoyOm3GQm0rqcg":{"rating":4.5,"num_photos":0,"postal_code":"61820","name":"The I.D.E.A. Store"},"qks7DJo-IIu_tzfSWmYR6Q":{"rating":5.0,"num_photos":0,"postal_code":"61801","name":"Urbana Fine Arts Center"},"3frikpuC7Cw_C60TMtvVVg":{"rating":4.0,"num_photos":1,"postal_code":"61820","name":"Emerald City Lounge"},"PTQVaWA-I5ZLzwy5oBbVMg":{"rating":3.5,"num_photos":6,"postal_code":"61821","name":"Pekara Bakery and Bistro"},"1qxpl7TaER9i1dxpnLyl2g":{"rating":3.5,"num_photos":0,"postal_code":"61853","name":"Taffies Cafe"},"pjO0ZRGpCwlaOzipZDa3HA":{"rating":3.0,"num_photos":0,"postal_code":"61821","name":"Sam's Club"},"J5xFCQ74DrFaffZx7_seHg":{"rating":4.0,"num_photos":0,"postal_code":"61802","name":"Marco's Pizza"},"_cikN23Q9cpWHrSoeXXTGg":{"rating":4.5,"num_photos":0,"postal_code":"61844","name":"Ludwig Farmstead Creamery"},"DO9Wp7zXwc2ZNEb8cXaqbg":{"rating":4.0,"num_photos":0,"postal_code":"61821","name":"Station 6 Pizza"},"GvLIWb02xHBohoAdDvqxDw":{"rating":4.0,"num_photos":0,"postal_code":"61821","name":"Ruler Foods"},"XODz0rilGYo6_xd5e7isOw":{"rating":3.5,"num_photos":0,"postal_code":"61802","name":"China Garden"},"pB7yPecmxoJEa0FjKdkznw":{"rating":4.5,"num_photos":0,"postal_code":"61820","name":"G-Mart Comics"},"5LDMtGEynZx2HG5vvG3Otw":{"rating":3.5,"num_photos":0,"postal_code":"61822","name":"Champaign Studio One Photography"},"ZR10UCyACbB7l7UOM0iuQg":{"rating":4.5,"num_photos":0,"postal_code":"61820","name":"Lee's Hair Salon"},"dn9lwYUxmhs_mLKPu7L25Q":{"rating":3.5,"num_photos":6,"postal_code":"61820","name":"Big Grove Tavern"},"pnC73AlRWa1MWlIpZe3N1A":{"rating":4.0,"num_photos":4,"postal_code":"61853","name":"Doughbelly Subs"},"m4DwPVxmFDQE_FnGIOa3cQ":{"rating":4.0,"num_photos":0,"postal_code":"61802","name":"Sunny China Buffet"},"zp3rZNu-5qonTL3ByPYOUg":{"rating":3.5,"num_photos":0,"postal_code":"61820","name":"Fat Sandwich Company"},"SJqnGGaeMlxHa-JeZckLHw":{"rating":3.0,"num_photos":0,"postal_code":"61820","name":"Tepper Electric Supply Company"},"FM6hRJtjDwNeZWa64wpdRg":{"rating":4.5,"num_photos":0,"postal_code":"61803","name":"Urbana Dog Park"},"GKQWjnloUthLFGsSsrpZUw":{"rating":3.5,"num_photos":0,"postal_code":"61801","name":"Reynolds Towing Service"},"QWY6JqB49pgPJIKIw2TJqg":{"rating":2.5,"num_photos":0,"postal_code":"61953","name":"Amishland Red Barn Buffet"},"8mKV3KThn3wXGL3OVxrCNg":{"rating":4.0,"num_photos":4,"postal_code":"61801","name":"Sitara"},"T7TuM9fYi_QIYC3ipg7CzQ":{"rating":1.0,"num_photos":0,"postal_code":"61822","name":"Braun-Meyer Apartments"},"joIZbPR6H-2MTGQGLzCXsA":{"rating":5.0,"num_photos":0,"postal_code":"61873","name":"Geschenk Boutique"},"FZFGv8vlqkZiejzUtSn76g":{"rating":4.0,"num_photos":0,"postal_code":"61874","name":"Star\u706bBBQ"},"8n1Bf-bpu6NYyUcGLMLZow":{"rating":3.0,"num_photos":0,"postal_code":"61820","name":"Hessel Park Family Dentistry"},"lZ0W0-pQyS35ahsrZezNiw":{"rating":5.0,"num_photos":0,"postal_code":"61820","name":"Natural Gourmet"},"_pMU6Wa2XZeRE3RxjgbKVw":{"rating":4.0,"num_photos":0,"postal_code":"61820","name":"Simplified Computers"},"b8iHKolCsC4ZTM8X9-L01A":{"rating":2.5,"num_photos":7,"postal_code":"61820","name":"Pizza Hut"},"shSmfhvCMwreLBmsivN6vg":{"rating":4.0,"num_photos":0,"postal_code":"61820","name":"Mattress Boss"},"ySPmSsXIcOtkgpvAl9wM-g":{"rating":4.5,"num_photos":0,"postal_code":"61820","name":"Frank's A. Carpenter"},"WIj7xmN8G7HUgrVUKBo8eA":{"rating":3.0,"num_photos":0,"postal_code":"61822","name":"Bud's Tree Care"},"BcrFZDyviqw_wF9oQQ5qVA":{"rating":4.5,"num_photos":0,"postal_code":"61820","name":"Caffe Bene"},"Hx-um-V0sTHjMZX0UcW0kA":{"rating":1.5,"num_photos":0,"postal_code":"61853","name":"Dairy Queen"},"KKOuKBbU5ksSuyCT6EUD5A":{"rating":5.0,"num_photos":0,"postal_code":"61820","name":"A Hunt Design"},"UEsFV-zCAL_E_DTv-wGzfw":{"rating":1.0,"num_photos":0,"postal_code":"61820","name":"Illini Tower"},"uJHUgUJO53V5-xz9_3c8IQ":{"rating":3.5,"num_photos":0,"postal_code":"61821","name":"Arrowhead Lanes"},"_a6jhRFIgOe74U73T5B-Ww":{"rating":4.0,"num_photos":1,"postal_code":"61820","name":"Fiesta Cafe"},"HLTy85yV2H8Wj3LlC_kQxw":{"rating":4.5,"num_photos":0,"postal_code":"61801","name":"Meat Science Laboratory"},"wanZgQ_5lm7K6z8ffReSfw":{"rating":1.5,"num_photos":0,"postal_code":"61822","name":"Weed Man"},"nYruWLwbN1b7TcVzPoB82A":{"rating":4.5,"num_photos":0,"postal_code":"61866","name":"Chanute Air Museum"},"Y6zO_4vMO2KLPuNJNneROw":{"rating":5.0,"num_photos":0,"postal_code":"61820","name":"Dandelion Vintage & Used Clothing"},"5SgsdScsBV46bPebHQmZ3w":{"rating":5.0,"num_photos":0,"postal_code":"61820","name":"Finest Home Inspection"},"YEpB1mdJUIaK_evI5RTNHw":{"rating":5.0,"num_photos":0,"postal_code":"61820","name":"Klein Gretchen"},"hX-foSZsr_fW_n7ydo4D0Q":{"rating":2.5,"num_photos":7,"postal_code":"61801","name":"KFC"},"LMwmAg_HZWDlynnIkGPnVQ":{"rating":5.0,"num_photos":0,"postal_code":"61821","name":"Anderson Automotive"},"b8zjLuBTk3SfqcNEMJUnDA":{"rating":2.5,"num_photos":0,"postal_code":"61820","name":"Fat City Saloon"},"3QMqesQ8a9owW7DmqcgJsQ":{"rating":4.0,"num_photos":0,"postal_code":"61820","name":"Pampered Pet Grooming and Dog Training"},"T4IScPfP4ywj_dZAqWpxKg":{"rating":4.5,"num_photos":0,"postal_code":"61801","name":"Urbana Butcher Shop"},"KkpX5EdixY0C5gUq8BcmCA":{"rating":5.0,"num_photos":0,"postal_code":"61919","name":"J & J's Burgers & Beer"},"hDvdydcpB3gTU-ZZgSnjmQ":{"rating":4.5,"num_photos":0,"postal_code":"61820","name":"Dave & Gene's Barber Shop"},"PgMt7JtwUB-QUoRZAbwUng":{"rating":3.0,"num_photos":0,"postal_code":"61822","name":"Chili's"},"-8SG5t1yznyU0fy6_CWNDA":{"rating":3.0,"num_photos":0,"postal_code":"61820","name":"Juno Hair"},"5SG7wYkCdZ_3sTJ4SmjUaA":{"rating":3.5,"num_photos":0,"postal_code":"61801","name":"Skully's Chicken and Fish"},"K8nN63lyBJVx5ZnLcCs7Fg":{"rating":3.0,"num_photos":0,"postal_code":"61821","name":"This Is It Furniture"},"hHvaXfiu__yLdO13MkVx-A":{"rating":3.0,"num_photos":0,"postal_code":"61822","name":"Champaign Ballet Academy"},"tifSHPWIRy6QuL0nkaKXwg":{"rating":4.0,"num_photos":0,"postal_code":"61801","name":"Bohemia"},"V0NFkyg9EZ6_qT7TKFVN_A":{"rating":1.5,"num_photos":0,"postal_code":"61802","name":"Motel 6"},"fPpx9GMdn4EsGy1HWw1ajQ":{"rating":4.5,"num_photos":0,"postal_code":"61802","name":"Ritual Salon"},"X0aBITLKCMj_llgfMcWkFw":{"rating":2.5,"num_photos":0,"postal_code":"61820","name":"Cold Stone Creamery"},"io4Wup6V-L_RJpwdOoAaOg":{"rating":5.0,"num_photos":0,"postal_code":"61874","name":"Pages For All Ages Books Music Cafe & Dvds"},"acQ9qQXsPypkGZMgFGSolw":{"rating":3.0,"num_photos":0,"postal_code":"61822","name":"Gamestop Prospect Commons"},"ZGIkQIh3KTLM1yOCNpvU5Q":{"rating":2.0,"num_photos":2,"postal_code":"61822","name":"Steak 'n Shake"},"Ryc_Si5v93fY8SquPe6E7A":{"rating":2.5,"num_photos":0,"postal_code":"61821","name":"Team Gauze"},"pH72Y8aqqJlq3bgtj-d3UA":{"rating":3.0,"num_photos":0,"postal_code":"61801","name":"The Great Impasta"},"F8O0Acq73N4gaogT-V49Ow":{"rating":4.0,"num_photos":0,"postal_code":"61820","name":"Barbara's Alterations Plus"},"YJMU2zD1orchUCgCBKDiTQ":{"rating":1.5,"num_photos":0,"postal_code":"61802","name":"Pretty Nails Spa"},"HT1Y9Q1nkSqve-xxgfEQwQ":{"rating":4.0,"num_photos":0,"postal_code":"61866","name":"Arby's"},"dEKnEqm6Q44copoadiT8Iw":{"rating":2.5,"num_photos":10,"postal_code":"61801","name":"Perkins Restaurant & Bakery"},"RQKrr8j4jS_7ubGMfAwnIQ":{"rating":3.5,"num_photos":0,"postal_code":"61820","name":"Garcia's Pizza In A Pan"},"QqwF1EXpSjivBaXaZWmDkw":{"rating":4.0,"num_photos":0,"postal_code":"61820","name":"Ten Thousand Villages"},"9XMOJYI0jh6cycrZK9Js4g":{"rating":2.5,"num_photos":0,"postal_code":"61820","name":"Campus Burger"},"L57D-jGExAu6HwjByT8BOQ":{"rating":3.5,"num_photos":0,"postal_code":"61822","name":"Uncle Jack's Family Restaurant"},"IHJKFxoWXONoz-JamfOnlg":{"rating":3.0,"num_photos":0,"postal_code":"61803","name":"Meijer"},"m6nLTIrEJHtHSYJjVavnzw":{"rating":4.0,"num_photos":4,"postal_code":"61820","name":"Kohinoor Indian Restaurant and Lounge"},"rXIDrS8Rz8r09vH4gjHfGQ":{"rating":3.5,"num_photos":1,"postal_code":"61801","name":"Manolo's Pizza & Empanadas"},"A_eABcl0LTts73RNo2Np2Q":{"rating":5.0,"num_photos":0,"postal_code":"61801","name":"Krannert Center for the Performing Arts"},"2e5Q-0Pr23NFEhgpYG8cFw":{"rating":2.5,"num_photos":0,"postal_code":"61801","name":"Crepe De Licious"},"iT5wN8fDIVoeF_nq4LDgZw":{"rating":4.5,"num_photos":0,"postal_code":"61820","name":"Window Genie of Champaign"},"cFp-Kr831uIA3F6o5aeV2Q":{"rating":2.0,"num_photos":0,"postal_code":"61820","name":"Sliders"},"Yp1A7upIdi-Sd_abHBbP_A":{"rating":3.0,"num_photos":0,"postal_code":"61821","name":"Cat Clinic of Central Illinois"},"VIkgQm6kECb_b6tk3jNqZg":{"rating":1.5,"num_photos":0,"postal_code":"61820","name":"Lincolnland Express"},"gxL39GdvV7WCMcFBwoeSgw":{"rating":3.0,"num_photos":0,"postal_code":"61820","name":"Millennium Nails"},"zAD08AT1GgX-cVNy9iMq4A":{"rating":4.0,"num_photos":0,"postal_code":"61820","name":"Activities and Recreation Center - ARC"},"z-Q3uNXOjr7iYpl9kexFzQ":{"rating":4.0,"num_photos":0,"postal_code":"61820","name":"Harvest Market"},"xerBarrLxpO4T0eoADrcIg":{"rating":2.0,"num_photos":0,"postal_code":"61822","name":"Quality Inn & Suites"},"5CSGxhesXkz2XNQB8AP6Kw":{"rating":3.0,"num_photos":4,"postal_code":"61820","name":"Spoon House Korean Kitchen"},"w0z9RLe5O8KM0XDsROdHXA":{"rating":4.0,"num_photos":0,"postal_code":"61802","name":"Wilbur's Taxi"},"7AlULGZI1pHt0imODsqdkg":{"rating":4.0,"num_photos":1,"postal_code":"61820","name":"Potbelly Sandwich Shop"},"ZlCSsWS07JulSBIQlrbF5w":{"rating":4.5,"num_photos":0,"postal_code":"","name":"Black Cab & Limo"},"mUqqDqpCEC-79TLwZQA6yQ":{"rating":3.5,"num_photos":0,"postal_code":"61802","name":"Champaign County Humane Society"},"Frbldz6phswVyMNvwherhA":{"rating":3.5,"num_photos":1,"postal_code":"61821","name":"My Thai"},"QFCapao7Q8GnjI7nGI-UmQ":{"rating":3.5,"num_photos":0,"postal_code":"61820","name":"Planned Parenthood - Champaign Health Center"},"efld3-EC05DQ74g0Nkx5fw":{"rating":1.0,"num_photos":0,"postal_code":"61820","name":"MasterCuts"},"H72xXZeGbu_LsITA1DaDZg":{"rating":4.0,"num_photos":0,"postal_code":"61820","name":"New Life Tattoos"},"guT_rF7lF9SnXOa5FN1byw":{"rating":5.0,"num_photos":0,"postal_code":"61820","name":"College Chefs"},"WNjaebDOz28myPRNtlACdg":{"rating":2.5,"num_photos":0,"postal_code":"61822","name":"Fetch! Pet Care"},"hPc-mAHv4jfKeXqOxYJuAw":{"rating":3.0,"num_photos":0,"postal_code":"61821","name":"Papa Murphy's"},"l4x5FFzfiCFrGN0S-uZbBQ":{"rating":4.0,"num_photos":5,"postal_code":"61820","name":"Nando Milano Trattoria"},"zGQNQUpKLnjFsgXg3GSQqQ":{"rating":4.0,"num_photos":0,"postal_code":"61874","name":"Regent Ballroom"},"GY7N2o1SGIUgSz1WCIo-HQ":{"rating":1.5,"num_photos":0,"postal_code":"61822","name":"88 West Apartments"},"xWGn7oqLOZu_00H8pZOtsQ":{"rating":4.5,"num_photos":1,"postal_code":"61820","name":"Cracked the Egg Came First"},"ZCOlXSjVXtwDF4RdflA7Lg":{"rating":5.0,"num_photos":0,"postal_code":"61801","name":"Glow by Lola"},"-Vse9oEceHIyCzVK7fSdbA":{"rating":2.5,"num_photos":0,"postal_code":"61801","name":"Psychology and Psychiatry"},"5-Z7VmiTqD4ycnrxfBJGmQ":{"rating":2.0,"num_photos":0,"postal_code":"61873","name":"Monical's Pizza"},"C3d4HqDjWq9e_0cPfmPykg":{"rating":3.5,"num_photos":5,"postal_code":"61820","name":"Moe's Southwest Grill"},"xJyzXnVaF21q4CHa0gVhvA":{"rating":4.0,"num_photos":0,"postal_code":"61802","name":"Ron's Truck & Auto Repair"},"WocomeZIS83EYzd3K7w4tw":{"rating":4.0,"num_photos":0,"postal_code":"61858","name":"Kickapoo State Park"},"h21I071qoAZgFy0eBqNhbg":{"rating":3.5,"num_photos":0,"postal_code":"61820","name":"Live Action Games"},"xa94yJ8PKp1yy_3c69obPA":{"rating":3.5,"num_photos":0,"postal_code":"61866","name":"Bell Sports"},"4zW4FCsIk-84Yq49iXVuxA":{"rating":2.5,"num_photos":0,"postal_code":"61821","name":"Advanced Aesthetics Surgery & Laser Center"},"o80p16nM5CWbl22JP1nB-w":{"rating":4.0,"num_photos":0,"postal_code":"61801","name":"Common Ground Food Co-Op"},"1cLd6sLlt5SMiIhY8tmGBw":{"rating":3.5,"num_photos":0,"postal_code":"61801","name":"Hunsinger Enterprises"},"rP-MueqMyZbiDbOEUELXtQ":{"rating":4.5,"num_photos":0,"postal_code":"61820","name":"Snow Meets Coffee"},"CxleUE5milDH9tayYjhzDQ":{"rating":3.0,"num_photos":0,"postal_code":"61822","name":"Paris Boutique"},"x6fvLWdx-Kb8_oMeqaHhRQ":{"rating":4.5,"num_photos":0,"postal_code":"61820","name":"Chatime Champaign"},"LriGUTo9z5exTYHmFkXf9A":{"rating":3.5,"num_photos":0,"postal_code":"61874","name":"Massage Envy - Savoy Plaza"},"Q9rmRDT78gf1tb0WBDTr9Q":{"rating":2.0,"num_photos":0,"postal_code":"61802","name":"Republic Services"},"cTyDIHI6oBx-hwEX0c_CpQ":{"rating":3.0,"num_photos":0,"postal_code":"61874","name":"The Place at 117"},"24UHe1SZ4cgm6u6bU_L6xA":{"rating":3.0,"num_photos":0,"postal_code":"61820","name":"Sushi Rock"},"1QG4JRQhm1pZQSPu7Axcog":{"rating":4.0,"num_photos":0,"postal_code":"61802","name":"Tatman's Towing"},"KO0NilkRrWf7YKX-_87LTw":{"rating":2.0,"num_photos":0,"postal_code":"61821","name":"Blockbuster Video"},"KZG8txc-vzkfDt-4ZYeREA":{"rating":4.5,"num_photos":0,"postal_code":"61802","name":"Uncle Martin's Sports Bar"},"yAHU4LB7UkwaQlxLgbH61g":{"rating":2.0,"num_photos":0,"postal_code":"61820","name":"Campus Nails"},"ODURDhURWmZr6b--O4nt3w":{"rating":4.0,"num_photos":1,"postal_code":"61820","name":"Jupiter's Pizzeria and Billiards"},"94dPK6n_yIBU6_n2OPpEOA":{"rating":2.5,"num_photos":0,"postal_code":"61820","name":"Jones Optical Co"},"ZxQlHVm0pj0ERqpwhEHc6w":{"rating":4.5,"num_photos":5,"postal_code":"61822","name":"San Maru"},"e9shtyZ7-9GYcbPIVV--XQ":{"rating":4.0,"num_photos":2,"postal_code":"61820","name":"Escobar's Restaurant"},"rWtglX0leY_pqi-UD820Ag":{"rating":5.0,"num_photos":0,"postal_code":"61801","name":"Rubens Chocolate"},"qIomOSnR0zaU7kv6K-0mcA":{"rating":3.0,"num_photos":0,"postal_code":"61820","name":"Tortica's Grill"},"bsrqpg0zJZG4NMhA0W28LQ":{"rating":4.5,"num_photos":0,"postal_code":"61822","name":"Espresso Royale"},"oTcLd1GfGBmkMZMkuULxew":{"rating":3.5,"num_photos":0,"postal_code":"61820","name":"Dj's Automotive Service and Repair"},"_36y6DMfo8QcEi7IWrXa0A":{"rating":4.0,"num_photos":0,"postal_code":"61820","name":"Hancock Fabrics"},"1HlqxfcQQgYLYoMhuxSeXA":{"rating":3.5,"num_photos":0,"postal_code":"61802","name":"Casey's Carry Out Pizza"},"mklo4H47YWK7f18YXTCEoA":{"rating":3.5,"num_photos":0,"postal_code":"61820","name":"Murphy's Pub"},"dKncjeWnvdqYiNC8l26fog":{"rating":3.0,"num_photos":0,"postal_code":"61820","name":"Jimmy John's"},"nSThFcHyyjIXnlX98xBkIg":{"rating":3.5,"num_photos":0,"postal_code":"61820","name":"Innu Hair Salon"},"sYf2auhosrx8trbyP9nGyw":{"rating":3.0,"num_photos":5,"postal_code":"61820","name":"DP Dough"},"A_6ahQ64oW8c8X-FHohTqA":{"rating":3.0,"num_photos":0,"postal_code":"61821","name":"Champaign Appliance Center"},"UUxY8fHptscczFDsImtxzA":{"rating":4.0,"num_photos":0,"postal_code":"61801","name":"Magic Needle"},"6iHPQpra_VTWkzHMEwJa0g":{"rating":3.0,"num_photos":0,"postal_code":"61871","name":"Healthy Homes Inspection Services"},"16LCSpOdfoxGpQFZTVr5hg":{"rating":3.0,"num_photos":0,"postal_code":"61821","name":"Country View Veterinary Clinic"},"t0HT9od2xZ0Fc5a0PFB2BQ":{"rating":2.0,"num_photos":0,"postal_code":"61820","name":"Kam's"},"FDtc1zp7EIABDjrw6GtfIw":{"rating":5.0,"num_photos":0,"postal_code":"61821","name":"La Chic Nails"},"sDfN5qJlmvrwTfwEPBsxSg":{"rating":2.5,"num_photos":0,"postal_code":"61866","name":"Dairy Queen"},"Q9apdosOkT4rnX3YRurbmA":{"rating":4.5,"num_photos":0,"postal_code":"61820","name":"Country Arbors Nursery"},"NXERVbjRdwe0Deg4d_fVlA":{"rating":2.0,"num_photos":4,"postal_code":"61820","name":"Koto Ramen"},"B1RQ-c8xcL7506kQe_MVDA":{"rating":5.0,"num_photos":0,"postal_code":"61820","name":"Beau Visage"},"gEJZ5USuvC1r8_QvSvDCNA":{"rating":3.5,"num_photos":0,"postal_code":"61820","name":"K-Bowl"},"b3qhOCXM_vpPsginjyP9Hg":{"rating":3.0,"num_photos":0,"postal_code":"61821","name":"Famous Dave's"},"lG9YdIb-87LK21XnMKvzFg":{"rating":5.0,"num_photos":0,"postal_code":"61820","name":"Teamoji"},"wDXaIt70oTpaWtlf6Xc79Q":{"rating":4.0,"num_photos":0,"postal_code":"61821","name":"Champaign Cycle"},"l19IIZncfH3Gm1AGl2O_HA":{"rating":5.0,"num_photos":0,"postal_code":"61873","name":"Kelso Heating & Cooling"},"kX6TNjVs61AWXz8M7ibOBQ":{"rating":5.0,"num_photos":0,"postal_code":"61821","name":"Agape Hearts & Hands Massage"},"iZleRh4SOtf4GquA5L8WXw":{"rating":3.5,"num_photos":2,"postal_code":"61801","name":"Crane Alley"},"-6paCvPyvBOWinpmRYyypw":{"rating":3.5,"num_photos":0,"postal_code":"61856","name":"Bill Abbott Chevrolet Buick"},"egsTi5bjj7AzKOom_Vu-Eg":{"rating":5.0,"num_photos":0,"postal_code":"61874","name":"CU Air Duct Cleaning"},"6ztJ5JUDt6qxEuPegkNcvA":{"rating":5.0,"num_photos":0,"postal_code":"61820","name":"Flora Gems"},"KSTMUvXUN4WuwhpW4jbiSg":{"rating":4.5,"num_photos":5,"postal_code":"61856","name":"FieldHouse 219"},"Cikls1ZzfgjCI0J4RKrQeA":{"rating":4.0,"num_photos":0,"postal_code":"61874","name":"Thornton's"},"yxA93kcBmb_51wOx_iZssA":{"rating":1.5,"num_photos":0,"postal_code":"61856","name":"Monical's Pizza"},"83_gVj7cnJd0-J5ZoYN9qA":{"rating":1.5,"num_photos":0,"postal_code":"61866","name":"Papa John's Pizza"},"36hpvKWCT8_1kM8GrHIzMQ":{"rating":4.5,"num_photos":0,"postal_code":"61822","name":"Diva Nails"},"aKiE0aZ6vGyOlH-uVOHONw":{"rating":3.5,"num_photos":1,"postal_code":"61820","name":"The Y Eatery"},"w73NcxMQmDsqVKu3zVSJtg":{"rating":3.5,"num_photos":0,"postal_code":"61820","name":"Illini Inn"},"kRE70uST2CmGZDfL3WfGhw":{"rating":4.0,"num_photos":0,"postal_code":"61821","name":"Kim's Alterations"},"NIhArua4-tlZZXdGuy2SRQ":{"rating":2.0,"num_photos":0,"postal_code":"61801","name":"ONE North"},"xDVK90C8qTDH5mqVQfyyjg":{"rating":2.0,"num_photos":0,"postal_code":"61820","name":"Chief\/Bauer Service Experts"},"CObgcxFJuEXZZpm4Mw3z1A":{"rating":2.5,"num_photos":0,"postal_code":"61820","name":"McDonald's"},"FUo_P_YMI-5rv8y70o8-Zw":{"rating":1.0,"num_photos":0,"postal_code":"61802","name":"Regal Nails"},"5lFdtzrhP5TPAfeOZUJsOA":{"rating":4.0,"num_photos":0,"postal_code":"61820","name":"Le Shoppe"},"pR2rOXAExYQ5P-EQq2akug":{"rating":3.0,"num_photos":0,"postal_code":"61820","name":"Simply Mac"},"3HPFI6f_96vbANRrWa_kew":{"rating":4.5,"num_photos":0,"postal_code":"61822","name":"Animal Hospital At The Crossing"},"JXrppn1wanENxgd6CVt9nA":{"rating":4.0,"num_photos":0,"postal_code":"61820","name":"Bella Capelli"},"2pbOSrbB5AtQIa240AXNvQ":{"rating":2.0,"num_photos":2,"postal_code":"61820","name":"Panera Bread"},"ab-SN9sTNB29QzrgjgniUQ":{"rating":3.0,"num_photos":2,"postal_code":"61820","name":"Espresso Royale"},"IYASJOu_TXz8PpPbt-Clbg":{"rating":2.0,"num_photos":0,"postal_code":"61801","name":"Sushi San"},"G_FJqiQqZpIlbalWobC0vA":{"rating":3.0,"num_photos":0,"postal_code":"61820","name":"Asian Supermarket"},"H5oG0QHM5bseQeASHesfMA":{"rating":2.5,"num_photos":0,"postal_code":"61802","name":"United Fuel"},"QrU-y8wN7e-jnePTywt1Zw":{"rating":1.5,"num_photos":0,"postal_code":"61822","name":"Sprint Store By Wireless Revolution"},"Wde8Ar4-guQU96FrNYED8g":{"rating":3.5,"num_photos":0,"postal_code":"61820","name":"Orpheum Children's Science Museum"},"5IfCk1FI6SXZcI_bsNcTjg":{"rating":3.5,"num_photos":0,"postal_code":"61820","name":"Chester Street Bar"},"zUayeEQ3_1fM_71X_1PdGQ":{"rating":3.5,"num_photos":6,"postal_code":"61822","name":"Let's Take a Seat: Thai Cuisine"},"BKNPoWf3bQoxFWf-Kjt3wQ":{"rating":3.0,"num_photos":8,"postal_code":"61821","name":"KFC"},"KyL5HUZgHdu-1I149Khtxg":{"rating":3.0,"num_photos":0,"postal_code":"61820","name":"Eddie Bauer"},"67STv2NXNvt7K8sdbjqetQ":{"rating":2.5,"num_photos":0,"postal_code":"61820","name":"Barfly"},"QN8RBpGAtaMlFiTM7jiuJA":{"rating":4.0,"num_photos":0,"postal_code":"61820","name":"Euro Mart"},"DyHlm1sLDf6qHHMbII6Ixg":{"rating":4.5,"num_photos":0,"postal_code":"61820","name":"Fuad's Creative Hair Design"},"C4C2fSGz06_5rLvvM4KweQ":{"rating":4.5,"num_photos":0,"postal_code":"61820","name":"Jennifer North"},"OyBStpjF5e_iRCMXflFasQ":{"rating":2.5,"num_photos":10,"postal_code":"61820","name":"Evo Cafe"},"BfUoFcIzmQJMe4jBLIYN4Q":{"rating":3.5,"num_photos":0,"postal_code":"61802","name":"Illini Home Improvements"},"Ell98LV4Yuc0DqZwGE8gWQ":{"rating":3.0,"num_photos":0,"postal_code":"61802","name":"Monical's Pizza"},"TpxCGW68bkqS5T0wnurOfw":{"rating":2.5,"num_photos":0,"postal_code":"61821","name":"Subway"},"-oxCk2IIY132_7EDweDOLw":{"rating":1.0,"num_photos":0,"postal_code":"61822","name":"The Ryan Dallas Team"},"40Uv2fqNecbqk0ruo7DIDA":{"rating":4.5,"num_photos":0,"postal_code":"61821","name":"TMS Auto Care"},"uzpdcxvlKx5BuoWU3NRHbA":{"rating":3.5,"num_photos":1,"postal_code":"61822","name":"Minneci's at the Crossing"},"gy6vd5hHpDVHrR76mIDiWw":{"rating":1.0,"num_photos":0,"postal_code":"61820","name":"Mike Williams"},"uu5ApFAvmi7_mqXwxob2LA":{"rating":3.0,"num_photos":0,"postal_code":"61822","name":"Target"},"V8rIKaelC7SAGyEssGBWEA":{"rating":4.0,"num_photos":0,"postal_code":"61802","name":"Park 150 Self Service Storage"},"yDMsKLjzikaaMomQm_FCQA":{"rating":3.0,"num_photos":0,"postal_code":"61821","name":"Champaign Chiropractic Clinic"},"D1mPZ8LDaP1hYpOefmowQQ":{"rating":5.0,"num_photos":0,"postal_code":"61821","name":"White Tiger Tae Kwon Do"},"rSoJNyN0OMw5n-2XIwRc7A":{"rating":4.5,"num_photos":0,"postal_code":"61822","name":"Champaign Heating & Air"},"G-rm1rIaOC75TQcDhYRnYQ":{"rating":4.0,"num_photos":0,"postal_code":"61820","name":"JJ's Shoe Repair"},"SRqt_Lv-RGNbuxPfy_yL4w":{"rating":3.0,"num_photos":0,"postal_code":"61821","name":"Central Illinois Bank"},"qQu--8A6Ic0rytLfI1r4dg":{"rating":1.5,"num_photos":0,"postal_code":"61820","name":"Wendy's"},"PjOobIUE5onVqU_t7gskrQ":{"rating":3.5,"num_photos":0,"postal_code":"61801","name":"Garcia's Pizza In a Pan"},"d-l0D4N236Qc0-Iy-p1cFw":{"rating":3.5,"num_photos":0,"postal_code":"61802","name":"Cracker Barrel Old Country Store"},"A_wn7gdvQAv5F2-0CBjgEA":{"rating":3.0,"num_photos":7,"postal_code":"61874","name":"Buffalo Wild Wings"},"O1xMVmaQIluqgBQqlR-Oqw":{"rating":5.0,"num_photos":0,"postal_code":"61820","name":"Sylvia's Irish Inn"},"sVh1syJsEs3DXWE085SSKA":{"rating":2.5,"num_photos":0,"postal_code":"61802","name":"PDR Automotive"},"Re3QMHqin0xiQ9Zhxb4gLQ":{"rating":4.5,"num_photos":0,"postal_code":"61853","name":"The Wingery"},"ltqvLrYq9QjeQjQ1NlqLcA":{"rating":3.5,"num_photos":0,"postal_code":"61821","name":"Ming Garden"},"wFBvqxzfkPgzG2EmGKcguw":{"rating":2.0,"num_photos":0,"postal_code":"61801","name":"Office the"},"_RMKXUoZOEzMVp5vzYtxOg":{"rating":1.5,"num_photos":0,"postal_code":"61820","name":"News-Gazette"},"tjM2CZqRJ17oFapBTmGovw":{"rating":2.0,"num_photos":0,"postal_code":"61801","name":"Pancheros Mexican Grill"},"th4pZ5LkoIIkb1Vmu_m2DA":{"rating":4.0,"num_photos":5,"postal_code":"61820","name":"Meatheads"},"pVLZQRs67CF4gZCEYCe_3Q":{"rating":3.5,"num_photos":0,"postal_code":"61802","name":"Hickory River Smokehouse"},"JCunPD7s6TWHp7e9n-IZew":{"rating":2.5,"num_photos":0,"postal_code":"61820","name":"Roto-Rooter Plumbing & Drain Services"},"bBTJEjq5tmxNZq_9mDoPMQ":{"rating":4.5,"num_photos":0,"postal_code":"61820","name":"Putt Zone Fun Center"},"Lx7e54TaIPtxW5aZ6Ze38A":{"rating":2.5,"num_photos":0,"postal_code":"61866","name":"El Toro"},"5jak2hYO5ikUzjm-Ytao5A":{"rating":2.5,"num_photos":0,"postal_code":"61801","name":"Starbucks"},"k9UXfEISfhf0X7hHWNW4dg":{"rating":4.5,"num_photos":0,"postal_code":"61802","name":"Shear Impressions"},"3XUH9aFxt4vU9Pzi5aBtow":{"rating":2.0,"num_photos":0,"postal_code":"61866","name":"Domino's Pizza"},"oYMsq2Xvzw6UbrIlMWjb-A":{"rating":2.5,"num_photos":0,"postal_code":"61820","name":"Papa John's Pizza"},"Gzs4Gjd2MI72mmmWKwfXlw":{"rating":5.0,"num_photos":0,"postal_code":"61820","name":"Brainstorm Escapes"},"sGMKlGNc-wShORDxfyIung":{"rating":5.0,"num_photos":0,"postal_code":"61822","name":"Atlantic Services"},"fZQ3QjGMRELHG9f0WnN8vw":{"rating":4.5,"num_photos":0,"postal_code":"61820","name":"The Habitat for Humanity ReStore"},"ZuhU5-w3S_L7MPaeEOQhJA":{"rating":2.0,"num_photos":0,"postal_code":"61822","name":"All About Eyes"},"1fBxvfNd9JZbR5R1YLHmoQ":{"rating":3.5,"num_photos":0,"postal_code":"61821","name":"FedEx Office Print & Ship Center"},"oWQwUw8xfQgi1nVNKgS6vA":{"rating":3.5,"num_photos":8,"postal_code":"61801","name":"Silvercreek"},"pilPpu6CBnGCHPXHDnp5cg":{"rating":4.5,"num_photos":0,"postal_code":"61801","name":"University Of Illinois Arboretum"},"kQrCHZb5UgpWE1cjM7-21w":{"rating":4.0,"num_photos":0,"postal_code":"61820","name":"Kessler Optical"},"goMjgu29SLWubjB_j8VkBQ":{"rating":1.5,"num_photos":0,"postal_code":"61821","name":"Days Inn Champaign\/Urbana"},"a3hjBPsnpcTpcquQXLeS0w":{"rating":4.5,"num_photos":2,"postal_code":"","name":"Dragon Fire Pizza"},"OqcO3MOvAxyNzf-PnmiZzg":{"rating":3.0,"num_photos":0,"postal_code":"61826","name":"217 & Smith's Towing"},"ObNQVg_ohRVLex4ppmMC5w":{"rating":3.5,"num_photos":0,"postal_code":"61874","name":"Sonic Drive-In"},"T0sMsXt_e4fBQXd8PP-YnA":{"rating":1.5,"num_photos":0,"postal_code":"61801","name":"Presence Covenant Medical Center"},"vQmQMU3qbo1yZf5A2NoAyQ":{"rating":3.0,"num_photos":0,"postal_code":"61822","name":"America's Best Contacts & Eyeglasses"},"zCNMoBV429t3m1KudMuHGA":{"rating":5.0,"num_photos":0,"postal_code":"61821","name":"Jennifer Allen Therapies"},"BQbDU21SuXERM_gK9AA9AQ":{"rating":3.5,"num_photos":0,"postal_code":"61801","name":"Einstein Bros Bagels"},"epvLkQNL6MOvk3s6JlTntA":{"rating":3.5,"num_photos":1,"postal_code":"61820","name":"Carmon's Restaurant"},"ML-C1g5YVS7CsfVb9cLwGA":{"rating":5.0,"num_photos":0,"postal_code":"61856","name":"Monticello Railway Museum"},"4jB9-c7gs6YPIAYcWQpaHg":{"rating":2.0,"num_photos":1,"postal_code":"61821","name":"Value Check"},"hxWqksXGHiwz2qINMb7FVQ":{"rating":2.0,"num_photos":0,"postal_code":"61820","name":"BMI Management"},"CpCItQDOA8cHI9jDMJ8AUg":{"rating":4.5,"num_photos":0,"postal_code":"61822","name":"D & W Lake Camping & Fishing"},"gUTz4Y3GIPq8zq1Mi-kHzw":{"rating":2.0,"num_photos":7,"postal_code":"61874","name":"KFC"},"JDXUW8KJWGkBl79EIHlqGg":{"rating":1.5,"num_photos":0,"postal_code":"61822","name":"Zmodo Technology"},"DTxj39kZVe3NUscJoPYUYA":{"rating":3.0,"num_photos":0,"postal_code":"61820","name":"Car-X Tire & Auto"},"Yp2iXcCJeuSgRjLDEwGJWw":{"rating":4.0,"num_photos":0,"postal_code":"61820","name":"Sailfin Pet Shop"},"WdLhSeiF4VImXkc14gnC9g":{"rating":4.0,"num_photos":0,"postal_code":"61820","name":"Jos. Kuhn & Co"},"adMqhdXZmlZxUBjyyJEyiA":{"rating":4.0,"num_photos":0,"postal_code":"61822","name":"Property Management People"},"odFzgrbzkCuWLTPWbYHdkw":{"rating":4.5,"num_photos":0,"postal_code":"61801","name":"English Hedgerow"},"rf8x3ZTUwzmRUyJgoIZllQ":{"rating":3.0,"num_photos":0,"postal_code":"61820","name":"Spicy Tang"},"CDy4liw0dEXxknf3EXSh-Q":{"rating":4.0,"num_photos":0,"postal_code":"61822","name":"Prairie Gardens"},"YxngrHRkW8gLGOYDJ_LBoQ":{"rating":4.5,"num_photos":0,"postal_code":"61820","name":"Furniture Lounge"},"avIdLrNHtJDsth8w3i4WOg":{"rating":4.0,"num_photos":0,"postal_code":"61801","name":"Red Bicycle Ice Cream"},"iLxG2Oo8HNSZFvJvba4W6g":{"rating":3.0,"num_photos":0,"postal_code":"61820","name":"El Toro Mexican Restaurant"},"bvZHCeHIOMMzIIANFl2zEA":{"rating":4.5,"num_photos":0,"postal_code":"61866","name":"C & C Kitchen"},"gaR5jDvZsOC0RQeY-W1eqQ":{"rating":4.0,"num_photos":0,"postal_code":"61801","name":"Mas Amigos"},"pA3ltu4j31uatVu0_Gu1PQ":{"rating":4.0,"num_photos":0,"postal_code":"61820","name":"Crazy Buffet"},"9blzfKUQ7nsWvNM5L4OhCg":{"rating":4.5,"num_photos":0,"postal_code":"61820","name":"Titan Games"},"_n5wggIEfBzCUepjgvHXAQ":{"rating":3.0,"num_photos":0,"postal_code":"61820","name":"Sushi Ichiban"},"5bfPGu1YTNyb2w9QriysfQ":{"rating":4.5,"num_photos":0,"postal_code":"61820","name":"Pizzazz Haircutery"},"X57f6FWZiwI1wOidPPhOrQ":{"rating":4.0,"num_photos":2,"postal_code":"61820","name":"Dos Reales"},"pMiz7SP82Tknv1NbVqoSfg":{"rating":4.0,"num_photos":3,"postal_code":"61820","name":"Black Dog Smoke & Ale House"},"t0f8qXrKGNWv6j8MGmosRg":{"rating":3.0,"num_photos":2,"postal_code":"61801","name":"Caffebene"},"CSn2-XpArLLYeZ_k2BKzrg":{"rating":4.0,"num_photos":3,"postal_code":"61820","name":"Quality Beer"},"VeQa2vO5rGDcTiAMTrOooA":{"rating":3.5,"num_photos":0,"postal_code":"61856","name":"Any Frequency"},"8ed4YmEWPr5nfau82-OtCA":{"rating":1.5,"num_photos":0,"postal_code":"61822","name":"Subway"},"xYW9qSsgsfyzJOYoj1exKg":{"rating":3.0,"num_photos":0,"postal_code":"61873","name":"Pizza King & Video"},"ThIpnUgWVt94YDoFiVrKaQ":{"rating":3.5,"num_photos":0,"postal_code":"61820","name":"Ice Arena"},"yW_8mPOU_7ee2XQy2BqOYg":{"rating":4.5,"num_photos":0,"postal_code":"61820","name":"Sephora"},"QtRgDAK6k0JELN2_hi0ayw":{"rating":3.5,"num_photos":0,"postal_code":"61802","name":"Papa Murphy's"},"BsxefnHbrpDN7HB2hJrEiw":{"rating":4.5,"num_photos":0,"postal_code":"61802","name":"Taco Motorizado"},"pKUFmHLUn1bBVKeEOePgRQ":{"rating":3.0,"num_photos":0,"postal_code":"61820","name":"Tire Barn"},"_LtsxQ-_32iA8VL5GtLd8Q":{"rating":2.5,"num_photos":0,"postal_code":"61820","name":"Bergner's"},"0wwWlkyGo3aGcRylDlNmuw":{"rating":2.5,"num_photos":0,"postal_code":"61822","name":"Marketview Car Wash"},"fK0Z3tHJZ9zB0JeWlQT3xQ":{"rating":4.5,"num_photos":0,"postal_code":"61801","name":"Derald's"},"7exiPAbaCjBdU3f_yCZQxg":{"rating":3.0,"num_photos":0,"postal_code":"61820","name":"The Eye Center"},"UmZdQID7QJoyg2R92mK3HA":{"rating":4.0,"num_photos":13,"postal_code":"61801","name":"Siam Terrace"},"lwPCzhceDx4nHlxu2JYRfA":{"rating":4.5,"num_photos":0,"postal_code":"61874","name":"Prairieland Feeds"},"4ZqqDdFN7ddniATD_pxUXA":{"rating":5.0,"num_photos":0,"postal_code":"61802","name":"Bouffant Salon"},"sy8lzojvZUcEf0qgytzznQ":{"rating":5.0,"num_photos":0,"postal_code":"61801","name":"Bent Bean"},"cZTdc_mEfriD_Skyc_S8JQ":{"rating":2.5,"num_photos":0,"postal_code":"61801","name":"Jolly Roger"},"wCB9mquz6W0ZuO5pPZXeDg":{"rating":3.5,"num_photos":11,"postal_code":"61820","name":"Lao Sze Chuan Champaign"},"9C_mnDJKcDzE2ONFMDJ9Rg":{"rating":2.0,"num_photos":0,"postal_code":"61820","name":"Duckys Champaign"},"MZ8dSU3HqlnDmS0b864Aww":{"rating":3.5,"num_photos":0,"postal_code":"61820","name":"Bromley Hall"},"LfjgSONDpGF7RJOCv-r9Dg":{"rating":4.5,"num_photos":0,"postal_code":"61866","name":"Rantoul Public House"},"Wrpst2ycDWUtrzk5D195sg":{"rating":1.5,"num_photos":0,"postal_code":"61820","name":"Busey"},"wKaTLh2SJDmK1ihxgNq1zA":{"rating":2.0,"num_photos":0,"postal_code":"61820","name":"Creative Smiles Dental Care"},"D5quwbQTguD4hqMAEARnBg":{"rating":4.5,"num_photos":0,"postal_code":"61801","name":"University of Illinois Veterinary Teaching Hospital"},"f9TKxpYgM_xK4cMdFyeEJQ":{"rating":5.0,"num_photos":0,"postal_code":"61801","name":"Green Yoga Spa"},"kvIZt-F2mZCbI3gp1JTOeA":{"rating":4.5,"num_photos":0,"postal_code":"61820","name":"The Avenue Bed & Breakfast"},"POvBLTDRjiHOSNk4HYzq1A":{"rating":5.0,"num_photos":0,"postal_code":"61822","name":"Denver Mattress"},"r_QcMIgY2zxdcV40kK_rxw":{"rating":2.0,"num_photos":1,"postal_code":"61822","name":"Applebee's Neighborhood Grill & Bar"},"NZ3A0xYdnmIG68mZeZV6AA":{"rating":4.0,"num_photos":0,"postal_code":"61801","name":"Bunny's Tavern"},"TWcilg9o0HMAnXvMNwfXRg":{"rating":3.5,"num_photos":0,"postal_code":"61801","name":"Amara Yoga & Arts"},"ZOWcv-6Iw3vCnVmXtojXzw":{"rating":1.5,"num_photos":0,"postal_code":"61874","name":"BoRics Hair Care"},"DhmrZSIOShDDtFUeUcDIjw":{"rating":4.5,"num_photos":0,"postal_code":"61849","name":"Charlie's Grub & Suds"},"4wzfwVrijdT--mWTESjw9g":{"rating":4.0,"num_photos":0,"postal_code":"61873","name":"China King"},"TP7bC-U0m5y7V5vncWwziA":{"rating":3.5,"num_photos":0,"postal_code":"61856","name":"El Toro"},"GWS5s8HSm1zjqMLJD7wQLg":{"rating":3.5,"num_photos":4,"postal_code":"61822","name":"Woori Jib Restaurant"},"HpYmkJUqmW2Hm16Xx12Y0w":{"rating":3.5,"num_photos":0,"postal_code":"61802","name":"Napleton's Auto Park Urbana"},"rwuMWGqt7L5l5lDsOYv1dw":{"rating":3.5,"num_photos":0,"postal_code":"61820","name":"Zyggyz"},"N_W4JlpCw02VPSf5Mrxwqg":{"rating":4.0,"num_photos":0,"postal_code":"61820","name":"Dunkin' Donuts"},"liYoXFyQEfxabxC0XCejpQ":{"rating":3.0,"num_photos":0,"postal_code":"61820","name":"Jiffy Lube"},"DLhAuWok29OU8VR-DBxP7A":{"rating":4.5,"num_photos":0,"postal_code":"61956","name":"Monicals Pizza"},"HbWnJNtr8DITc4DkpvZKqg":{"rating":3.0,"num_photos":0,"postal_code":"61820","name":"Dazzling Nails"},"rNbAIbTn0zN8yNk0IV7dfQ":{"rating":4.5,"num_photos":1,"postal_code":"61820","name":"The Cake Artist's Studio"},"REpKWYvpkE0O27AMf1iNIg":{"rating":5.0,"num_photos":0,"postal_code":"61853","name":"YoYo's"},"tcf_IMRTRIGthlGVtdJLzg":{"rating":1.5,"num_photos":0,"postal_code":"61820","name":"Joe's Automotive Repair"},"y3YzOSj9NLhTc0Md0nZ1jg":{"rating":2.5,"num_photos":0,"postal_code":"61822","name":"Ho Dang D MD"},"VfOeG-aFb2dDId7QFyO0Sg":{"rating":3.5,"num_photos":0,"postal_code":"61866","name":"Doc's Auto Service"},"BKLWat64KRYzsT2DgY6Xxg":{"rating":4.0,"num_photos":0,"postal_code":"61820","name":"Jarling's Custard Cup"},"1L4YorxS7v3BCB3NcM_diQ":{"rating":3.5,"num_photos":0,"postal_code":"61801","name":"Andrae's Harley-Davidson"},"Pqt05fL95TArBD7mFCni-g":{"rating":2.5,"num_photos":0,"postal_code":"61873","name":"Dairy Queen"},"yLKoESPQ8BN7dn6ADzZicQ":{"rating":3.5,"num_photos":0,"postal_code":"61820","name":"Casablanca Kabab House"},"0ik4cVcAjkq6cIXerk9SzA":{"rating":3.0,"num_photos":0,"postal_code":"61821","name":"Planet Fitness - Champaign"},"8TnEzVYiQrBH7FDKya3RZQ":{"rating":4.5,"num_photos":0,"postal_code":"61801","name":"Timothy John Salon and Spa"},"Y-rCSbMqXWk54bKRAIoyUQ":{"rating":3.5,"num_photos":1,"postal_code":"61801","name":"Caffe Paradiso"},"20dcMWU65FpczwZjYkqF7Q":{"rating":1.0,"num_photos":0,"postal_code":"61820","name":"Portrait Innovation"},"PeZu37TOMW3S9UuB6QUmDA":{"rating":1.0,"num_photos":0,"postal_code":"61820","name":"Super Pantry"},"P8HIJCYtN7ZIeuqNOmX6gQ":{"rating":5.0,"num_photos":0,"postal_code":"61820","name":"American Eagle Auto Glass"},"N5PfEojrY4rFqpqzno4aZg":{"rating":2.0,"num_photos":0,"postal_code":"61801","name":"Bevande Coffee"},"4cCMR1kxIJqdJ8klLffmqg":{"rating":4.0,"num_photos":0,"postal_code":"61874","name":"Friar Tuck Beverage"},"ZvSy8yaly9Aeh64Qm4Dsfw":{"rating":3.5,"num_photos":0,"postal_code":"61820","name":"Red Cape Hot Pot"},"o9nGD3J0btXjE9M6IdgZTA":{"rating":3.0,"num_photos":3,"postal_code":"61820","name":"McAlister's Deli"},"6U8Yniq8cMQcedhs040ZoA":{"rating":3.0,"num_photos":0,"postal_code":"61820","name":"Moonstruck Chocolate Cafe"},"ejdBoVvEdn5fdycuJRen8Q":{"rating":4.0,"num_photos":0,"postal_code":"61802","name":"First Wok"},"yiFcujhdkeDhmXRufMG-lw":{"rating":4.0,"num_photos":6,"postal_code":"61801","name":"Masijta Grill"},"ulvzyi-5vChuode--304DA":{"rating":2.0,"num_photos":0,"postal_code":"61822","name":"Horizon Hobby"},"un_vCJlJHkd4g5PrAxPJhg":{"rating":3.0,"num_photos":0,"postal_code":"61822","name":"All Star Nails"},"-Kp3zrztXidqYMWra6NWkw":{"rating":4.5,"num_photos":0,"postal_code":"61822","name":"Shelby Motors"},"um8QN5jRfz7iMXQSEv5qQA":{"rating":5.0,"num_photos":0,"postal_code":"61858","name":"The Pitstop Bar and Grill"},"EVLfFsWU_l1m1Hj0gWJIvQ":{"rating":5.0,"num_photos":0,"postal_code":"61821","name":"Grovestone"},"bAQa9wmXXRVsD2qE50Ef2w":{"rating":5.0,"num_photos":0,"postal_code":"61820","name":"Dave's Collision Repair"},"hH2N-9cGQBv8heu7uiqekQ":{"rating":3.5,"num_photos":0,"postal_code":"61820","name":"Memphis On Main"},"SLqpLeF3gq6nnx6_JoE7-A":{"rating":5.0,"num_photos":0,"postal_code":"89015","name":"5150 Wraps"},"PUuB4HzEd7CTrcusPpz-NA":{"rating":2.0,"num_photos":0,"postal_code":"61821","name":"Secretary of State"},"Wq84zy8_rw1IkAqPcPqJ9g":{"rating":4.0,"num_photos":1,"postal_code":"61801","name":"Das Cafe"},"j7nnuTxtKnDMkPIZM2hzqw":{"rating":2.5,"num_photos":0,"postal_code":"61822","name":"Merrill Landscape Services"},"kUt6Tbujbbp03bP97uz4Dw":{"rating":4.0,"num_photos":0,"postal_code":"61822","name":"Mettler Center"},"hxlfoblUAzNSOszKlyaV6g":{"rating":2.5,"num_photos":0,"postal_code":"61821","name":"Taco Bell"},"KDhBBJdfDVh0X4TuzNymmw":{"rating":2.5,"num_photos":0,"postal_code":"61822","name":"Dick's Sporting Goods"},"1uWQHvSL7-7rsRuHaZhM_A":{"rating":2.5,"num_photos":0,"postal_code":"61801","name":"Save-A-Lot"},"BQMVcJQV70gUQjwi7-MrSg":{"rating":4.0,"num_photos":0,"postal_code":"61866","name":"Gustoso Authentic Italian Pasta and Pizza"},"62Ibju8UmUZtPIBLDS_nUw":{"rating":3.5,"num_photos":0,"postal_code":"61820","name":"Tasty Fish Chicken & Grill"},"2UCKYEd1x1b-EfvSp8tXAw":{"rating":3.5,"num_photos":1,"postal_code":"61953","name":"Dairy Queen"},"z-jVqx3Wx9fKOK6fn86Csg":{"rating":4.5,"num_photos":0,"postal_code":"61801","name":"Klose Knit"},"9JQF2noQKkLrkMzpidAxqw":{"rating":2.0,"num_photos":0,"postal_code":"61801","name":"ONE South"},"4IqzhMpKHEspD-2bASdPow":{"rating":4.5,"num_photos":0,"postal_code":"61820","name":"Typecast Ink Tattoo & Piercing Studio"},"tEoiNe-cIz0Vf9e7HlPv_w":{"rating":4.0,"num_photos":0,"postal_code":"61820","name":"Rkooa Hair Design"},"ihv1VafxDITsnYsn0ug4tQ":{"rating":2.0,"num_photos":0,"postal_code":"61853","name":"Mahomet Iga"},"XuByFsXXhnKmZ6hxucOj7A":{"rating":3.5,"num_photos":2,"postal_code":"61820","name":"301 Mongolia"},"f3X4w3u5HHLdmahEC0ElrQ":{"rating":3.5,"num_photos":0,"postal_code":"61873","name":"Roch's"},"Y95S0zb-n9_bl7EoyglT7A":{"rating":2.5,"num_photos":0,"postal_code":"61822","name":"Lowe's Home Improvement"},"Icj9QzQxqvzOmPm_liAq1Q":{"rating":3.5,"num_photos":0,"postal_code":"61820","name":"Hilton Garden Inn"},"IrW7miEN-X4Fzswh-2fYvg":{"rating":4.5,"num_photos":0,"postal_code":"61820","name":"Cafe Social"},"EqYzraHIU39JsmxWBWhUig":{"rating":3.5,"num_photos":0,"postal_code":"61821","name":"Abbott's Florist"},"Y2ySw4qMHgjd1T_2Zt9Eeg":{"rating":3.5,"num_photos":0,"postal_code":"61821","name":"TCBY"},"Q628BgV-03FU1Z0i8nhcvw":{"rating":3.0,"num_photos":0,"postal_code":"61821","name":"Flooring America"},"iXhNbqH2oh2MBpXGeqwEVA":{"rating":1.0,"num_photos":0,"postal_code":"61820","name":"Campus Property Management"},"WDTzX_C2CbAwxBbqm-od6g":{"rating":3.0,"num_photos":1,"postal_code":"61820","name":"Cowboy Monkey"},"b6Qs4JBySc_LZZ8Hfsf7vg":{"rating":2.5,"num_photos":0,"postal_code":"61822","name":"Champaign Chrysler Dodge Jeep Ram"},"pOE-Xet6QpDc0m080M8QyA":{"rating":1.0,"num_photos":0,"postal_code":"61820","name":"CampusTown Urgent Care"},"r6NdWvrOvK8lnnT1eYlBqA":{"rating":5.0,"num_photos":0,"postal_code":"61820","name":"Champaign Do It Best Hardware"},"XAR5EVxxPmHzbzxeGXEsJw":{"rating":4.5,"num_photos":0,"postal_code":"61821","name":"La Petite Academy of Champaign"},"NLIU2uxkEgFxzUf5sBs_aw":{"rating":4.5,"num_photos":0,"postal_code":"61802","name":"Urbana Boulders"},"TrWaX_umZow1l9qXzBby5w":{"rating":3.5,"num_photos":0,"postal_code":"61821","name":"Car Care Collision Centers"},"mG3HelRtZVLO3QTYcX4g8Q":{"rating":2.5,"num_photos":0,"postal_code":"61820","name":"C.O. Daniel's"},"KUPKiomUAHyxBs_Lxeq4Vw":{"rating":1.5,"num_photos":0,"postal_code":"61802","name":"Walgreens"},"jj6faQvSneofFt_p60G0fQ":{"rating":3.0,"num_photos":0,"postal_code":"61821","name":"Ultimate Tan"},"VLL7SX1KNC0eKOR_g6nCzQ":{"rating":5.0,"num_photos":0,"postal_code":"61853","name":"P & P Service Center"},"hDhC_DgEIKK5D961doKOXQ":{"rating":2.0,"num_photos":0,"postal_code":"61801","name":"Durst Cycle & Fitness"},"F_xI6cK4Om1O0ilWNLWVmw":{"rating":4.5,"num_photos":0,"postal_code":"61866","name":"Dunkin' Donuts"},"0EWcuUX4d1MHcVdIJIX7gA":{"rating":5.0,"num_photos":0,"postal_code":"61820","name":"CompleteCare Pharmacy"},"2hIM1gWm5TV2oYwP7MX-VA":{"rating":5.0,"num_photos":0,"postal_code":"61822","name":"Pinky's Piercings's & Fine Body Jewelry"},"gaviK8-M4QdeoQOiAwdaYA":{"rating":3.5,"num_photos":1,"postal_code":"61820","name":"Jersey Mike's Subs"},"JPEYaTqH6NMYIshECydAyw":{"rating":3.5,"num_photos":0,"postal_code":"61820","name":"Lee's Oriental Foods"},"_JerBc7MgOit4xrZvuYIvA":{"rating":2.5,"num_photos":0,"postal_code":"61874","name":"BMW of Champaign"},"bMEev3B405vXG2SJthbcBw":{"rating":1.5,"num_photos":0,"postal_code":"61801","name":"America's Best Inns and Suites"},"LcD9KtQ52qTwhJEahO8ohQ":{"rating":1.0,"num_photos":0,"postal_code":"61820","name":"Barr Real Estate"},"Zc3hqSZHkuELzpyRmv6nrQ":{"rating":3.5,"num_photos":1,"postal_code":"61801","name":"Iron Post"},"gsoSAb9t7Ar7Ww6O_3GuOg":{"rating":3.5,"num_photos":0,"postal_code":"61856","name":"Los Toros Numero 2"},"oxfitpFVyy24JVXw_uzaSg":{"rating":4.0,"num_photos":0,"postal_code":"61866","name":"Rantoul Veterinary Clinic"},"5JJ1yA3I_rfLwpl6ouImjg":{"rating":2.5,"num_photos":0,"postal_code":"61801","name":"Busey"},"MV2sYTXcBz7bH4a960ac7w":{"rating":2.5,"num_photos":0,"postal_code":"61820","name":"IHOP"},"O0T9D5frdwE-KeO3ecn3Ow":{"rating":3.5,"num_photos":0,"postal_code":"61821","name":"Ace Hardware"},"JsuQ5_J48YrbRQg4LcF4gA":{"rating":4.5,"num_photos":0,"postal_code":"61858","name":"Oakwood Truck Plaza"},"do6TMZHY7TXQrpOKtJVb6g":{"rating":2.5,"num_photos":0,"postal_code":"61821","name":"Charter Fitness"},"M2FhFQ_jqsAIaaMjfe8zFg":{"rating":3.5,"num_photos":0,"postal_code":"61822","name":"5 Star Nutrition Champaign"},"6jsuYyjUM45WAX-6SxOQgQ":{"rating":4.0,"num_photos":0,"postal_code":"61874","name":"Marble Slab Creamery"},"4OABFHxKDYxJh9A2BhoRkg":{"rating":4.5,"num_photos":0,"postal_code":"61801","name":"Serendipity"},"U_Hxyrx7yGDliv_TPa6i_A":{"rating":2.0,"num_photos":0,"postal_code":"61853","name":"McDonald's"},"c1KRfKtA3AUbf7r9utctVg":{"rating":3.0,"num_photos":0,"postal_code":"61822","name":"The UPS Store"},"ImsH-N-I-I6yxATvNPSzUg":{"rating":3.5,"num_photos":0,"postal_code":"61803","name":"Allen Hall"},"0Tiq09V_kdMFPa1cL6I0AA":{"rating":3.5,"num_photos":0,"postal_code":"61820","name":"Culver's"},"HmF0AvgKSELlDpyLR-gJNQ":{"rating":5.0,"num_photos":0,"postal_code":"61802","name":"Crossroads Grooming & Boarding"},"ChjKd6HgLKmUAQnsrpDSBA":{"rating":3.5,"num_photos":0,"postal_code":"61820","name":"BJ Grand Salon & Spa"},"z2s_fuJZzaSNgL3XW8fclQ":{"rating":3.0,"num_photos":0,"postal_code":"61821","name":"Soma Ultralounge"},"D1vTUM0rBlcU39A9emQW8Q":{"rating":3.0,"num_photos":0,"postal_code":"61801","name":"Bab Plus Korean Restaurant"},"hHVovM_cr6GSrjDTyWfsuQ":{"rating":3.5,"num_photos":0,"postal_code":"61822","name":"Cheddar's Casual Cafe"},"FtP7tGijCE22NLehIUo-Ug":{"rating":1.0,"num_photos":0,"postal_code":"61820","name":"Erwin, Martinkus, & Cole"},"MqhxKfI7oMjUTMqH2gnhyg":{"rating":1.5,"num_photos":0,"postal_code":"61820","name":"McDonald's"},"njngMI0mhAGJ-kH0oo68Ow":{"rating":3.5,"num_photos":0,"postal_code":"61820","name":"Home of Gourmet Chinese & Thai Restaurant"},"pLBF8QrRkMicJcsjAqW7ag":{"rating":4.5,"num_photos":0,"postal_code":"61820","name":"Walnut Street Tea"},"DnpyaIwBnUQ7kgaX8y2jVw":{"rating":4.5,"num_photos":0,"postal_code":"61821","name":"Prairie Farm"},"u4zrfqoxGi9DYIIaOBHq6A":{"rating":3.0,"num_photos":0,"postal_code":"61853","name":"Casey's Carry Out Pizza"},"U68w8EOOdWB96ohZtwPk4w":{"rating":3.5,"num_photos":0,"postal_code":"61820","name":"U & I Nails"},"Q6sAy86CCQZy_qwZZpvOnQ":{"rating":3.0,"num_photos":0,"postal_code":"61853","name":"Arby's"},"eY8afQl17K4N2bf3z6nkCQ":{"rating":2.0,"num_photos":2,"postal_code":"61822","name":"HomeTown Buffet"},"8i04GQgUY3g8q2iw7mewIQ":{"rating":1.0,"num_photos":0,"postal_code":"61856","name":"McDonald's"},"-5NXoZeGBdx3Bdk70tuyCw":{"rating":4.0,"num_photos":1,"postal_code":"61801","name":"Po' Boys Restaurant"},"nlu8cGG9oNp4oKulbwk6pQ":{"rating":4.5,"num_photos":0,"postal_code":"61801","name":"Red's Muffler Shop"},"a9KUNRphQVLeCsC3RAEQPA":{"rating":4.0,"num_photos":0,"postal_code":"61820","name":"Ippatsu Salon"},"eNZszXSug_HjImz0yQrbdA":{"rating":4.5,"num_photos":0,"postal_code":"61824","name":"Christie Clinic Illinois Marathon"},"fQ0_cLrHXLkHQ9WfbnO8xg":{"rating":4.5,"num_photos":0,"postal_code":"61821","name":"Pet Supplies Plus"},"bVt5eOVdpZzg83qlW9Rl2g":{"rating":3.5,"num_photos":0,"postal_code":"61820","name":"Monical's Pizza"},"JbnNk6do3aHF3Kr1bX4HzQ":{"rating":3.0,"num_photos":4,"postal_code":"61822","name":"Jupiter's Pizzeria and Billards"},"rnQLIVk3U7HI7kHRMxC16A":{"rating":3.0,"num_photos":0,"postal_code":"61821","name":"Krispy Krunchy Chicken"},"U-UnzdmX4WN0AwuSsQm2Ag":{"rating":4.5,"num_photos":0,"postal_code":"61821","name":"Autozone"},"p8hbpXhf3Nx2dn_CXGvTaA":{"rating":5.0,"num_photos":0,"postal_code":"61802","name":"Landscape Recycling Center"},"Y2eNTpotBGboB2Q4ocG-JQ":{"rating":4.0,"num_photos":0,"postal_code":"61874","name":"Parkland College Institute of Aviation"},"YrZxRSTg_dVbZd5PXz7G5Q":{"rating":4.0,"num_photos":0,"postal_code":"61801","name":"Dairy Queen"},"pCer-vIZM05p423MFmiSng":{"rating":3.5,"num_photos":4,"postal_code":"61801","name":"Kofusion"},"-dkJN3HL1EUzJlXiN2WfXg":{"rating":2.0,"num_photos":0,"postal_code":"61856","name":"Best Western Monticello Gateway Inn"},"L4WXLHf2p_qoLgiPwzTSgA":{"rating":1.5,"num_photos":0,"postal_code":"61866","name":"Hardee's"},"d9_VFWoells38JCx1QMGlw":{"rating":4.0,"num_photos":0,"postal_code":"61821","name":"Midas"},"Sm6WZBBZWB1loPQCEJFRLQ":{"rating":1.0,"num_photos":0,"postal_code":"61820","name":"AT&T U-verse"},"EoaTB44JdC-Fy4NKc6VSjA":{"rating":2.5,"num_photos":0,"postal_code":"61822","name":"Baytowne Dental Center"},"oK9mdYF8q0XSkhpKs8ChHg":{"rating":2.0,"num_photos":1,"postal_code":"61822","name":"Wendy's"},"1EoXJGJhJsByeBjjj817Sg":{"rating":2.0,"num_photos":0,"postal_code":"61820","name":"Illinois American Water Company"},"uma0HNsysznSfPbQb2HD5g":{"rating":3.5,"num_photos":0,"postal_code":"61874","name":"Saigon Vietnamese Cuisine"},"cGuUEFw374zfpr3Cp8ywJw":{"rating":1.0,"num_photos":1,"postal_code":"61801","name":"Shanghai 1938"},"SvxSoyZn0WW0c7bFLIYfMA":{"rating":4.0,"num_photos":0,"postal_code":"61820","name":"Baxter's American Grille"},"RwMlwusAtxZc5a3ZYduulg":{"rating":3.0,"num_photos":0,"postal_code":"61820","name":"Penn Station"},"2zAj0Tqc1i8bz_FTxPVvIg":{"rating":5.0,"num_photos":0,"postal_code":"61802","name":"TK Service Center"},"-tJ4jylmjXhtFjs9buCnTQ":{"rating":4.5,"num_photos":0,"postal_code":"61866","name":"Prairie Pines Campground"},"PmVxbit6HDDsEUS-j9aDfg":{"rating":3.5,"num_photos":0,"postal_code":"61822","name":"Billy Barooz Bar & Grill"},"dDYUUWzjc9xOZ3QRnxg8Zw":{"rating":4.0,"num_photos":0,"postal_code":"61853","name":"Sweet Designs"},"iKH0466yPmflu8oPhspusw":{"rating":3.5,"num_photos":0,"postal_code":"61878","name":"Hoveln Heating & Cooling"},"bLSa5YFX6kKci_-nLz_0qQ":{"rating":2.5,"num_photos":0,"postal_code":"61820","name":"Red Lion"},"vV6oNhupyM8gEhjmhqLPjQ":{"rating":4.5,"num_photos":0,"postal_code":"61801","name":"Anita Purves Nature Center"},"h5BZArkBziu_6w1PKq7I7Q":{"rating":3.0,"num_photos":0,"postal_code":"61953","name":"Holiday Inn Express Tuscola"},"S_9OaE_RBWBIXnUKvxJKsQ":{"rating":4.0,"num_photos":4,"postal_code":"61820","name":"Watson's Shack & Rail"},"EGaNNRcQLxtEauvfQP91kg":{"rating":5.0,"num_photos":0,"postal_code":"61820","name":"Living Yoga Center"},"yI3BBDTSIBv4MNQm_C97Tg":{"rating":4.0,"num_photos":0,"postal_code":"61822","name":"Pet Palace"},"4OuEWZHLRISfdfoz_DOZIw":{"rating":3.0,"num_photos":0,"postal_code":"61820","name":"Insomnia Cookies"},"Lu4PK5K0PMpYpT9j1bj_dg":{"rating":5.0,"num_photos":0,"postal_code":"61822","name":"Mattex Service - Heating, Cooling and Plumbing"},"r6Jw8oRCeumxu7Y1WRxT7A":{"rating":5.0,"num_photos":0,"postal_code":"61802","name":"D&D Cleaning"},"jA-sEoLY9tqzwX7-wv09pA":{"rating":4.0,"num_photos":0,"postal_code":"61820","name":"Studio 9 Hair Design"},"ZMcbVIEXsLO7j1Q1GXKPSw":{"rating":3.5,"num_photos":4,"postal_code":"61820","name":"A-Ri-Rang"},"RofPcfgxItpYw1eQ3e1Hjw":{"rating":3.0,"num_photos":0,"postal_code":"61820","name":"Nitaya Thai Restaurant"},"k8sEJ1TrXF6W1updzaUeMA":{"rating":5.0,"num_photos":0,"postal_code":"61820","name":"J&J Cell Phone Repair"},"aoPNxrEMG7aFzEuRjMy5Vg":{"rating":2.5,"num_photos":0,"postal_code":"61801","name":"Eighty-Eight Broadway"},"ofsMiZDWTiXgo5GefquVQg":{"rating":3.0,"num_photos":0,"postal_code":"61822","name":"Meadows Animal Hospital"},"efdPLo00sOD-1Wf77hg5jQ":{"rating":2.0,"num_photos":0,"postal_code":"61822","name":"TruGreen Lawn Care"},"p0XOMWVRVyeXvfvDi5af9w":{"rating":2.0,"num_photos":0,"postal_code":"61820","name":"Daily Illini"},"mzWct2Vkin56ue6dIzmq8w":{"rating":2.5,"num_photos":0,"postal_code":"61874","name":"Best Western Paradise Inn"},"rl3giNEKOTwjE6BwpMZdOA":{"rating":3.0,"num_photos":0,"postal_code":"61820","name":"Crossroads Corner Consignment"},"kMpCPgWXE2EYOtzMDxVHYw":{"rating":3.5,"num_photos":0,"postal_code":"61820","name":"Forever 21"},"qdOHQff0l0OxLu8NdQ5wVw":{"rating":4.0,"num_photos":0,"postal_code":"61802","name":"Feldkamp's 24Hr Towing"},"1S6eB9Ag2VMx3Ab7LHORJw":{"rating":3.5,"num_photos":1,"postal_code":"61822","name":"Aroma Curry House"},"yxMhVaB65N5VGEWSvU9Qzw":{"rating":1.5,"num_photos":0,"postal_code":"61874","name":"Super Pantry"},"-LfTBo0oa_uD454ScEW2XA":{"rating":3.0,"num_photos":0,"postal_code":"61820","name":"Merry Ann's Diner"},"KNe-4VJ1Iupals0RQfo-Pg":{"rating":1.5,"num_photos":0,"postal_code":"61820","name":"Concord Custom Cleaners"},"0ptR21GHRuQ1MFtxGNcxzw":{"rating":3.5,"num_photos":0,"postal_code":"61802","name":"Milo's Restaurant"},"4cPM1Hcj3UiN3fxyOsiR9w":{"rating":4.0,"num_photos":0,"postal_code":"61821","name":"Li'l Porgy's Bar-B-Que"},"rmHPZk6jT7NlfJU457oHwg":{"rating":3.0,"num_photos":0,"postal_code":"61801","name":"Espresso Royale Caffe"},"itSMx9rVhLo4i2OhuEwtAQ":{"rating":3.5,"num_photos":0,"postal_code":"61801","name":"Sew Sassy"},"syP9qsN2-TiMbxh2zv1_NQ":{"rating":3.5,"num_photos":0,"postal_code":"61820","name":"Papa Del's Pizza At the Crossing"},"d_Wm9CpzIo_0T-XLfq1UcA":{"rating":3.5,"num_photos":2,"postal_code":"61820","name":"The Hub"},"PWjngofubkLClcJLt16L-Q":{"rating":1.5,"num_photos":0,"postal_code":"61820","name":"Kay Jewelers"},"i_t8WTwztuHweRqQ89hmuQ":{"rating":3.5,"num_photos":4,"postal_code":"61822","name":"Panda Express"},"PSxi7pis1yJpFfM-grdNXA":{"rating":3.5,"num_photos":0,"postal_code":"61866","name":"Sol Azteca"},"yh-JA5fV2QkGaBUjfvioIQ":{"rating":4.0,"num_photos":0,"postal_code":"61820","name":"Fannie May Fine Chocolates"},"E4t43bnsfeOY2bv_8IPmSw":{"rating":2.0,"num_photos":0,"postal_code":"61820","name":"Prime Time Pizza"},"gTFdg40gLp9Jxq5mRhYyFA":{"rating":3.5,"num_photos":0,"postal_code":"61821","name":"Sholem Aquatic Center"},"p59c-k_zK1MwqFJUGVvI5g":{"rating":2.5,"num_photos":0,"postal_code":"61820","name":"Gasoline Alley"},"p77QTTPWNmi6_wAJ5Dh_lQ":{"rating":4.5,"num_photos":0,"postal_code":"61822","name":"Gordmans"}}
